id|identifier|fullName|otherNames|legalForm|predecessor|successor|address|buildingNumber|street|municipality|postalCodes|country|establishmentDate|terminationDate
9371448|00323748|Obec Veľopolie||Obec (obecný úrad), mesto (mestský úrad)|||Veľopolie, Veľopolie 78|78|Veľopolie|Veľopolie|['06731']|Slovenská republika|1973-07-01|
676108|44970072|STAON OKNA s.r.o.||Spoločnosť s ručením obmedzeným||||1096/1A|Opálová|Vranov nad Topľou|['09303']|Slovenská republika|2009-10-14|
4784457|50005448|KONTAJNERY POPRAD, s. r. o.||Spoločnosť s ručením obmedzeným||||5112/26A|Levočská|Poprad|['058 01']|Slovenská republika|2015-10-29|
675452|36384992|PROCAR, a.s.||Akciová spoločnosť||||800|Demänovská ul.|Liptovský Mikuláš|['03101']|Slovenská republika|1999-03-24|
674740|44668911|VT-KANAL sk s.r.o.||Spoločnosť s ručením obmedzeným||||1043/67|Bernolákova|Vranov nad Topľou|['09301']|Slovenská republika|2009-03-14|
9985198|||||||||||||1992-11-26|2023-08-10
9372071|00326607|Mesto Svit||Obec (obecný úrad), mesto (mestský úrad)|||Svit, Hviezdoslavova 268/32|32|Hviezdoslavova|Svit|['05921']|Slovenská republika|1973-07-01|
706042|36400491|T+T, a.s.||Akciová spoločnosť||||18|Andreja Kmeťa|Žilina|['01001']|Slovenská republika|2001-08-27|
376934|46938079|Profesionálny register s.r.o.||Spoločnosť s ručením obmedzeným||||9|Michalská|Bratislava|['81101']|Slovenská republika|2013-01-29|
1056865|47079690|GGFS s.r.o.||Spoločnosť s ručením obmedzeným||||5|Sasinkova|Bratislava|['811 08']|Slovenská republika|2013-03-20|
3809201|46296573|Marek Krištof||Podnikateľ-fyzická osoba-nezapísaný v obchodnom registri||||||Dukovce|['08644']|Slovenská republika|2011-08-01|
1004201|36747262|OZE Solutions a.s.||Akciová spoločnosť||||1|Tulipánová|Senec|['903 01']|Slovenská republika|2007-03-02|
15121649|53539133|Dobraobec s.r.o.||Spoločnosť s ručením obmedzeným||||1085/40|Švermova|Sobrance|['07301']|Slovenská republika|2021-01-19|
9169577|50839381|SOĽANSKE NEVESTY||Združenie (zväz, spolok, spoločnosť, klub ai.)||||||Soľ|['09435']|Slovenská republika|2017-05-05|
4591292|42379997|Bežecký klub BK ZASRUN Šarišské Bohdanovce||Združenie (zväz, spolok, spoločnosť, klub ai.)||||||Šarišské Bohdanovce|['08205']|Slovenská republika|2014-03-20|
707458|46642285|MCOM-NET s. r. o.||Spoločnosť s ručením obmedzeným||||23/217|Dujavská|Raslavice|['08641']|Slovenská republika|2012-04-24|
801506|44670028|ShowMedia s.r.o.||Spoločnosť s ručením obmedzeným||||2|Jarmočná|Košice - mestská časť Juh|['04001']|Slovenská republika|2009-04-07|
9895398|00164836|Hudobné centrum||Príspevková organizácia|||Bratislava - mestská časť Staré Mesto, Michalská 384/10|10|Michalská|Bratislava - mestská časť Staré Mesto|['81536']|Slovenská republika|1970-08-15|
1005311|31325416|ČSOB Poisťovňa, a.s.||Akciová spoločnosť||||11|Žižkova|Bratislava|['81102']|Slovenská republika|1992-06-09|
198622|31338551|Konica Minolta Slovakia spol. s r. o.||Spoločnosť s ručením obmedzeným||||17/B|Galvaniho|Bratislava|['82104']|Slovenská republika|1992-12-11|
4700269|45743312|MIMA, n.o.||Nezisková organizácia poskytujúca všeobecne prospešné služby|||||Merník|Merník|['09423']|Slovenská republika|2014-06-11|
9371529|37870475|Prešovský samosprávny kraj||Samosprávny kraj (úrad samosprávneho kraja)|||Prešov, Námestie mieru 5043/2|2|Námestie mieru|Prešov|['08001']|Slovenská republika|2001-12-15|
3412307|30652952|Ing. Richard Soporský - projektová činnosť||Podnikateľ-fyzická osoba-nezapísaný v obchodnom registri||||15|Vihorlatská|Prešov|['08001']|Slovenská republika|1992-08-12|
7026653|50334981|nezisková organizácia Projekt DOM.ov||Nezisková organizácia poskytujúca všeobecne prospešné služby||||10|Lesná|Zborov|['08633']|Slovenská republika|2016-05-09|
1075670|46447156|BAUSKA, s. r. o.||Spoločnosť s ručením obmedzeným||||147/20|Družstevná|Rozhanovce|['044 42']|Slovenská republika|2011-12-10|
270306|48231657|Premier Consulting EU, s.r.o.||Spoločnosť s ručením obmedzeným||||870|Hadovská cesta|Komárno|['94501']|Slovenská republika|2015-07-14|
9370985|00332623|Obec Nová Kelča||Obec (obecný úrad), mesto (mestský úrad)|||Nová Kelča, Nová Kelča 72|72|Nová Kelča|Nová Kelča|['09404']|Slovenská republika|1973-07-01|
9720060|51983354|REDMONT s. r. o.||Spoločnosť s ručením obmedzeným||||34/6|Boženy Němcovej|Košice - mestská časť Sever|['04001']|Slovenská republika|2018-10-25|
811587|31691021|Ekover, s.r.o.||Spoločnosť s ručením obmedzeným||||34|SNP|Spišské Vlachy|['05361']|Slovenská republika|1994-06-02|
14597959|52877744|i4Corporation s. r. o.||Spoločnosť s ručením obmedzeným||||10A|Karpatské námestie|Bratislava - mestská časť Rača|['83106']|Slovenská republika|2020-05-29|
10904311|52846059|Fond na podporu športu||Verejnoprávna inštitúcia|||Bratislava - mestská časť Nové Mesto, Príkopova 3255/6, 83103, Slovenská republika|6|Príkopova|Bratislava - mestská časť Nové Mesto|['83103']|Slovenská republika|2019-10-15|
670696|44685173|PcProfi, s. r. o.||Spoločnosť s ručením obmedzeným||||14050/119|Fintická|Prešov|['08006']|Slovenská republika|2009-03-21|
299575|45510393|BINS s.r.o.||Spoločnosť s ručením obmedzeným|||||Vašinova 61|Nitra|['94901']|Slovenská republika|2010-04-29|
735250|36184454|KAPA-PRESS, spoločnosť s ručením obmedzeným||Spoločnosť s ručením obmedzeným||||1678|Ulica Andreja Kvasa|Košice - mestská časť Barca|['04017']|Slovenská republika|1998-05-20|
3755182|37212931|Henrich Sonnenschein - ITSK||Podnikateľ-fyzická osoba-nezapísaný v obchodnom registri||||22|Fraňa Mojtu|Nitra|['94901']|Slovenská republika|2000-01-21|
756322|44562241|GAMA SM s.r.o.||Spoločnosť s ručením obmedzeným||||767/140|Dlhá|Vranov nad Topľou|['093 01']|Slovenská republika|2008-12-31|
545903|31613080|Lionbridge (Slovakia) s.r.o.||Spoločnosť s ručením obmedzeným||||9021/6|Hollého|Žilina|['010 01']|Slovenská republika|1994-09-14|
579366|36734390|BROS Computing, s.r.o.||Spoločnosť s ručením obmedzeným||||169/10|Kolmá|Žilina|['01003']|Slovenská republika|2007-02-03|
535046|48255866|K project s.r.o.||Spoločnosť s ručením obmedzeným||||528/1|Lúky|Kamenná Poruba|['01314']|Slovenská republika|2015-07-30|
3543081|45670145|Bc. Peter Gula||Podnikateľ-fyzická osoba-nezapísaný v obchodnom registri||||169|Pezinská|Vinosady|['90201']|Slovenská republika|2010-08-01|
9042375|50569589|LORD - Lomnický Rodičia Deťom||Združenie (zväz, spolok, spoločnosť, klub ai.)||||747|Porubská|Vranov nad Topľou||Slovenská republika|2016-11-14|
896906|31376134|EBA, s.r.o.||Spoločnosť s ručením obmedzeným||||1|Rusovská cesta|Bratislava|['851 01']|Slovenská republika|1994-07-27|
15137519|37873369|Základná škola, Juh 1054, Vranov nad Topľou||Rozpočtová organizácia||||1054|Juh|Vranov nad Topľou||Slovenská republika|1975-10-01|
971584|44903481|Medpartner s.r.o.||Spoločnosť s ručením obmedzeným||||3|Hollého|Prešov|['08001']|Slovenská republika|2009-08-04|
9711919|31998844|Rímskokatolícka farnosť Panny Márie de Mercede, Holčíkovce||Cirkevná organizácia|||Holčíkovce, 15, 09405, Slovenská republika|||Holčíkovce|['09405']|Slovenská republika|1994-01-01|
9370617|00331996|Mesto Trebišov||Obec (obecný úrad), mesto (mestský úrad)|||Trebišov, M. R. Štefánika 862/204, 07525, Slovenská republika|204|M. R. Štefánika|Trebišov|['07525']|Slovenská republika|1973-07-01|
4693711|31942644|ŠK Roma Zámutov||Združenie (zväz, spolok, spoločnosť, klub ai.)||||||Zámutov|['09415']|Slovenská republika|1992-07-17|
8515254|50407376|MSP Košice s.r.o.||Spoločnosť s ručením obmedzeným||||360/16|Kupeckého|Košice - mestská časť Juh|['040 01']|Slovenská republika|2016-07-16|
999516|31713874|Roľnícke družstvo KOROMĽA||Družstvo||||165||Koromľa|['07262']|Slovenská republika|1995-09-25|
602150|31588506|ERPOS, spol. s r.o.||Spoločnosť s ručením obmedzeným||||1609/29|Vendelína Javorku|Žilina|['010 01']|Slovenská republika|1993-07-06|
9642901|35514892|JUDr. Iveta Rajtáková, advokátka||Slobodné povolanie-fyzická osoba podnikajúca na základe iného ako živnostenského zákona||||20|Štúrova|Košice - mestská časť Staré Mesto|['04001']|Slovenská republika|1996-01-01|
670906|45425183|GTIS charging SK s.r.o.||Spoločnosť s ručením obmedzeným||||670/58|Legionárska|Trenčín|['91101']|Slovenská republika|2010-03-24|
14496878|42081343|Stredisko Evanjelickej DIAKONIE Vranov nad Topľou||Cirkevná organizácia|||Vranov nad Topľou, Lúčna 814/57, 09301, Slovenská republika|57|Lúčna|Vranov nad Topľou|['09301']|Slovenská republika|2007-12-10|
689354|46155571|TOPCONTROL s.r.o.||Spoločnosť s ručením obmedzeným||||11628/38|Budovateľská|Prešov|['08001']|Slovenská republika|2011-05-05|
406882|31331785|RICOH Slovakia s.r.o.||Spoločnosť s ručením obmedzeným||||100/B|Vajnorská|Bratislava - mestská časť Nové Mesto|['83104']|Slovenská republika|1992-09-07|
998666|46113177|Energie2, a.s.||Akciová spoločnosť||||3a|Lazaretská|Bratislava|['81108']|Slovenská republika|2011-03-30|
215495|47892609|FLORA SERVIS GROUP, s.r.o.||Spoločnosť s ručením obmedzeným||||10/16|Bednárova|Myjava|['907 01']|Slovenská republika|2014-09-06|
9507759|||||||||||||2018-03-09|2023-08-03
704662|36445835|ELA VRANOV s.r.o.||Spoločnosť s ručením obmedzeným||||1289|Budovateľská|Vranov nad Topľou|['09301']|Slovenská republika|1997-04-07|
620730|36500771|STELL s.r.o.||Spoločnosť s ručením obmedzeným||||1580|Dobrianskeho|Vranov nad Topľou|['09301']|Slovenská republika|2005-01-01|
9370094|00332330|Obec Davidov||Obec (obecný úrad), mesto (mestský úrad)|||Davidov, Davidov 182|182|Davidov|Davidov|['09303']|Slovenská republika|1973-07-01|
776371|47249021|Vranovská nemocnica, a.s.||Akciová spoločnosť||||187/177 B|M. R. Štefánika|Vranov nad Topľou|['09327']|Slovenská republika|2013-06-29|
9461335|51420201|KOVMAK s.r.o.||Spoločnosť s ručením obmedzeným||||233|Poštová|Svidník|['08901']|Slovenská republika|2018-02-15|
6558471|50206648|Ján Meliško - MeliTech||Podnikateľ-fyzická osoba-nezapísaný v obchodnom registri||||22|Ulica V. Benedikta|Prievidza|['97101']|Slovenská republika|2016-02-22|
652412|36484687|STANOPROJEKT, s.r.o.||Spoločnosť s ručením obmedzeným||||4/31|Hlavná|Benkovce|['09402']|Slovenská republika|2003-03-27|
795188|44676441|EUprojects, s.r.o.||Spoločnosť s ručením obmedzeným||||71/1192|Kuzmányho|Košice|['04001']|Slovenská republika|2009-03-13|
825281|36601411|PLAYSYSTEM s.r.o.||Spoločnosť s ručením obmedzeným||||4|Rampová|Košice|['04001']|Slovenská republika|2005-12-24|
9781471|00681385|Výskumný ústav detskej psychológie a patopsychológie||Príspevková organizácia|||Bratislava - mestská časť Rača, Cyprichova 2480/42|42|Cyprichova|Bratislava - mestská časť Rača|['83105']|Slovenská republika|1990-07-01|
13696921|17070775|Prešovská univerzita v Prešove||Verejnoprávna inštitúcia||||15|Ul. 17. novembra|Prešov|['08001']|Slovenská republika|1997-01-01|
4621431|45736359|DataCentrum elektronizácie územnej samosprávy Slovenska||Záujmové združenie právnických osôb||||1|Námestie Mateja Korvína|Bratislava - mestská časť Staré Mesto|['81107']|Slovenská republika|2011-08-11|
697206|36492221|Bistro DOMINIKA s.r.o.||Spoločnosť s ručením obmedzeným||||17||Čičava|['09301']|Slovenská republika|2004-03-23|
775979|36486264|Slovak Medical Company, a.s.||Akciová spoločnosť||||1|Duchnovičovo nám.|Prešov|['08001']|Slovenská republika|2003-06-16|
4634902|45731195|Eurotrend, n.o.||Nezisková organizácia poskytujúca všeobecne prospešné služby||||16|Duchnovičova|Medzilaborce|['06801']|Slovenská republika|2009-12-04|
9370488|00323021|Mesto Humenné||Obec (obecný úrad), mesto (mestský úrad)|||Humenné, Kukorelliho 1501/34, 06628, Slovenská republika|34|Kukorelliho|Humenné|['06628']|Slovenská republika|1973-07-01|
836483|44984740|Baribal s.r.o.||Spoločnosť s ručením obmedzeným||||2134/21|Kežmarská cesta|Levoča|['05401']|Slovenská republika|2009-10-10|
10041294|52591387|MG DOKUMENT, s.r.o.||Spoločnosť s ručením obmedzeným||||7158/5|Legionárska|Trenčín|['91101']|Slovenská republika|2019-09-21|
9370174|00332887|Obec Tovarné||Obec (obecný úrad), mesto (mestský úrad)|||Tovarné, Tovarné 4|4|Tovarné|Tovarné|['09401']|Slovenská republika|1973-07-01|
753026|46057137|RE-MA spol. s r.o.||Spoločnosť s ručením obmedzeným||||959/6|Slanská|Vranov nad Topľou|['09303']|Slovenská republika|2011-04-13|
2725619|46755748|Radoslav Hudák - STOLÁRSTVO||Podnikateľ-fyzická osoba-nezapísaný v obchodnom registri||||||Skrabské|['09433']|Slovenská republika|2012-08-01|
4671544|42326656|Občianske združenie TOPTECH||Združenie (zväz, spolok, spoločnosť, klub ai.)||||15|Vrátna|Košice - mestská časť Staré Mesto|['04001']|Slovenská republika|2014-02-05|
17695010|56196521|Martina Dargajová||Podnikateľ-fyzická osoba-nezapísaný v obchodnom registri||||||Banské|['09412']|Slovenská republika|2024-04-04|
10088991|52714764|MADERA s.r.o.||Spoločnosť s ručením obmedzeným||||385|Haniska|Haniska|['04457']|Slovenská republika|2019-11-15|
4635628|22664980|Slovenský odborový zväz verejnej správy a kultúry||Združenie (zväz, spolok, spoločnosť, klub ai.)||||29B|Bajkalská|Bratislava - mestská časť Ružinov|['821 01']|Slovenská republika|1990-10-11|
9730125|31979408|Rímskokatolícka farnosť Najsvätejšej Trojice, Slovenská Kajňa||Cirkevná organizácia|||Slovenská Kajňa, Hlavná ulica 130/2, 09402, Slovenská republika|2|Hlavná ulica|Slovenská Kajňa|['09402']|Slovenská republika|1990-01-01|
913220|36727466|PROSERVIS Strážske, s. r. o.||Spoločnosť s ručením obmedzeným||||1305/101|Mierová|Strážske|['072 22']|Slovenská republika|2007-01-19|
9612841|51749386|SBA - B&T GROUP, s.r.o.||Spoločnosť s ručením obmedzeným||||4651/9|Štúrova|Topoľčany|['955 01']|Slovenská republika|2018-06-07|
646125|36869601|DUTO MONT, s.r.o.||Spoločnosť s ručením obmedzeným||||45||Tovarné|['09401']|Slovenská republika|2010-09-10|
9646793|00179205|Gréckokatolícke arcibiskupstvo Prešov||Cirkevná organizácia|||Prešov, Hlavná 2870/1, časť obce: Prešov, 081 35, Slovenská republika|1|Hlavná|Prešov|['081 35']|Slovenská republika|1976-12-31|
345464|47176253|TTP consulting s.r.o.||Spoločnosť s ručením obmedzeným||||368/47|Šoltésovej|Považská Bystrica|['01701']|Slovenská republika|2013-05-22|
2706451|33268398|Dušan Bilý||Podnikateľ-fyzická osoba-nezapísaný v obchodnom registri||||26|Okulka|Vranov nad Topľou|['09303']|Slovenská republika|1993-04-29|
14507943|31967060|Cirkevný zbor Evanjelickej cirkvi augsburského vyznania na Slovensku Chmeľov||Cirkevná organizácia|||Chmeľov, 71, 08215, Slovenská republika|||Chmeľov|['08215']|Slovenská republika|1994-01-01|
611158|44932766|TATRAMETAL PP s.r.o.||Spoločnosť s ručením obmedzeným||||2|Teplická cesta|Poprad|['05801']|Slovenská republika|2009-09-10|
994456|00151700|Allianz - Slovenská poisťovňa, a.s.||Akciová spoločnosť||||19|Pribinova|Bratislava - mestská časť Staré Mesto|['81109']|Slovenská republika|1991-11-12|
1000680|31721613|GAMA - poľnohospodárske družstvo Pavlovce nad Uhom||Družstvo||||č. 74||Pavlovce nad Uhom|['07214']|Slovenská republika|1996-02-14|
9849339|37781146|Hornozemplínska knižnica vo Vranove nad Topľou||Príspevková organizácia|||Vranov nad Topľou, M. R. Štefánika 875/200|200|M. R. Štefánika|Vranov nad Topľou|['09301']|Slovenská republika|1999-04-01|
13435093|37781278|Krajské múzeum v Prešove||Rozpočtová organizácia|||Prešov, Hlavná 2985/86, 08001, Slovenská republika|86|Hlavná|Prešov|['08001']|Slovenská republika|1999-04-01|
646489|47792957|RAMAR Export s.r.o.||Spoločnosť s ručením obmedzeným||||476|1. Mája|Spišská Stará Ves|['06101']|Slovenská republika|2014-06-19|
1758385|45005168|Ing. Ján Kočiš BEPOP||Podnikateľ-fyzická osoba-nezapísaný v obchodnom registri||||1|Ľud. Kukorelliho|Michalovce|['07101']|Slovenská republika|2003-07-09|
9735876|52070565|3MONT plus s.r.o.||Spoločnosť s ručením obmedzeným||||62/29|Sídlisko 1. mája|Vranov nad Topľou|['09301']|Slovenská republika|2018-11-20|
9498601|51449072|FORSEA, s. r. o.||Spoločnosť s ručením obmedzeným||||63||Sedliská|['09409']|Slovenská republika|2018-02-28|
2635469|48165671|Jaroslav Pavlík AGRO - TECH||Podnikateľ-fyzická osoba-nezapísaný v obchodnom registri||||||Mlynčeky|['05976']|Slovenská republika|2015-05-06|
6996019|50296523|Antolik, s.r.o.||Spoločnosť s ručením obmedzeným||||711/59|Slovenská|Hanušovce nad Topľou|['09431']|Slovenská republika|2016-04-29|
16127792|54423236|PRELESY, s.r.o.||Spoločnosť s ručením obmedzeným||||52||Ľuboreč|['985 11']|Slovenská republika|2022-02-15|
688860|36680702|BEPAX, s.r.o.||Spoločnosť s ručením obmedzeným||||4242/5|Rovná|Poprad|['05801']|Slovenská republika|2006-09-29|
616955|47588349|DAVIN s.r.o.||Spoločnosť s ručením obmedzeným||||109||Soľ|['094 35']|Slovenská republika|2013-12-20|
637445|36470694|SBK, s.r.o. Vranov nad Topľou||Spoločnosť s ručením obmedzeným||||1|B. Nemcovej|Vranov nad Topľou|['09301']|Slovenská republika|2001-01-15|
1002764|44387598|TOP SERVIS IT s.r.o.||Spoločnosť s ručením obmedzeným||||10|Krajná|Bratislava - mestská časť Ružinov|['82104']|Slovenská republika|2008-09-20|
14773768|17150981|Urbariát - pozemkové spoločenstvo Spišské Bystré||Pozemkové spoločenstvo||||134|SNP|Spišské Bystré|['05918']|Slovenská republika|1996-03-18|
2725197|41984170|Bartolomej Danko - Dankostav||Podnikateľ-fyzická osoba-nezapísaný v obchodnom registri||||||Nižný Hrabovec|['09421']|Slovenská republika|2006-03-11|
203002|36362727|||Spoločnosť s ručením obmedzeným|||||||||2006-05-25|2024-04-27
14925136|53375092|Milan Zajaroš||Podnikateľ-fyzická osoba-nezapísaný v obchodnom registri||||||Piskorovce|['09405']|Slovenská republika|2020-10-15|
1008848|44500734|SkyToll, a. s.||Akciová spoločnosť||||3/B|Lamačská cesta|Bratislava|['84104']|Slovenská republika|2008-11-12|
656658|36470317|ADS Vranov, s.r.o.||Spoločnosť s ručením obmedzeným||||1345|Mlynská|Vranov nad Topľou|['09301']|Slovenská republika|2001-01-03|
1193561|33157413|Ing. Iveta Sabaková||Podnikateľ-fyzická osoba-nezapísaný v obchodnom registri||||10|Agátová|Trebišov|['07501']|Slovenská republika|1993-06-04|
15878485|54067197|Generali Slovenská distribúcia, a. s.||Akciová spoločnosť||||6257/ 3/A|Lamačská cesta|Bratislava - mestská časť Karlova Ves|['841 04']|Slovenská republika|2021-10-02|
16266152|54607051|KOVÁČ ARCHITEKT s.r.o.||Spoločnosť s ručením obmedzeným||||1028/12|Krakovská|Košice - mestská časť Juh|['040 11']|Slovenská republika|2022-05-13|
4644015|30778867|Slovenská akademická asociácia pre medzinárodnú spoluprácu||Združenie (zväz, spolok, spoločnosť, klub ai.)||||9|Križkova|Bratislava - mestská časť Staré Mesto|['81104']|Slovenská republika|1992-05-21|
745790|44228805|ML - audit, s. r. o.||Spoločnosť s ručením obmedzeným||||658/7|čat. Nebiljaka|Svidník|['08901']|Slovenská republika|2008-06-19|
9389295|00166197|Štatistický úrad Slovenskej republiky||Rozpočtová organizácia|||Bratislava - mestská časť Karlova Ves, Lamačská cesta 3/C, 84005, Slovenská republika|3/C|Lamačská cesta|Bratislava - mestská časť Karlova Ves|['84005']|Slovenská republika|1969-01-01|
652758|31717802|INTRAVENA s.r.o.||Spoločnosť s ručením obmedzeným||||9|Levočská|Prešov|['08001']|Slovenská republika|1995-12-06|
434038|46920765|UNIKOV NITRA, s.r.o.||Spoločnosť s ručením obmedzeným||||4|Lehotská|Nitra|['94901']|Slovenská republika|2012-11-24|
4728547|45732370|Nový Domov Vranov n.T.-Lomnica, n.o.||Nezisková organizácia poskytujúca všeobecne prospešné služby||||44|Šandalská|Stropkov|['09101']|Slovenská republika|2010-02-18|
1013002|36677281|ZSE Energia, a.s.||Akciová spoločnosť||||6|Čulenova|Bratislava|['81647']|Slovenská republika|2006-09-22|
624995|31413056|Invest Leasing s r. o.||Spoločnosť s ručením obmedzeným||||1|Duchnovičovo nám.|Prešov|['08001']|Slovenská republika|1992-05-05|
736314|36466778|KRÍDLA, s.r.o.||Spoločnosť s ručením obmedzeným||||94|Mierova|Humenné|['06601']|Slovenská republika|2000-05-31|
9755502|52083900|ATH-PO Trade s.r.o.||Spoločnosť s ručením obmedzeným||||225/19|Slnečný háj|Záborské|['082 53']|Slovenská republika|2018-12-18|
1061843|47519045|PROFI Výťahy s. r. o.||Spoločnosť s ručením obmedzeným||||34|Drieňová|Bratislava - mestská časť Ružinov|['82102']|Slovenská republika|2013-11-07|
8747377|50451316|iProduct s.r.o.||Spoločnosť s ručením obmedzeným||||81/A|Makarenkova|Ľubotice|['08006']|Slovenská republika|2016-08-24|
590949|31320155|||Akciová spoločnosť|||||||||1992-08-21|2003-08-20
9985485|42234531|Horný Zemplín||Nezisková organizácia|||Slovenská Kajňa, Malá Domaša 094 02 Slovenská Kajňa 106, Slovenská republika||Malá Domaša 094 02 Slovenská Kajňa|Slovenská Kajňa||Slovenská republika|2012-02-24|
844236|47480751|E.N.E.S. spol. s r.o.||Spoločnosť s ručením obmedzeným||||307/31|Pionierska ul.|Šaľa|['92701']|Slovenská republika|2013-10-25|
1027117|47633875|Konica Minolta Marketing Services Limited, organizačná zložka||Nešpecifikovaná právna forma||||17/B|Galvaniho|Bratislava - mestská časť Ružinov|['82104']|Slovenská republika|2014-01-23|
752093|44026978|Gard land s.r.o.||Spoločnosť s ručením obmedzeným||||14|Jasuschova|Košice|['04023']|Slovenská republika|2008-03-14|
946612|45875669|NAJ - STAV s.r.o.||Spoločnosť s ručením obmedzeným||||3063||Vinné|['07231']|Slovenská republika|2010-10-02|
993452|35975946|Disig, a.s.||Akciová spoločnosť||||17/C|Galvaniho|Bratislava - mestská časť Ružinov|['82104']|Slovenská republika|2006-01-25|
9372851|00332259|Obec Banské||Obec (obecný úrad), mesto (mestský úrad)|||Banské, Banské 320|320|Banské|Banské|['09412']|Slovenská republika|1973-07-01|
9856658|52331687|Hotel Mamut s. r. o.||Spoločnosť s ručením obmedzeným||||16999/12|Jégeho|Bratislava - mestská časť Ružinov|['82108']|Slovenská republika|2019-04-05|
2737582|41803523|Slavka Ivanová - ŠTýL||Podnikateľ-fyzická osoba-nezapísaný v obchodnom registri||||12|Sládkovičova|Vranov nad Topľou|['09302']|Slovenská republika|2005-11-12|
891160|46801626|EURO KM, s. r. o.||Spoločnosť s ručením obmedzeným||||4|Rampová|Košice|['04001']|Slovenská republika|2012-09-01|
1473868|37601717|Ing. Peter Majčin - RIS||Podnikateľ-fyzická osoba-nezapísaný v obchodnom registri||||20|M. Šinského|Žilina|['01007']|Slovenská republika|2001-06-01|
17646947|56136021|Ing. Branislav Zaputil||Podnikateľ-fyzická osoba-nezapísaný v obchodnom registri||||||Majerovce|['09409']|Slovenská republika|2024-03-06|
9450444|51329182|Úradovňa plus, s.r.o.||Spoločnosť s ručením obmedzeným||||14|Jarková|Prešov|['08001']|Slovenská republika|2018-02-07|
4687098|00687308|Slovenský futbalový zväz||Združenie (zväz, spolok, spoločnosť, klub ai.)||||30C|Tomášikova|Bratislava - mestská časť Ružinov|['82101']|Slovenská republika|1990-08-10|
1013242|35763469|Slovak Telekom, a.s.||Akciová spoločnosť||||28|Bajkalská|Bratislava|['81762']|Slovenská republika|1999-04-01|
665489|17083851|PRO POPULO Poprad, s.r.o.||Spoločnosť s ručením obmedzeným||||329|Obrancov mieru|Spišská Teplica|['05934']|Slovenská republika|1991-10-22|
9371191|00332470|Obec Kladzany||Obec (obecný úrad), mesto (mestský úrad)|||Kladzany, Kladzany 100|100|Kladzany|Kladzany|['09421']|Slovenská republika|1973-07-01|
9372433|00332828|Obec Sečovská Polianka||Obec (obecný úrad), mesto (mestský úrad)|||Sečovská Polianka, Hlavná 132/135|135|Hlavná|Sečovská Polianka|['09414']|Slovenská republika|1973-07-01|
1168130|33576009|Ing. Ján Buchanec Technik||Podnikateľ-fyzická osoba-nezapísaný v obchodnom registri||||14|Jesenského|Martin|['03601']|Slovenská republika|1993-05-28|
4666944|42134064|Nadácia Allianz||Nadácia||||19|Pribinova|Bratislava - mestská časť Staré Mesto|['811 09']|Slovenská republika|2008-06-17|
347167|44506457|Crew, s. r. o.||Spoločnosť s ručením obmedzeným|||||Miletičova 27|Bratislava|['82109']|Slovenská republika|2008-11-22|
1001466|35709332|||Akciová spoločnosť|||||||||1997-02-12|2022-11-24
698526|45352305|MK hlas, s. r. o.||Spoločnosť s ručením obmedzeným||||73/5|Bernolákova|Sabinov|['08301']|Slovenská republika|2010-01-08|
320769|44010834|ALBERA Slovensko s. r. o.||Spoločnosť s ručením obmedzeným||||991|Moravské Lieskové|Moravské Lieskové|['91642']|Slovenská republika|2008-02-29|
668389|31728499|Lesostav Poprad, s.r.o.||Spoločnosť s ručením obmedzeným||||29|Levočská|Poprad|['05801']|Slovenská republika|1996-06-03|
708190|36377406|AUTOKAROS, a.s.||Akciová spoločnosť||||89|Bytčická|Žilina|['01001']|Slovenská republika|1997-12-18|
9370504|00332399|Mesto Hanušovce nad Topľou||Obec (obecný úrad), mesto (mestský úrad)|||Hanušovce nad Topľou, Mierová 333/3|3|Mierová|Hanušovce nad Topľou|['09431']|Slovenská republika|1973-07-01|
15364081|42089816|Spojená škola, Budovateľská 1309, Vranov nad Topľou||Rozpočtová organizácia||||1309|Budovateľská|Vranov nad Topľou||Slovenská republika|2010-01-01|
15136839|37873393|Základná škola, Kukučínova ulica 106, Vranov nad Topľou||Rozpočtová organizácia||||106|Kukučínova ulica|Vranov nad Topľou||Slovenská republika|1948-01-17|
268034|17682258|FEREX, s.r.o.||Spoločnosť s ručením obmedzeným||||23|Vodná|Nitra|['94901']|Slovenská republika|1991-08-23|
385727|00151653|||Organizačná zložka podniku|||||||||1800-01-01|2002-07-25
9371438|36138517|Slovenská národná knižnica||Rozpočtová organizácia|||Martin, Námestie J. C. Hronského 26/1, časť obce: Martin, 03601, Slovenská republika|1|Námestie J. C. Hronského|Martin|['03601']|Slovenská republika|1997-09-01|
9389373|00164381|Ministerstvo školstva, výskumu, vývoja a mládeže Slovenskej republiky||Rozpočtová organizácia|||Bratislava - mestská časť Nové Mesto, Stromová 2665/1, 81330, Slovenská republika|1|Stromová|Bratislava - mestská časť Nové Mesto|['81330']|Slovenská republika|1988-05-01|
826587|47192941|Galileo Corporation s.r.o.||Spoločnosť s ručením obmedzeným||||468|Čierna Voda|Čierna Voda|['925 06']|Slovenská republika|2013-06-11|
7019415|50310810|RAVOZA s.r.o.||Spoločnosť s ručením obmedzeným||||3662|Vinné|Vinné|['07231']|Slovenská republika|2016-05-05|
1060693|47443430|LUMIZA, s. r. o.||Spoločnosť s ručením obmedzeným||||99/77|Pri Kysuci|Žilina|['010 03']|Slovenská republika|2013-10-05|
643296|45268771|BCP HOLDING, s. r. o.||Spoločnosť s ručením obmedzeným||||69/B|Račianska|Bratislava|['83102']|Slovenská republika|2009-11-06|
16138782|54405181|Gymnathlon Slovensko||Združenie (zväz, spolok, spoločnosť, klub ai.)||||24D|Račianska|Bratislava - mestská časť Nové Mesto|['83102']|Slovenská republika|2022-02-10|
1008304|36854140|Československá obchodná banka, a.s.||Akciová spoločnosť||||11|Žižkova|Bratislava|['81102']|Slovenská republika|2008-01-01|
1011744|36284831|Union zdravotná poisťovňa, a.s.||Akciová spoločnosť||||10|Karadžičova|Bratislava|['81453']|Slovenská republika|2006-03-09|
564606|35871113|EEI s. r. o.||Spoločnosť s ručením obmedzeným||||18|Laurinská|Bratislava - mestská časť Staré Mesto|['81101']|Slovenská republika|2003-11-25|
706046|47651130|TABRIS PLUS, s.r.o.||Spoločnosť s ručením obmedzeným||||18|Strojnícka|Prešov|['08006']|Slovenská republika|2014-01-24|
9371721|00332593|Obec Nižný Hrabovec||Obec (obecný úrad), mesto (mestský úrad)|||Nižný Hrabovec, 407, 09421, Slovenská republika|||Nižný Hrabovec|['09421']|Slovenská republika|1973-07-01|
2695169|34327533|Paed. Dr. Mária Križalkovičová - RIVER||Podnikateľ-fyzická osoba-nezapísaný v obchodnom registri||||8|Juh|Vranov nad Topľou|['09301']|Slovenská republika|1995-12-08|
648635|36448389|CEMED, s.r.o.||Spoločnosť s ručením obmedzeným||||1009|Sídlisko I.|Vranov nad Topľou|['09301']|Slovenská republika|1997-07-29|
3813647|37655264|Ľubomír Ludvik LUTEX||Podnikateľ-fyzická osoba-nezapísaný v obchodnom registri||||9|Ľ. Štúra|Svidník|['08901']|Slovenská republika|1999-03-03|
241378|46259317|Stores inSPORTline SK, s. r. o.||Spoločnosť s ručením obmedzeným||||6471|Električná|Trenčín|['91101']|Slovenská republika|2011-07-09|
706346|46738479|EUROBAU s.r.o.||Spoločnosť s ručením obmedzeným||||1/2582|Werferova|Košice - mestská časť Juh|['04011']|Slovenská republika|2012-08-14|
675298|44602731|ELEKTROSERVIS VV, s.r.o.||Spoločnosť s ručením obmedzeným||||50|Čemernianska|Vranov nad Topľou|['09301']|Slovenská republika|2009-02-03|
9397732|51265770|ZVP RENTAL s.r.o.||Spoločnosť s ručením obmedzeným||||376||Soľ|['09435']|Slovenská republika|2017-12-22|
838304|47325046|LENILA Trade s.r.o.||Spoločnosť s ručením obmedzeným||||24|Ďumbierska|Košice|['040 01']|Slovenská republika|2013-07-23|
9240984|50950568|FM – Trans SK, s.r.o.||Spoločnosť s ručením obmedzeným||||25|Kľačno|Kľačno|['972 15']|Slovenská republika|2017-06-16|
936275|31668305|SITEL s.r.o.||Spoločnosť s ručením obmedzeným||||6|Zemplínska|Košice|['04001']|Slovenská republika|1993-03-08|
4672149|31955983|Záujmové združenie speváckych zborov OZVENA||Združenie (zväz, spolok, spoločnosť, klub ai.)||||12|Dobrianskeho|Vranov nad Topľou|['09301']|Slovenská republika|1994-02-21|
9372444|00321982|Mesto Giraltovce||Obec (obecný úrad), mesto (mestský úrad)|||Giraltovce, Dukelská 77/75, časť obce: Giraltovce, 08701, Slovenská republika|75|Dukelská|Giraltovce|['08701']|Slovenská republika|1973-07-01|
3217676|45674191|Ing. Rastislav Tapšák||Podnikateľ-fyzická osoba-nezapísaný v obchodnom registri||||2|Sibírska|Prešov|['08001']|Slovenská republika|2010-08-01|
7104763|50350587|Strechy Štec, s.r.o.||Spoločnosť s ručením obmedzeným||||48|Sedliská|Sedliská|['09409']|Slovenská republika|2016-06-01|
271348|36314242|ELGAS, s.r.o.||Spoločnosť s ručením obmedzeným||||2271|Robotnícka|Považská Bystrica|['01701']|Slovenská republika|2000-09-25|
1072499|36205214|KOSIT a.s.||Akciová spoločnosť||||98|Rastislavova|Košice|['04346']|Slovenská republika|2001-03-21|
16380550|54753546|Ing. Simona Lancošová||Podnikateľ-fyzická osoba-nezapísaný v obchodnom registri||||||Malá Domaša|['09402']|Slovenská republika|2022-07-06|
781913|00199842|Poľnohospodárske družstvo Spišské Bystré||Družstvo||||915|SNP|Spišské Bystré|['05918']|Slovenská republika|1990-12-17|
16103678|54371660|EP PROTECT s.r.o.||Spoločnosť s ručením obmedzeným||||2|Antona Bernoláka|Michalovce|['07101']|Slovenská republika|2022-01-27|
835435|46181644|StaMi-a s.r.o.||Spoločnosť s ručením obmedzeným||||580/110|Kapušianska|Michalovce|['071 01']|Slovenská republika|2011-05-17|
689102|36488402|Obecný podnik služieb s.r.o. Bystré||Spoločnosť s ručením obmedzeným||||98/20|Šarišská|Bystré|['09434']|Slovenská republika|2003-10-21|
13672871|53021665|1. východoslovenská OZV, s.r.o.||Spoločnosť s ručením obmedzeným||||27|Mlynská|Košice - mestská časť Staré Mesto|['04001']|Slovenská republika|2020-04-09|
7034039|50297465|JADOZ s.r.o.||Spoločnosť s ručením obmedzeným||||2723/15A|Duklianskych hrdinov|Vranov nad Topľou|['09301']|Slovenská republika|2016-05-12|
2971199|46285792|Lenka Hujdičová||Podnikateľ-fyzická osoba-nezapísaný v obchodnom registri||||7|Žakarovská|Gelnica|['05601']|Slovenská republika|2011-07-18|
4627933|37789741|Komunitné združenie Sedliská||Združenie (zväz, spolok, spoločnosť, klub ai.)||||||Sedliská|['09409']|Slovenská republika|2000-05-05|
616129|48029882|KAMIR s.r.o.||Spoločnosť s ručením obmedzeným||||29|Tovarné|Tovarné|['09401']|Slovenská republika|2015-01-31|
4625111|42074495|Klub slovenských turistov JAVORINA Rudlov||Združenie (zväz, spolok, spoločnosť, klub ai.)||||||Rudlov|['09435']|Slovenská republika|2006-06-08|
9371361|00332500|Obec Kučín||Obec (obecný úrad), mesto (mestský úrad)|||Kučín, Kučín 77|77|Kučín|Kučín|['09421']|Slovenská republika|1973-07-01|
9388624|00151882|Centrum vedecko-technických informácií Slovenskej republiky||Príspevková organizácia|||Bratislava - mestská časť Staré Mesto, Lamačská cesta 7315/8A, 81104, Slovenská republika|8A|Lamačská cesta|Bratislava - mestská časť Staré Mesto|['81104']|Slovenská republika|1988-05-01|
779128|36475700|Mestský futbalový klub Vranov nad Topľou, a.s. (v skratke MFK Vranov n. T., a.s.)||Akciová spoločnosť||||1|B. Němcovej|Vranov nad Topľou|['09301']|Slovenská republika|2001-10-04|
9792174|52168956|PREMIUM BVK s.r.o.||Spoločnosť s ručením obmedzeným||||595/41|Jána Erdélyiho|Veľké Kapušany|['07901']|Slovenská republika|2019-01-25|
4742043|42383021|Vranovské vydry||Združenie (zväz, spolok, spoločnosť, klub ai.)||||||Majerovce|['09409']|Slovenská republika|2014-05-23|
10553703|52799336|Pavol Vitko||Podnikateľ-fyzická osoba-nezapísaný v obchodnom registri||||||Betlanovce|['05315']|Slovenská republika|2019-12-01|
500952|43774610|PNEU DT s.r.o.||Spoločnosť s ručením obmedzeným||||342||Stožok|['962 12']|Slovenská republika|2007-10-26|
4739149|42081947|BOX CLUB GLOBAL VÝCHOD||Združenie (zväz, spolok, spoločnosť, klub ai.)||||51|Juh|Vranov nad Topľou|['09301']|Slovenská republika|2008-01-31|
9388486|42418933|Fond na podporu umenia||Verejnoprávna inštitúcia|||Bratislava - mestská časť Staré Mesto, Cukrová 2272/14, 81108, Slovenská republika|14|Cukrová|Bratislava - mestská časť Staré Mesto|['81108']|Slovenská republika|2015-01-01|
16292819|54614619|webex.digital samospráva, s. r. o.||Spoločnosť s ručením obmedzeným||||3858|Ostrovského|Košice - mestská časť Juh|['040 01']|Slovenská republika|2022-05-24|
1060709|47454547|MONASTER, s.r.o.||Spoločnosť s ručením obmedzeným||||2476/1A|Osuského|Bratislava-Petržalka|['85103']|Slovenská republika|2013-10-08|
660072|46664386|PENELCOM s.r.o.||Spoločnosť s ručením obmedzeným||||7/69|Sídlisko 1. mája|Vranov nad Topľou|['09301']|Slovenská republika|2012-05-15|
971200|00617431|MADA Slovakia s.r.o.||Spoločnosť s ručením obmedzeným||||č.10|Puškinova|Košice||Slovenská republika|1991-05-20|
563558|47400072|GARBIAR Stavebniny s.r.o.||Spoločnosť s ručením obmedzeným||||846|Vojtaššákova|Tvrdošín|['02744']|Slovenská republika|2013-09-14|
8739157|50468570|KAJE s.r.o.||Spoločnosť s ručením obmedzeným||||610/22A|Železničná|Bystré|['09434']|Slovenská republika|2016-08-19|
898052|36053694|CENTEX RS, spol. s r.o.||Spoločnosť s ručením obmedzeným||||37|Stará Vajnorská|Bratislava|['83104']|Slovenská republika|2002-04-09|
640104|45500231|FeMiSo s.r.o.||Spoločnosť s ručením obmedzeným||||59/41|Sídlisko 1. mája|Vranov nad Topľou|['09301']|Slovenská republika|2010-05-01|
16005158|54147336|Koľko Lásky o.z.||Združenie (zväz, spolok, spoločnosť, klub ai.)||||43|Rezidenčná ulica|Hrubá Borša|['90050']|Slovenská republika|2021-11-22|
931381|36748269|Medishop Slovakia, s.r.o.||Spoločnosť s ručením obmedzeným|||||Ružinovská 3|Bratislava|['82102']|Slovenská republika|2007-03-06|
7031730|50306456|J.M.J. Projekt, s.r.o.||Spoločnosť s ručením obmedzeným||||511|Bardejovská|Zborov|['08633']|Slovenská republika|2016-05-11|
2717302|41949021|Matúš Rozkoš||Podnikateľ-fyzická osoba-nezapísaný v obchodnom registri||||||Hermanovce nad Topľou|['09434']|Slovenská republika|2006-03-01|
9695112|51883902|Aquaspiš - vodné hospodárstvo s.r.o.||Spoločnosť s ručením obmedzeným||||433||Rudňany|['05323']|Slovenská republika|2018-09-25|
9371078|00332569|Obec Merník||Obec (obecný úrad), mesto (mestský úrad)|||Merník, 164, 09423, Slovenská republika|||Merník|['09423']|Slovenská republika|1973-07-01|
814277|46247815|tender consult, s.r.o.||Spoločnosť s ručením obmedzeným||||45||Klokočov|['07236']|Slovenská republika|2011-07-14|
9371363|00326542|Obec Spišské Bystré||Obec (obecný úrad), mesto (mestský úrad)|||Spišské Bystré, Michalská 394/4|4|Michalská|Spišské Bystré|['05918']|Slovenská republika|1973-07-01|
4724697|42092426|Sociálny dom ANTIC n. o., Bardejov||Nezisková organizácia poskytujúca všeobecne prospešné služby||||71|Pod papierňou|Bardejov|['08501']|Slovenská republika|2009-06-12|
920523|31685064|DECENT SC. s.r.o.||Spoločnosť s ručením obmedzeným||||3635|T. J. Moussona|Michalovce|['07101']|Slovenská republika|1994-02-09|
1008993|35976853|NN Tatry - Sympatia, d.d.s., a.s.||Akciová spoločnosť||||4/C|Jesenského|Bratislava|['81102']|Slovenská republika|2006-02-01|
880845|47019719|PEKÁREŇ KELPEK s.r.o.||Spoločnosť s ručením obmedzeným||||36||Čierne Pole|['07901']|Slovenská republika|2013-02-16|
262335|46113932|ST - Stream, s.r.o.||Spoločnosť s ručením obmedzeným||||646/52|Vinohrady|Veľké Zálužie|['95135']|Slovenská republika|2011-03-30|
12567424|52892018|WITON spol. s r. o.||Spoločnosť s ručením obmedzeným||||1285|Budovateľská|Vranov nad Topľou|['09301']|Slovenská republika|2020-02-13|
748747|46696822|SERIO s.r.o.||Spoločnosť s ručením obmedzeným||||B-16|Nad Medzou|Spišská Nová Ves|['05201']|Slovenská republika|2012-06-21|
9371037|00332321|Obec Ďapalovce||Obec (obecný úrad), mesto (mestský úrad)|||Ďapalovce, Ďapalovce 136|136|Ďapalovce|Ďapalovce|['09405']|Slovenská republika|1973-07-01|
2813090|32849826|Jaroslav Alžbetkin||Podnikateľ-fyzická osoba-nezapísaný v obchodnom registri||||477|Michalská|Spišské Bystré|['05918']|Slovenská republika|1992-10-29|
1880562|10763571|Ing. Angela Vysopalová PhD.||Podnikateľ-fyzická osoba-nezapísaný v obchodnom registri||||16|Karpatská|Spišská Nová Ves|['05201']|Slovenská republika|1992-12-09|
4445241|31673287|AUDIT-CONSULTING, s.r.o.||Spoločnosť s ručením obmedzeným||||2473/7A|Duklianskych hrdinov|Vranov nad Topľou|['09301']|Slovenská republika|1993-06-07|
895920|36586498|Minet Slovakia s.r.o.||Spoločnosť s ručením obmedzeným||||6365/108|Masarykova|Michalovce|['07101']|Slovenská republika|2004-11-25|
4688138|36153061|Futbalový klub Sedliská||Združenie (zväz, spolok, spoločnosť, klub ai.)||||||Sedliská|['09409']|Slovenská republika|1997-04-24|
3516002|34974181|Rastislav Mucha RAMSTAV||Podnikateľ-fyzická osoba-nezapísaný v obchodnom registri||||57|Laborecká|Humenné|['06601']|Slovenská republika|1997-03-19|
9345869|51162083|HOKEJBAL MÔŽE HRAŤ KAŽDÝ||Združenie (zväz, spolok, spoločnosť, klub ai.)||||23A|Ružová|Vranov nad Topľou|['09303']|Slovenská republika|2017-10-13|
1388120|||||||||||||1992-12-04|2023-05-19
2740667|33269017|Ing. arch. Jozef Los-Chovanec||Podnikateľ-fyzická osoba-nezapísaný v obchodnom registri||||||Nová Kelča|['09404']|Slovenská republika|1993-06-18|
14959340|53409515|JUDr. Dominik Jakub||Podnikateľ-fyzická osoba-nezapísaný v obchodnom registri||||15|Školská|Vranov nad Topľou|['09302']|Slovenská republika|2020-11-01|
639526|36490661|DMJ MARKET, s.r.o.||Spoločnosť s ručením obmedzeným||||1288|Budovateľská|Vranov nad Topľou|['09301']|Slovenská republika|2004-01-30|
753562|36204838|TILIO, s.r.o.||Spoločnosť s ručením obmedzeným||||1210/12|Čordákova|Košice - mestská časť Sídlisko KVP|['040 23']|Slovenská republika|2001-03-05|
1725273|35456027|Ladislav Búci EuroTex Slovenská republika||Podnikateľ-fyzická osoba-nezapísaný v obchodnom registri||||504|Družstevná|Strážske|['07222']|Slovenská republika|1999-09-06|
906514|35743565|MAGNA ENERGIA a.s.||Akciová spoločnosť||||18/7555|Nitrianska|Piešťany|['92101']|Slovenská republika|1998-03-06|
2700192|37354566|Kvetoslava Sukovská||Podnikateľ-fyzická osoba-nezapísaný v obchodnom registri||||45|Sídlisko JUH|Vranov nad Topľou|['09301']|Slovenská republika|2001-07-01|
747266|36214574|Moris Slovakia s.r.o.||Spoločnosť s ručením obmedzeným||||4|Alejová|Košice|['04011']|Slovenská republika|2002-06-04|
3597085|43636373|Ing. Peter Huray||Podnikateľ-fyzická osoba-nezapísaný v obchodnom registri||||185|Hlavná|Zemplínske Hámre|['06777']|Slovenská republika|2007-06-04|
13456804|31952763|Gréckokatolícka cirkev, farnosť Rudlov||Cirkevná organizácia|||Rudlov, 140, 09435, Slovenská republika|||Rudlov|['09435']|Slovenská republika|1993-06-29|
780733|43806643|||Akciová spoločnosť|||||||||2007-11-10|2024-01-25
194881|45234469|INISOFT s. r. o.||Spoločnosť s ručením obmedzeným||||8|Kapitulská|Banská Bystrica|['974 01']|Slovenská republika|2009-10-22|
579554|36380725|Mixxer Medical s.r.o.||Spoločnosť s ručením obmedzeným||||49|Kollárova|Martin|['03601']|Slovenská republika|1998-06-02|
15887497|54125588|LIMAT Reality&Building s.r.o.||Spoločnosť s ručením obmedzeným||||1016/4|1. mája|Žilina|['01001']|Slovenská republika|2021-10-07|
9370589|37808427|Žilinský samosprávny kraj||Samosprávny kraj (úrad samosprávneho kraja)|||Žilina, Komenského 2622/48|48|Komenského|Žilina|['01109']|Slovenská republika|2002-01-01|
632548|44547838|ateliér - m spol. s r. o.||Spoločnosť s ručením obmedzeným||||1019|Herlianska|Vranov nad Topľou|['09303']|Slovenská republika|2008-12-18|
269666|36683451|GESTUS Investments, s.r.o.||Spoločnosť s ručením obmedzeným||||253|Šebešťanová|Považská Bystrica|['01704']|Slovenská republika|2006-10-05|
656230|46694447|EDISON SK s.r.o.||Spoločnosť s ručením obmedzeným||||537|Prešovská|Vranov nad Topľou|['09303']|Slovenská republika|2012-05-23|
9388703|00151866|Ministerstvo vnútra Slovenskej republiky||Rozpočtová organizácia|||Bratislava - mestská časť Staré Mesto, Pribinova 2, 81272, Slovenská republika|2|Pribinova|Bratislava - mestská časť Staré Mesto|['81272']|Slovenská republika|1988-05-01|
953092|31677711|Avalon IT s.r.o.||Spoločnosť s ručením obmedzeným||||269/16|Študentská|Košice-Sever|['04001']|Slovenská republika|1993-09-06|
14179270|53053982|WORKSTONE s.r.o.||Spoločnosť s ručením obmedzeným||||18/11|Osloboditeľov|Strážske|['07222']|Slovenská republika|2020-05-05|
770395|44463561|||Podnikateľ-fyzická osoba-zapísaný v obchodnom registri|||||||||2015-06-10|2021-10-23
498001|36006912|VIS Slovensko, s.r.o.||Spoločnosť s ručením obmedzeným||||33/B|Vysokoškolákov|Žilina|['010 08']|Slovenská republika|1996-07-24|
583112|31341438|VOLKSWAGEN Finančné služby Slovensko s.r.o.||Spoločnosť s ručením obmedzeným||||98|Vajnorská|Bratislava|['83104']|Slovenská republika|1993-02-05|
9389052|30796491|Environmentálny fond||Fondy|||Bratislava - mestská časť Ružinov, Nevädzová 806/5, 82101, Slovenská republika|5|Nevädzová|Bratislava - mestská časť Ružinov|['82101']|Slovenská republika|2005-01-01|
2672780|33274011|Vilma Krauspeová||Podnikateľ-fyzická osoba-nezapísaný v obchodnom registri||||1215|Sídlisko II|Vranov nad Topľou|['09301']|Slovenská republika|1992-05-21|
630281|46417958|M KOMI s. r. o.||Spoločnosť s ručením obmedzeným||||133|Turany nad Ondavou|Turany nad Ondavou|['09033']|Slovenská republika|2011-11-05|
1008332|35925094|FIN.M.O.S., a.s.||Akciová spoločnosť||||19|Pekná cesta|Bratislava|['83105']|Slovenská republika|2005-03-11|
6944672|50244388|SmartBooks, a.s.||Akciová spoločnosť||||18|Národná|Žilina|['01001']|Slovenská republika|2016-04-08|
13333461|52933211|TERGO s.r.o.||Spoločnosť s ručením obmedzeným||||61|Sabinovská|Prešov|['08001']|Slovenská republika|2020-02-29|
728730|36823422|SETL SK, s.r.o.||Spoločnosť s ručením obmedzeným||||2635|Partizánska|Bardejov|['08501']|Slovenská republika|2007-08-25|
4685512|31930387|Skládka odpadov Rajeckého regiónu, združenie||Záujmové združenie právnických osôb||||18|Námestie SNP|Rajec|['01501']|Slovenská republika|1994-06-30|
672117|36791822|STANIM, s.r.o.||Spoločnosť s ručením obmedzeným||||203||Šindliar|['08236']|Slovenská republika|2007-06-15|
9843325|52302555|encare, s.r.o.||Spoločnosť s ručením obmedzeným||||20|Rusovská cesta|Bratislava - mestská časť Petržalka|['85101']|Slovenská republika|2019-03-27|
540727|36650811|DATACAR, spol. s r.o.||Spoločnosť s ručením obmedzeným||||129|Piešť II.|Detva|['96212']|Slovenská republika|2006-07-07|
569823|36021211|Brantner Gemer s.r.o.||Spoločnosť s ručením obmedzeným||||344|Košická cesta|Rimavská Sobota|['97901']|Slovenská republika|1997-05-29|
16444168|54823692|Jana Stanislav||Podnikateľ-fyzická osoba-nezapísaný v obchodnom registri||||8|Zakarpatská|Rožňava|['04801']|Slovenská republika|2022-08-10|
964497|46897992|CESTY KOŠICE s.r.o.||Spoločnosť s ručením obmedzeným||||28|Mlynská|Košice|['04001']|Slovenská republika|2012-11-06|
15119498|42422132|Súkromná stredná odborná škola pedagogická EBG, Lesná 909/28, Humenné||Nezisková organizácia||||28|Lesná|Humenné||Slovenská republika|2015-09-01|
2742261|34899197|Ján Velebír - STAVITEĽ||Podnikateľ-fyzická osoba-nezapísaný v obchodnom registri||||12|Širiava|Hanušovce nad Topľou|['09431']|Slovenská republika|1997-10-01|
1003277|35942355|SEWA, a.s.||Akciová spoločnosť||||1E|Sliačska|Bratislava - mestská časť Nové Mesto|['831 02']|Slovenská republika|2005-06-25|
340162|36668940|Kinet s.r.o.||Spoločnosť s ručením obmedzeným||||310/18|Vápenická|Prievidza|['97101']|Slovenská republika|2006-08-26|
748371|36488135|MART SYSTEM s.r.o.||Spoločnosť s ručením obmedzeným||||2|Železničná|Veľký Šariš|['08221']|Slovenská republika|2003-10-08|
636348|36490121|Adin, s.r.o.||Spoločnosť s ručením obmedzeným||||13753/9|Hviezdna|Prešov|['08001']|Slovenská republika|2004-01-12|
1007675|47144190|Metrostav Slovakia a. s.||Akciová spoločnosť||||68|Mlynské Nivy|Bratislava|['82477']|Slovenská republika|2013-05-01|
12512218|52914674|Health & Safety First s.r.o.||Spoločnosť s ručením obmedzeným||||1549/18|Štefánikova|Humenné|['066 01']|Slovenská republika|2020-02-12|
16261903|54609712|Traky Production s.r.o.||Spoločnosť s ručením obmedzeným||||1043/9|Lesná|Čaňa|['044 14']|Slovenská republika|2022-05-12|
991158|31651402|COLAS Slovakia, a.s.||Akciová spoločnosť||||3168/7|Orešianska|Trnava|['91701']|Slovenská republika|1992-05-01|
9370925|00332836|Obec Sedliská||Obec (obecný úrad), mesto (mestský úrad)|||Sedliská, Sedliská 85|85|Sedliská|Sedliská|['09409']|Slovenská republika|1973-07-01|
4593680|31256392|Neinvestičný fond VODÁRNE||Neinvestičný fond||||50|Komenského|Košice - mestská časť Sever|['04001']|Slovenská republika|2003-12-30|
3627304|32394268|Mária Čaklošová - OVO centrum||Podnikateľ-fyzická osoba-nezapísaný v obchodnom registri||||25|1. mája|Humenné|['06601']|Slovenská republika|1992-12-07|
1006455|31329519|MEGGLE Slovakia s. r. o.||Spoločnosť s ručením obmedzeným||||35|Studená|Bratislava - mestská časť Ružinov|['823 55']|Slovenská republika|1992-08-01|
1010751|31383408|Wüstenrot poisťovňa, a.s.||Akciová spoločnosť||||21|Digital Park I, Einsteinova|Bratislava - mestská časť Petržalka|['851 01']|Slovenská republika|1994-11-22|
15110911|53520297|STAVENEC BYSTRÉ s.r.o., r.s.p.||Spoločnosť s ručením obmedzeným||||98/20|Šarišská|Bystré|['09434']|Slovenská republika|2021-01-14|
9673478|51900921|ejoin, s.r.o.||Spoločnosť s ručením obmedzeným||||1|Štúrova|Dubnica nad Váhom|['01841']|Slovenská republika|2018-08-21|
2768880|48072923|Vladimír Demčák||Podnikateľ-fyzická osoba-nezapísaný v obchodnom registri||||||Soľ|['09435']|Slovenská republika|2015-02-23|
777888|36485250|Podtatranská vodárenská spoločnosť, a.s.||Akciová spoločnosť||||662/17|Hraničná|Poprad|['05889']|Slovenská republika|2003-05-01|
657000|36467944|VODOSTAV Vranov, s.r.o.||Spoločnosť s ručením obmedzeným||||2641/11|Kalinčiaková|Vranov nad Topľou|['09301']|Slovenská republika|2000-08-14|
724383|36472549|LUNYS, s.r.o.||Spoločnosť s ručením obmedzeným||||4512/96|Hlavná|Poprad|['05951']|Slovenská republika|2001-04-20|
657150|31363822|ARES, spol. s r.o.||Spoločnosť s ručením obmedzeným||||12091/15|Elektrárenská|Bratislava - mestská časť Nové Mesto|['831 04']|Slovenská republika|1993-12-21|
989385|36570460|Východoslovenská vodárenská spoločnosť, a.s.||Akciová spoločnosť||||50|Komenského|Košice|['04248']|Slovenská republika|2003-05-01|
655540|36498220|Fero Marcin, s. r. o.||Spoločnosť s ručením obmedzeným||||11||Tročany|['08641']|Slovenská republika|2004-10-08|
472673|36041726|SOMI Consulting s.r.o.||Spoločnosť s ručením obmedzeným||||69|Lazovná|Banská Bystrica|['97401']|Slovenská republika|2000-05-17|
9372423|00332691|Obec Poša||Obec (obecný úrad), mesto (mestský úrad)|||Poša, 241, 09421, Slovenská republika|||Poša|['09421']|Slovenská republika|1973-07-01|
9201108|50911791|TDOZ s.r.o.||Spoločnosť s ručením obmedzeným||||4|Námestie slobody|Humenné|['06601']|Slovenská republika|2017-06-06|
908288|36580040|PLUTKO, s.r.o.||Spoločnosť s ručením obmedzeným||||27/1707|Priemyselná|Michalovce|['07101']|Slovenská republika|2004-05-31|
9504489|51476169|GERION senior centrum, n.o.||Nezisková organizácia poskytujúca všeobecne prospešné služby||||670|Zámutov|Zámutov|['09415']|Slovenská republika|2018-03-06|
4738611|00178322|Slovenský zväz chovateľov||Združenie (zväz, spolok, spoločnosť, klub ai.)||||44|Krížna|Bratislava - mestská časť Ružinov|['82476']|Slovenská republika|1990-06-29|
14756845|53216555|RB - Technik, s.r.o.||Spoločnosť s ručením obmedzeným||||601/21|Duklianska|Spišská Nová Ves|['052 01']|Slovenská republika|2020-08-13|
3653738|47632763|Matej Babin OBERO||Podnikateľ-fyzická osoba-nezapísaný v obchodnom registri||||17|Pod Krámovou|Humenné|['06601']|Slovenská republika|2014-01-01|
381467|34115901|Marius Pedersen, a.s.||Akciová spoločnosť||||1735|Opatovská|Trenčín|['91101']|Slovenská republika|1995-02-15|
603350|36510149|ALDA VT, s.r.o.||Spoločnosť s ručením obmedzeným||||67||Hudcovce|['06745']|Slovenská republika|2005-10-29|
1072511|36211222|Východoslovenská energetika Holding a.s.||Akciová spoločnosť||||31|Mlynská|Košice|['04291']|Slovenská republika|2002-01-01|
900348|43796982|Lui s.r.o.||Spoločnosť s ručením obmedzeným||||1/2582|Werferova|Košice|['04011']|Slovenská republika|2007-10-30|
729703|47122269|APIS SK s.r.o.||Spoločnosť s ručením obmedzeným||||10/672|Probstnerova cesta|Levoča|['05401']|Slovenská republika|2013-04-17|
15693911|53771036|ArMich, s. r. o.||Spoločnosť s ručením obmedzeným||||590|SNP|Spišské Bystré|['05918']|Slovenská republika|2021-05-12|
9370994|00332607|Obec Nižný Hrušov||Obec (obecný úrad), mesto (mestský úrad)|||Nižný Hrušov, Nižný Hrušov 520|520|Nižný Hrušov|Nižný Hrušov|['09422']|Slovenská republika|1973-07-01|
776381|36450758|OZÓN Hanušovce, a.s.||Akciová spoločnosť||||98|Rastislavova|Košice|['04346']|Slovenská republika|1997-10-28|
1279819|35236221|Ing. Martin Hudec, ARCHIGRAPH studio||Podnikateľ-fyzická osoba-nezapísaný v obchodnom registri||||45|Letná|Košice - mestská časť Sever|['04001']|Slovenská republika|1998-12-01|
9742938|42085853|Domov sv. Dominika||Cirkevná organizácia|||Petrovany, 115, časť obce: Petrovany, 08253, Slovenská republika|||Petrovany|['08253']|Slovenská republika|2008-12-29|
14508839|31967043|Cirkevný zbor Evanjelickej cirkvi augsburského vyznania na Slovensku Merník||Cirkevná organizácia|||Merník, 169, 09423, Slovenská republika|||Merník|['09423']|Slovenská republika|1994-01-01|
9352884|51183455|Commander Services s.r.o.||Spoločnosť s ručením obmedzeným||||23|Žitná|Bratislava|['83106']|Slovenská republika|2017-10-27|
648311|47622806|PRIMA 1994 s.r.o.||Spoločnosť s ručením obmedzeným||||969|Námestie Slobody|Vranov nad Topľou|['09301']|Slovenská republika|2014-02-15|
9388639|42181810|Ministerstvo životného prostredia Slovenskej republiky||Rozpočtová organizácia|||Bratislava - mestská časť Staré Mesto, Námestie Ľudovíta Štúra 1, 81235, Slovenská republika|1|Námestie Ľudovíta Štúra|Bratislava - mestská časť Staré Mesto|['81235']|Slovenská republika|2010-11-01|
509050|44916132|Real invest SK Žilina, s.r.o.||Spoločnosť s ručením obmedzeným||||812/29|Školská|Teplička nad Váhom|['01301']|Slovenská republika|2009-08-12|
4684252|42230110|Vranovský útulok pre psov||Združenie (zväz, spolok, spoločnosť, klub ai.)|||||Na hrunku|Vranov nad Topľou|['09301']|Slovenská republika|2010-12-01|
631577|45521441|DANEX PLUS, s.r.o.||Spoločnosť s ručením obmedzeným||||109||Soľ|['09435']|Slovenská republika|2010-05-11|
9388934|00151513|Úrad vlády Slovenskej republiky||Rozpočtová organizácia|||Bratislava - mestská časť Staré Mesto, Námestie slobody 2899/1, 81370, Slovenská republika|1|Námestie slobody|Bratislava - mestská časť Staré Mesto|['81370']|Slovenská republika|1972-01-01|
1815763|37317130|Ing. Juraj Mojsej - MOCHOSTAV||Podnikateľ-fyzická osoba-nezapísaný v obchodnom registri||||12|Pri mlyne|Michalovce|['07101']|Slovenská republika|2001-01-03|
9241343|50932098|Pegas-Forest s.r.o.||Spoločnosť s ručením obmedzeným||||133||Hermanovce nad Topľou|['09434']|Slovenská republika|2017-06-16|
16672980|55065830|Audit Accounting, s.r.o.||Spoločnosť s ručením obmedzeným||||35|Letná|Michalovce|['07101']|Slovenská republika|2022-12-02|
601268|43897452|GASTRO VRÁBEĽ, s.r.o.||Spoločnosť s ručením obmedzeným||||1832|M.R.Štefánika|Dolný Kubín|['02601']|Slovenská republika|2008-01-01|
9388922|00686832|Ministerstvo hospodárstva Slovenskej republiky||Rozpočtová organizácia|||Bratislava - mestská časť Ružinov, Mlynské nivy 44/a, 82715, Slovenská republika|44/a|Mlynské nivy|Bratislava - mestská časť Ružinov|['82715']|Slovenská republika|1990-10-01|
349681|36545074|SERVIS LINE, s.r.o.||Spoločnosť s ručením obmedzeným||||1|Vinohrady|Nové Zámky|['94001']|Slovenská republika|2001-12-17|
681308|36693847|REVITAL PLUS, s.r.o.||Spoločnosť s ručením obmedzeným||||42||Koromľa|['07262']|Slovenská republika|2006-11-03|
885953|44189931|GRANDESSA, s. r. o.||Spoločnosť s ručením obmedzeným||||2732/15A|B. Němcovej|Vranov nad Topľou|['093 01']|Slovenská republika|2008-05-28|
9642272|35519193|JUDr. Alojz Naništa, advokát||Slobodné povolanie-fyzická osoba podnikajúca na základe iného ako živnostenského zákona||||8|Sládkovičova|Prešov|['08001']|Slovenská republika|1990-07-01|
736358|36492876|FERSTAV, spol. s r.o.||Spoločnosť s ručením obmedzeným||||55|Námestie Slobody|Humenné|['06601']|Slovenská republika|2004-04-17|
15364083|17151627|Cirkevná spojená škola, Školská 650, Vranov nad Topľou||Nezisková organizácia||||650|Školská|Vranov nad Topľou||Slovenská republika|1992-06-08|
9389327|31749542|Štátny fond rozvoja bývania||Fondy|||Bratislava - mestská časť Staré Mesto, Lamačská cesta 4256/8, 83304, Slovenská republika|8|Lamačská cesta|Bratislava - mestská časť Staré Mesto|['83304']|Slovenská republika|2005-02-01|
10002289|52556107|Era Novum, s.r.o.||Spoločnosť s ručením obmedzeným||||71|Kuzmányho|Košice - mestská časť Staré Mesto|['04001']|Slovenská republika|2019-08-01|
14776399|42381941|Urbárska spoločnosť - pozemkové spoločenstvo||Pozemkové spoločenstvo||||103|Benkovce|Benkovce|['09402']|Slovenská republika|2011-07-01|
646001|36485039|Crystal Comfort s.r.o.||Spoločnosť s ručením obmedzeným||||2427|M. R. Štefánika|Vranov nad Topľou|['09301']|Slovenská republika|2003-04-16|
15136738|00162230|Obchodná akadémia, Daxnerova 88, Vranov nad Topľou||Rozpočtová organizácia||||88|Daxnerova|Vranov nad Topľou||Slovenská republika|1969-09-01|
375051|35891866|CLEAN TONERY, s.r.o.||Spoločnosť s ručením obmedzeným||||27|Za Hradbami|Pezinok|['90201']|Slovenská republika|2004-07-02|
9781433|00164348|Národný inštitút vzdelávania a mládeže||Príspevková organizácia|||Bratislava - mestská časť Petržalka, Ševčenkova 1128/11, 85005, Slovenská republika|11|Ševčenkova|Bratislava - mestská časť Petržalka|['85005']|Slovenská republika|1986-01-01|
9711583|31998828|Rímskokatolícka farnosť Nanebovzatia Panny Márie, Hanušovce nad Topľou||Cirkevná organizácia|||Hanušovce nad Topľou, Štúrova 337/13, 09431, Slovenská republika|13|Štúrova|Hanušovce nad Topľou|['09431']|Slovenská republika|1994-01-01|
9729990|31979424|Rímskokatolícka farnosť Narodenia sv. Jána Krstiteľa, Sedliská||Cirkevná organizácia|||Sedliská, 31, časť obce: Sedliská, 09409, Slovenská republika|||Sedliská|['09409']|Slovenská republika|1990-01-01|
259060|47428171|AGROBOR, s. r. o.||Spoločnosť s ručením obmedzeným||||6|Kpt. Jaroša|Tvrdošovce|['941 10']|Slovenská republika|2013-10-03|
1004529|35910739|SPP - distribúcia, a.s.||Akciová spoločnosť||||19013/2|Plátennícka|Bratislava - mestská časť Ružinov|['82109']|Slovenská republika|2004-12-10|
1006385|35954612|Slovanet, a. s.||Akciová spoločnosť||||19|Galvaniho|Bratislava - mestská časť Ružinov|['82104']|Slovenská republika|2005-09-17|
3793581|46890971|Milan Groško - MGP||Podnikateľ-fyzická osoba-nezapísaný v obchodnom registri||||||Miňovce|['09032']|Slovenská republika|2012-11-01|
606808|31733174|PK AUTO, spol. s r.o.||Spoločnosť s ručením obmedzeným||||23|Duklianska|Prešov|['08001']|Slovenská republika|1996-09-10|
9372627|00332445|Obec Jastrabie nad Topľou||Obec (obecný úrad), mesto (mestský úrad)|||Jastrabie nad Topľou, 113, 09435, Slovenská republika|||Jastrabie nad Topľou|['09435']|Slovenská republika|1973-07-01|
1815499|17194415|Ing. Peter Paulovčák - VODIP||Podnikateľ-fyzická osoba-nezapísaný v obchodnom registri||||3|Zeleninárska|Michalovce|['07101']|Slovenská republika|1992-09-04|
4666734|42412871|Nadácia EPH||Nadácia||||2|Plátennícka|Bratislava - mestská časť Ružinov|['82109']|Slovenská republika|2014-10-30|
644582|44873905|RamontBuilding s. r. o.||Spoločnosť s ručením obmedzeným||||11||Abranovce|['08252']|Slovenská republika|2009-11-20|
9371151|00331007|Mesto Stropkov||Obec (obecný úrad), mesto (mestský úrad)|||Stropkov, Hlavná 38/2|2|Hlavná|Stropkov|['09101']|Slovenská republika|1973-07-01|
15134419|37876031|Základná škola s materskou školou, Michalská 398/8, Spišské Bystré||Rozpočtová organizácia||||8|Michalská|Spišské Bystré||Slovenská republika|1961-09-03|
670650|31666442|BUKÓZA INVEST spol. s r.o.||Spoločnosť s ručením obmedzeným||||2073|Hencovská|Hencovce|['09302']|Slovenská republika|1993-01-29|
1011684|17308267|K A S I C O, a. s.||Akciová spoločnosť||||2C|lvanská cesta|Bratislava - mestská časť Ružinov|['821 04']|Slovenská republika|1991-06-03|
1009549|35977540|UNIQA d.d.s., a.s.||Akciová spoločnosť||||3986/15|Krasovského|Bratislava - mestská časť Petržalka|['85101']|Slovenská republika|2006-02-15|
607845|17147387|UNISTAV, s.r.o., Prešov||Spoločnosť s ručením obmedzeným||||25|Ku Surdoku|Prešov|['08001']|Slovenská republika|1992-01-08|
14180514|31966578|Rímskokatolícka cirkev, farnosť Žehra||Cirkevná organizácia|||Žehra, 87, 05361, Slovenská republika|||Žehra|['05361']|Slovenská republika|1990-01-01|
10909622|52807886|Lilly enviro, s.r.o.||Spoločnosť s ručením obmedzeným||||68||Uzovské Pekľany|['08263']|Slovenská republika|2019-12-24|
537995|44496788|||Spoločnosť s ručením obmedzeným|||||||||2009-02-25|2022-05-19
4689250|42344662|Miestna akčná skupina Pod hradom Čičva||Združenie (zväz, spolok, spoločnosť, klub ai.)||||||Kladzany|['09421']|Slovenská republika|2013-12-10|
754490|36766879|Regena ES s.r.o. Strážske||Spoločnosť s ručením obmedzeným||||142|Mierová|Strážske|['07222']|Slovenská republika|2007-05-01|
9371872|00626031|Slovenská agentúra životného prostredia||Príspevková organizácia|||Banská Bystrica, Tajovského 14049/28, časť obce: Banská Bystrica, 97590, Slovenská republika|28|Tajovského|Banská Bystrica|['97590']|Slovenská republika|2004-11-01|
2693151|37353314|Marek Hurný - služby požiarnej ochrany||Podnikateľ-fyzická osoba-nezapísaný v obchodnom registri||||||Soľ|['09435']|Slovenská republika|2001-04-01|
15146248|53528654|Up Déjeuner, s. r. o.||Spoločnosť s ručením obmedzeným||||64A|Tomášikova|Bratislava - mestská časť Nové Mesto|['83104']|Slovenská republika|2021-02-10|
862061|31654207|Fotinus s.r.o.||Spoločnosť s ručením obmedzeným||||819/13|Lúčna|Vranov nad Topľou|['09301']|Slovenská republika|1992-06-22|
573066|36418633|Unistav Teplička, s. r. o.||Spoločnosť s ručením obmedzeným||||1326/124|Fatranská|Teplička nad Váhom|['01301']|Slovenská republika|2004-05-07|
710658|36319198|Kofola a.s.||Akciová spoločnosť||||súp. č. 1||Rajecká Lesná|['01315']|Slovenská republika|2001-07-16|
14180524|53056043|Alphabet group s. r. o.||Spoločnosť s ručením obmedzeným||||11/C|Strojárenská|Košice - mestská časť Staré Mesto|['040 01']|Slovenská republika|2020-05-05|
15617379|42096464|Ing. Andrea Lupták||Slobodné povolanie-fyzická osoba podnikajúca na základe iného ako živnostenského zákona|||Poproč, Lesná 1035/41, 04424, Slovenská republika|41|Lesná|Poproč|['04424']|Slovenská republika|2007-01-11|
9643441|31942423|doc. JUDr. Jozef Sotolář, PhD., advokát||Slobodné povolanie-fyzická osoba podnikajúca na základe iného ako živnostenského zákona||||1|Južná trieda|Košice - mestská časť Staré Mesto|['04001']|Slovenská republika|1992-08-11|
10069489|31952810|Gréckokatolícka cirkev, farnosť Vranov nad Topľou-Čemerné||Cirkevná organizácia|||Vranov nad Topľou, Námestie P.P.Gojdiča 327/2|2|Námestie P.P.Gojdiča|Vranov nad Topľou|['09303']|Slovenská republika|1993-06-29|
16661605|55080987|Advokátska kancelária POLÁK s.r.o.||Spoločnosť s ručením obmedzeným||||14|Poštová|Košice - mestská časť Staré Mesto|['04001']|Slovenská republika|2022-11-29|
715542|00168963|COOP Jednota Liptovský Mikuláš, spotrebné družstvo||Družstvo||||54|ul. 1.mája|Liptovský Mikuláš|['03125']|Slovenská republika|1953-09-13|
810455|36574899|STAVENA, stavebno-obchodná spoločnosť, spol. s r.o.||Spoločnosť s ručením obmedzeným||||57|Masarykova|Michalovce|['07101']|Slovenská republika|2003-12-08|
13457696|52989232|BECA IZOLÁCIE s.r.o.||Spoločnosť s ručením obmedzeným||||111/91|Hlavná|Michaľany|['07614']|Slovenská republika|2020-03-07|
4734364|37871072|Tanečný klub DYNO||Združenie (zväz, spolok, spoločnosť, klub ai.)||||1052|Sídlisko Juh D/|Vranov nad Topľou|['09301']|Slovenská republika|2001-12-27|
4613063|31983588|Občianske združenie - Folklórny súbor VRANOVČAN||Združenie (zväz, spolok, spoločnosť, klub ai.)||||1241|Staničná|Vranov nad Topľou|['09301']|Slovenská republika|1994-11-23|
783573|31686303|ORIENS s.r.o.||Spoločnosť s ručením obmedzeným||||3|Gemerská|Košice|['04001']|Slovenská republika|1994-03-03|
4598096|42230853|Gréckokatolícky chrámový zbor bl. P. P. Gojdiča||Združenie (zväz, spolok, spoločnosť, klub ai.)||||327|Nám. bl. P. P. Gojdiča|Vranov nad Topľou|['09303']|Slovenská republika|2011-04-01|
9798779|52195171|Maroš Vnouček||Podnikateľ-fyzická osoba-nezapísaný v obchodnom registri||||41|Sídlisko 1.mája|Vranov nad Topľou|['09301']|Slovenská republika|2019-02-01|2024-10-16
9077892|50687018|GERIA, n.o.||Nezisková organizácia poskytujúca všeobecne prospešné služby||||89|Zbojné|Zbojné|['06713']|Slovenská republika|2017-01-13|
678943|31721079|C.M.R. Slovakia, s.r.o.||Spoločnosť s ručením obmedzeným||||13|Bardejovská|Ľubotice|['08006']|Slovenská republika|1996-02-07|
9800971|52152219|Edusteps||Združenie (zväz, spolok, spoločnosť, klub ai.)||||8|Karpatská|Svidník|['08901']|Slovenská republika|2019-01-25|
1005675|35858010|ENVI - PAK, a.s.||Akciová spoločnosť||||15/A|Galvaniho|Bratislava - mestská časť Ružinov|['82104']|Slovenská republika|2003-05-16|
259877|35786078|UNIKONT SLOVAKIA, spol. s r.o.||Spoločnosť s ručením obmedzeným||||922/50|Murgašova|Dubnica nad Váhom|['01841']|Slovenská republika|2000-04-13|
747737|44172338|Michal Tabaka, s.r.o.||Spoločnosť s ručením obmedzeným||||1754/12|Nerudova|Vranov nad Topľou|['09302']|Slovenská republika|2008-06-19|
782895|31708722|Podielnicke družstvo ONDAVA Stropkov||Družstvo|||||Šarišská ulica|Stropkov|['09101']|Slovenská republika|1995-05-30|
214637|36286451|TENZONA Slovakia s.r.o.||Spoločnosť s ručením obmedzeným||||3|Bojnická|Bratislava|['83104']|Slovenská republika|2006-03-16|
14902985|53352718|Ing. Rastislav Chamaj||Podnikateľ-fyzická osoba-nezapísaný v obchodnom registri||||17|Buzulucká|Košice - mestská časť Dargovských hrdinov|['04022']|Slovenská republika|2020-10-05|
737870|36490903|PRODAP s.r.o.||Spoločnosť s ručením obmedzeným||||980/31|Sídlisko I.|Vranov nad Topľou|['09301']|Slovenská republika|2004-02-11|
9371450|00332534|Obec Malá Domaša||Obec (obecný úrad), mesto (mestský úrad)|||Malá Domaša, Malá Domaša 106|106|Malá Domaša|Malá Domaša|['09402']|Slovenská republika|1973-07-01|
9730282|35507543|Rímskokatolícka farnosť sv. Mikuláša, Soľ||Cirkevná organizácia|||Soľ, 302, 09435, Slovenská republika|||Soľ|['09435']|Slovenská republika|1990-01-01|
701142|36477591|REAL VT s.r.o.||Spoločnosť s ručením obmedzeným||||973/11|Sídlisko I.|Vranov nad Topľou|['09301']|Slovenská republika|2002-01-03|
725467|47326565|MEFIX s.r.o.||Spoločnosť s ručením obmedzeným||||62|Cabov|Cabov|['09414']|Slovenská republika|2013-08-06|
700338|36743631|IWIN SERVICES spol. s r.o.||Spoločnosť s ručením obmedzeným||||1285|Budovateľská|Vranov nad Topľou|['09301']|Slovenská republika|2007-02-23|
690499|36474738|VIJOFEL trade, s.r.o.||Spoločnosť s ručením obmedzeným||||182/1||Bartošovce|['08642']|Slovenská republika|2001-08-21|
764968|43908977|KOMENSKY, s.r.o.||Spoločnosť s ručením obmedzeným||||1/360|Park mládeže|Košice|['04001']|Slovenská republika|2008-01-19|
671196|36473219|CIMBAĽÁK s.r.o.||Spoločnosť s ručením obmedzeným||||17A/3579|Duklianska|Bardejov|['08501']|Slovenská republika|2001-06-05|
4762670|48329461|webex.digital s.r.o.||Spoločnosť s ručením obmedzeným||||2|Ostrovského|Košice - Juh|['04001']|Slovenská republika|2015-10-20|
9828593|52264629|Join-s s. r. o.||Spoločnosť s ručením obmedzeným||||3220/1|Astronomická|Bratislava - mestská časť Ružinov|['821 02']|Slovenská republika|2019-03-09|
3570262|35459468|Adrián Bonk POŽIARNY SERVIS||Podnikateľ-fyzická osoba-nezapísaný v obchodnom registri||||24|Kukorelliho|Humenné|['06601']|Slovenská republika|1999-01-04|
9274039|50869787|Prestav design s. r. o.||Spoločnosť s ručením obmedzeným||||28|Horárska|Prešov|['08001']|Slovenská republika|2017-07-11|
16918879|55345654|Lucia Goliašová||Podnikateľ-fyzická osoba-nezapísaný v obchodnom registri||||||Kučín|['08612']|Slovenská republika|2023-04-03|
16149056|54421438|Regionálna značka HORNÝ ZEMPLÍN||Záujmové združenie právnických osôb||||32|Sládkovičova|Hencovce|['09302']|Slovenská republika|2022-02-24|
618111|46897658|P3C s.r.o.||Spoločnosť s ručením obmedzeným||||6269/17|Pöschlova|Prešov|['080 01']|Slovenská republika|2013-01-01|
13696915|00397610|Technická univerzita v Košiciach||Verejnoprávna inštitúcia||||9|Letná|Košice - mestská časť Sever|['04200']|Slovenská republika|1952-07-08|
674092|46303219|Mess-Exx, s.r.o.||Spoločnosť s ručením obmedzeným||||110|Mlynica|Mlynica|['059 91']|Slovenská republika|2011-08-26|
448270|00000001|||Štátny podnik|||||||||1988-08-02|2021-10-22
2713294|34896821|Pavol Popaďak - GEO-POL||Podnikateľ-fyzická osoba-nezapísaný v obchodnom registri||||129|Hlavná|Sečovská Polianka|['09414']|Slovenská republika|1997-05-01|
750363|47957719|Z & K Tech s.r.o.||Spoločnosť s ručením obmedzeným||||67||Klokočov|['07236']|Slovenská republika|2014-11-27|
9882190|52310906|ToP electric, s.r.o.||Spoločnosť s ručením obmedzeným||||816/19|Družstevná|Spišské Bystré|['05918']|Slovenská republika|2019-04-24|
2814041|46237615|Marek Knežník MPTA||Podnikateľ-fyzická osoba-nezapísaný v obchodnom registri||||182|SNP|Spišské Bystré|['05918']|Slovenská republika|2011-06-10|
9388498|00165182|Ministerstvo kultúry Slovenskej republiky||Rozpočtová organizácia|||Bratislava - mestská časť Staré Mesto, Nám. SNP 33, 81331, Slovenská republika|33|Nám. SNP|Bratislava - mestská časť Staré Mesto|['81331']|Slovenská republika|1974-01-01|
590129|31590128|SUNSOFT plus spol. s r.o.||Spoločnosť s ručením obmedzeným||||1688/15|Hviezdoslavovo nám.|Dolný Kubín|['02601']|Slovenská republika|1993-07-30|
283190|36811033|Duvlan s.r.o.||Spoločnosť s ručením obmedzeným||||1990/23|K Zornici|Bánovce nad Bebravou|['957 01']|Slovenská republika|2007-07-28|
9370628|00332992|Obec Žalobín||Obec (obecný úrad), mesto (mestský úrad)|||Žalobín, 144, 09403, Slovenská republika|||Žalobín|['09403']|Slovenská republika|1973-07-01|
16335894|54646995|ENERGY WEST s. r. o.||Spoločnosť s ručením obmedzeným||||73|Kobyly|Kobyly|['086 22']|Slovenská republika|2022-06-10|
877079|34116125|STAVMAT STAVEBNINY, s.r.o.||Spoločnosť s ručením obmedzeným||||56|Pezinská|Malacky|['90101']|Slovenská republika|1995-02-20|
800217|44483767|Východoslovenská energetika a.s.||Akciová spoločnosť||||31|Mlynská|Košice|['04291']|Slovenská republika|2008-11-28|
869073|36200336|JEGON, s.r.o.||Spoločnosť s ručením obmedzeným||||č.12|Š. Kukuru|Michalovce|['07101']|Slovenská republika|2000-08-23|
15814030|54007097|Školská jedáleň, Bernolákova ulica 1061, Vranov nad Topľou||Rozpočtová organizácia||||1061|Bernolákova ulica|Vranov nad Topľou||Slovenská republika|2021-09-01|
4803110|50026101|OZ pre podporu vzdelávania, výchovy a kultúry - ROMAD||Združenie (zväz, spolok, spoločnosť, klub ai.)||||17|Ulica Ľudovíta Štúra|Lučenec|['98401']|Slovenská republika|2015-10-23|
9714341|51998408|MAKRA.EU spol. s.r.o.||Spoločnosť s ručením obmedzeným||||710/107|Nová|Sečovská Polianka|['094 14']|Slovenská republika|2018-10-17|
1012550|35810734|DATALAN, a.s.||Akciová spoločnosť||||14|Krasovského|Bratislava - mestská časť Petržalka|['85101']|Slovenská republika|2001-05-01|
596298|36409022|UNICAR, s. r. o.||Spoločnosť s ručením obmedzeným||||68/1848|Ul. 1. mája|Liptovský Mikuláš|['03101']|Slovenská republika|2002-12-18|
9148955|50854607|PARADES, n.o.||Nezisková organizácia poskytujúca všeobecne prospešné služby||||106|Gaštanová|Humenné|['06601']|Slovenská republika|2017-04-10|
782697|31737200|COOP Jednota, Vranov nad Topľou, spotrebné družstvo||Družstvo||||79|Námestie slobody|Vranov nad Topľou|['09301']|Slovenská republika|1996-11-22|
692944|36450642|AGROKOM - PLUS, spol. s r.o.||Spoločnosť s ručením obmedzeným||||13373/30|Pod Hrádkom|Prešov|['08005']|Slovenská republika|1997-10-28|
804934|35746343|SIAD Slovakia spol. s r. o.||Spoločnosť s ručením obmedzeným||||16130 / 7/B|Galvaniho|Bratislava - mestská časť Ružinov|['821 04']|Slovenská republika|1998-05-11|
750367|45300534|MI - TATRY, s.r.o.||Spoločnosť s ručením obmedzeným||||50||Kravany|['05918']|Slovenská republika|2009-12-04|
548059|44379552|GEHAS SLOVAKIA s. r. o.||Spoločnosť s ručením obmedzeným||||5|Námestie Martina Benku|Bratislava - mestská časť Staré Mesto|['81107']|Slovenská republika|2008-10-03|
769968|31398294|KVANT spol. s r.o.||Spoločnosť s ručením obmedzeným|||||Fakulta matematiky, fyziky a informatiky UK, Mlynská Dolina|Bratislava|['84248']|Slovenská republika|1995-07-13|
482903|36807702|SLOVAKIA ENERGY, s.r.o., v likvidácii||Spoločnosť s ručením obmedzeným||||21|Einsteinova|Bratislava - mestská časť Petržalka|['85101']|Slovenská republika|2007-07-21|
9418043|51217368|Eurokomp group s. r. o.||Spoločnosť s ručením obmedzeným||||1|Jelenia|Bratislava - mestská časť Staré Mesto|['811 05']|Slovenská republika|2018-01-16|
9555509|00164721|Slovenské národné múzeum||Príspevková organizácia|||Bratislava - mestská časť Staré Mesto, Vajanského nábrežie 61/2, 81006, Slovenská republika|2|Vajanského nábrežie|Bratislava - mestská časť Staré Mesto|['81006']|Slovenská republika|1979-02-01|
832512|43851321|SEPStav, s.r.o.||Spoločnosť s ručením obmedzeným||||49|Železiarenská|Košice|['04015']|Slovenská republika|2007-12-05|
10064164|52716678|ROIstav s.r.o.||Spoločnosť s ručením obmedzeným||||1797|Toplianska|Vranov nad Topľou|['09301']|Slovenská republika|2019-10-17|
655374|46852867|Originals, s.r.o.||Spoločnosť s ručením obmedzeným||||3256/15|Karpatská|Poprad|['05801']|Slovenská republika|2012-10-04|
916186|36494046|VSK PRO - ZEO s. r. o.||Spoločnosť s ručením obmedzeným||||125|Južná trieda|Košice|['04001']|Slovenská republika|2004-05-22|
4722020|35581727|ReSocia, n. o.||Nezisková organizácia poskytujúca všeobecne prospešné služby|||||Petrovce|Petrovce|['07262']|Slovenská republika|2005-10-13|
9388539|30794536|Ústredie práce, sociálnych vecí a rodiny||Rozpočtová organizácia|||Bratislava - mestská časť Staré Mesto, Špitálska 2206/8, 81267, Slovenská republika|8|Špitálska|Bratislava - mestská časť Staré Mesto|['81267']|Slovenská republika|2003-11-20|
640930|47433931|STAVANA s.r.o.||Spoločnosť s ručením obmedzeným||||2041/2|Kukučínova|Snina|['06901']|Slovenská republika|2013-10-02|
228518|46918701|TL agency s.r.o.||Spoločnosť s ručením obmedzeným||||16|Vašinova|Nitra|['94901']|Slovenská republika|2012-11-22|
701236|36757535|CEZO spol. s r.o.||Spoločnosť s ručením obmedzeným||||2628|Jasenovská|Humenné|['066 01']|Slovenská republika|2007-03-27|
9835630|00164615|Národné osvetové centrum||Príspevková organizácia|||Bratislava - mestská časť Staré Mesto, Námestie SNP 471/12, 81234, Slovenská republika|12|Námestie SNP|Bratislava - mestská časť Staré Mesto|['81234']|Slovenská republika|1991-03-25|
1716941|37317342|Ing. Peter Vasil||Podnikateľ-fyzická osoba-nezapísaný v obchodnom registri||||28|Štefánikova|Michalovce|['07101']|Slovenská republika|1992-08-06|
705800|48237531|KING - Stav s.r.o.||Spoločnosť s ručením obmedzeným||||49|Slovenská|Prešov|['08001']|Slovenská republika|2015-08-08|
2733193|||||||||||||2006-05-16|2024-01-01
9371893|00332933|Mesto Vranov nad Topľou||Obec (obecný úrad), mesto (mestský úrad)|||Vranov nad Topľou, Dr. C. Daxnera 87/1|1|Dr. C. Daxnera|Vranov nad Topľou|['09316']|Slovenská republika|1973-07-01|
786561|36730866|M.A.D.D. FRUIT, s.r.o.||Spoločnosť s ručením obmedzeným||||10|Michalovská|Sobrance|['07301']|Slovenská republika|2007-01-27|
9389250|||||||||||||1996-10-01|2023-12-31
935313|46887717|MK TRAKTOR s.r.o.||Spoločnosť s ručením obmedzeným||||94|Okružná|Michalovce|['07101']|Slovenská republika|2012-12-01|
2764788|44133812|Tomáš Fabian||Podnikateľ-fyzická osoba-nezapísaný v obchodnom registri||||||Hermanovce nad Topľou|['09434']|Slovenská republika|2008-05-01|
760067|31691552|GAS Familia, s.r.o. Stará Ľubovňa||Spoločnosť s ručením obmedzeným||||8|Prešovská|Stará Ľubovňa|['06401']|Slovenská republika|1994-06-16|
420390|36059323|KRONOSPAN, s.r.o.||Spoločnosť s ručením obmedzeným||||1335/21|Lučenecká cesta č.|Zvolen|['960 01']|Slovenská republika|2003-04-02|
9731735|31998887|Rímskokatolícka farnosť sv. Jána Nepomuckého, Vechec||Cirkevná organizácia|||Vechec, Hlavná 49/141, 09412, Slovenská republika|141|Hlavná|Vechec|['09412']|Slovenská republika|1994-01-01|
863776|36224332|AGROVOK - SERVIS, s.r.o.||Spoločnosť s ručením obmedzeným||||880|Matúškovská cesta|Galanta|['92401']|Slovenská republika|1998-01-01|
725639|35798840|ABC KLÍMA KOŠICE s. r. o.||Spoločnosť s ručením obmedzeným||||40/F|Rybničná|Bratislava - mestská časť Vajnory|['83107']|Slovenská republika|2000-10-24|
15793944|53857411|OZ-Pomoc psíkom na východnom Slovensku||Združenie (zväz, spolok, spoločnosť, klub ai.)||||41|Jána Erdélyiho|Veľké Kapušany|['07901']|Slovenská republika|2021-07-27|
9309457|51053691|Henmax s.r.o.||Spoločnosť s ručením obmedzeným||||233/123|SNP|Trebišov|['07501']|Slovenská republika|2017-09-01|
705054|47598654|W-ECOPOWER, s.r.o.||Spoločnosť s ručením obmedzeným||||3|Tkáčska|Prešov|['08001']|Slovenská republika|2014-01-10|
745894|45562776|CBR s. r. o.||Spoločnosť s ručením obmedzeným||||29|Hollého|Sabinov|['08301']|Slovenská republika|2010-06-01|
746201|47480238|INKOL s.r.o.||Spoločnosť s ručením obmedzeným||||397/14|Kukorelliho|Hanušovce nad Topľou|['09431']|Slovenská republika|2013-10-16|
9063401|50631691|IZA STAVEBNINY s.r.o.||Spoločnosť s ručením obmedzeným||||890|Čaklov|Čaklov|['09435']|Slovenská republika|2017-01-01|
16180612|54371007|CANUB s.r.o.||Spoločnosť s ručením obmedzeným||||7770/10A|Karpatské námestie|Bratislava - mestská časť Rača|['831 06']|Slovenská republika|2022-03-22|
8527215|50383230|EKOCHARITA SLOVENSKO SLOVENSKU||Združenie (zväz, spolok, spoločnosť, klub ai.)||||45|Gen.M.R.Štefánika|Kežmarok|['06001']|Slovenská republika|2016-07-01|
9584827|51634996|ŠAFO SECURITY s.r.o.||Spoločnosť s ručením obmedzeným||||1510/3|26. novembra|Humenné|['06601']|Slovenská republika|2018-05-10|
2696436|43223664|Iveta Ondarišinová||Podnikateľ-fyzická osoba-nezapísaný v obchodnom registri||||||Holčíkovce|['09405']|Slovenská republika|2006-07-01|
1006769|31595545|KOMUNÁLNA poisťovňa, a.s. Vienna Insurance Group||Akciová spoločnosť||||17|Štefánikova|Bratislava|['811 05']|Slovenská republika|1994-01-01|
997502|36205915|Mäso ZEMPLÍN, a.s.||Akciová spoločnosť||||č.86|Užhorodská|Michalovce|['07101']|Slovenská republika|2001-04-17|
708899|36465224|DOVE, s.r.o.||Spoločnosť s ručením obmedzeným||||3052|MOTOCENTRUM - areál|Poprad - Východ|['05801']|Slovenská republika|2000-02-21|
1038937|00156752|VODOHOSPODÁRSKA VÝSTAVBA, ŠTÁTNY PODNIK||Štátny podnik||||2|P.O.BOX 45, Karloveská|Bratislava|['84204']|Slovenská republika|1989-01-01|
15747625|52752194|Jozef Špirko - Projektant||Slobodné povolanie-fyzická osoba podnikajúca na základe iného ako živnostenského zákona|||Hermanovce nad Topľou, 28, 09434, Slovenská republika|||Hermanovce nad Topľou|['09434']|Slovenská republika|2019-11-01|
13435058|37781120|Hornozemplínske osvetové stredisko vo Vranove nad Topľou||Príspevková organizácia|||Vranov nad Topľou, Sídlisko 1.mája 74, 09301, Slovenská republika||Sídlisko 1.mája|Vranov nad Topľou|['09301']|Slovenská republika|1999-04-01|
750373|36464279|TELECOM TKR, s.r.o.||Spoločnosť s ručením obmedzeným||||3|Námestie slobody|Vranov nad Topľou|['09301']|Slovenská republika|1999-12-23|
4704764|31821979|Vysoká škola zdravotníctva a sociálnej práce Sv. Alžbety,n.o.||Nezisková organizácia poskytujúca všeobecne prospešné služby||||1|Palackého|Bratislava - mestská časť Staré Mesto|['81102']|Slovenská republika|2002-10-21|
661510|47505371|WAY-COPY SK, s.r.o.||Spoločnosť s ručením obmedzeným||||1623||Raková|['02351']|Slovenská republika|2013-11-09|
4611239|42232775|Občianske združenie uchovávania ľudových tradícií, zvykov a remesiel ROVINA||Združenie (zväz, spolok, spoločnosť, klub ai.)||||836|Kvetná|Vranov nad Topľou|['09303']|Slovenská republika|2011-09-29|
13457736|31955631|Gréckokatolícka cirkev, farnosť Sedliská||Cirkevná organizácia|||Sedliská, 264, časť obce: Sedliská, 09409, Slovenská republika|||Sedliská|['09409']|Slovenská republika|1994-02-21|
4588796|00177474|Dobrovoľná požiarna ochrana Slovenskej republiky||Združenie (zväz, spolok, spoločnosť, klub ai.)||||17|Kutuzovova|Bratislava - mestská časť Nové Mesto|['83103']|Slovenská republika|1991-04-09|
5486782|50082001|Človek v ohrození, n.o.||Nezisková organizácia poskytujúca všeobecne prospešné služby||||5|Baštová|Bratislava - mestská časť Staré Mesto|['811 03']|Slovenská republika|2016-01-05|
2775071|||||||||||||1993-06-18|2004-12-31
908680|36605352|ASTHERM, spol. s r.o.||Spoločnosť s ručením obmedzeným||||1|Močarianska|Michalovce|['07101']|Slovenská republika|2006-03-28|
435083|36648752|eR STAR s.r.o.||Spoločnosť s ručením obmedzeným||||75|Tr. SNP|Banská Bystrica|['97401']|Slovenská republika|2006-05-13|
866880|44555156|Organika s.r.o.||Spoločnosť s ručením obmedzeným||||3467/8|Slnečná|Piešťany|['92101']|Slovenská republika|2008-12-19|
461130|36631906|ZOFF, spol.s r.o.||Spoločnosť s ručením obmedzeným||||36|Slnečná|Banská Bystrica|['97404']|Slovenská republika|2004-10-29|
641972|46324038|MG PROJECT s.r.o.||Spoločnosť s ručením obmedzeným||||12|sv. Anny|Podolínec|['065 03']|Slovenská republika|2011-08-31|
9370158|00331759|Obec Michaľany||Obec (obecný úrad), mesto (mestský úrad)|||Michaľany, Hlavná ulica 108/89|89|Hlavná ulica|Michaľany|['07614']|Slovenská republika|1973-07-01|
9625768|51812711|Michal Janočo ml.||Podnikateľ-fyzická osoba-nezapísaný v obchodnom registri||||12|Mlynská|Vechec|['09412']|Slovenská republika|2018-06-22|
3579202|34570918|Ing. Janka Herpáková A.D.E. - TOP||Podnikateľ-fyzická osoba-nezapísaný v obchodnom registri||||||Kochanovce|['06601']|Slovenská republika|1996-11-27|
737200|44040148|Trebišovský Auto HE s. r. o.||Spoločnosť s ručením obmedzeným||||102/6164|Mierová|Humenné|['06601']|Slovenská republika|2008-03-18|
668889|31668879|||Spoločnosť s ručením obmedzeným|||||||||1993-03-17|2024-09-28
591149|47342242|Deutsch-Slowakische Akademien, a.s.||Akciová spoločnosť||||136/5|Školská|Brezno|['97701']|Slovenská republika|2013-08-10|
15634835|53532058|FEROVOPARK s.r.o.||Spoločnosť s ručením obmedzeným||||7|Rakovec nad Ondavou|Rakovec nad Ondavou|['07203']|Slovenská republika|2021-04-01|
2675637|17293600|Ing. Ján Hajduk - ELCOMP||Podnikateľ-fyzická osoba-nezapísaný v obchodnom registri||||1167|Hronského|Vranov nad Topľou|['09301']|Slovenská republika|1992-09-29|
851170|36227552|MANNET spol. s r.o.||Spoločnosť s ručením obmedzeným||||616/13|Družstevná|Madunice|['92242']|Slovenská republika|1998-04-15|
9370993|00332658|Obec Pavlovce||Obec (obecný úrad), mesto (mestský úrad)|||Pavlovce, Pavlovce 143|143|Pavlovce|Pavlovce|['09431']|Slovenská republika|1973-07-01|
1349904|32469535|Ing. Vladimír Vagaský - GART - ART||Podnikateľ-fyzická osoba-nezapísaný v obchodnom registri||||14|Jasuschova|Košice - mestská časť Sídlisko KVP|['04023']|Slovenská republika|1994-12-01|
16375055|54706556|Kubero s.r.o.||Spoločnosť s ručením obmedzeným||||10015/7|J.Bottu|Zvolen|['96001']|Slovenská republika|2022-07-07|
816989|48189308|MOAD s.r.o.||Spoločnosť s ručením obmedzeným||||6|Jesenná|Košice|['04001']|Slovenská republika|2015-06-06|
15734894|53859821|LENGVARSKÝ, s. r. o.||Spoločnosť s ručením obmedzeným||||1651|Dobrianskeho|Vranov nad Topľou|['093 01']|Slovenská republika|2021-06-09|
606246|46150749|SEAK, s.r.o.||Spoločnosť s ručením obmedzeným||||11934/92|Slanská|Prešov|['080 06']|Slovenská republika|2011-05-05|
9732585|52045331|Scholmobile, s.r.o.||Spoločnosť s ručením obmedzeným||||1740/44|Kuzmányho nábrežie|Zvolen|['96001']|Slovenská republika|2018-11-14|
9389143|36076643|Operačné stredisko záchrannej zdravotnej služby Slovenskej republiky||Príspevková organizácia|||Bratislava - mestská časť Ružinov, Trnavská cesta 8/A, 82108, Slovenská republika|8/A|Trnavská cesta|Bratislava - mestská časť Ružinov|['82108']|Slovenská republika|2005-07-15|
1853132|11959347|Ján Stanko Drevostav||Podnikateľ-fyzická osoba-nezapísaný v obchodnom registri||||||Pavlovce nad Uhom|['07214']|Slovenská republika|1992-08-25|
381371|36754579|PAK-INVEST, s.r.o.||Spoločnosť s ručením obmedzeným||||157/20|Kovarská|Chrabrany|['95501']|Slovenská republika|2007-03-20|
1770638|33889741|Ing. Marta Nachtmannová Účtovníctvo||Podnikateľ-fyzická osoba-nezapísaný v obchodnom registri||||||Zalužice|['07234']|Slovenská republika|1996-04-01|
757085|36211451|FÚRA s.r.o.||Spoločnosť s ručením obmedzeným||||98|Rastislavova|Košice - mestská časť Juh|['04346']|Slovenská republika|2001-12-19|
10082556|52662420|MATTA DUŠAN s. r. o.||Spoločnosť s ručením obmedzeným||||341||Vyšný Žipov|['09433']|Slovenská republika|2019-11-08|
6515713|50144839|adsupra s.r.o.||Spoločnosť s ručením obmedzeným||||18/35|Hlavná|Nižný Klátov|['044 12']|Slovenská republika|2016-02-04|
614133|43818030|DD21 s.r.o.||Spoločnosť s ručením obmedzeným||||107|Švábska|Prešov|['08005']|Slovenská republika|2007-11-23|
711184|35812401|EM CARD a.s.||Akciová spoločnosť||||7|Bánovská cesta|Žilina|['01001']|Slovenská republika|2001-05-22|
782385|36504459|Agrodružstvo v Soli||Družstvo||||12||Soľ|['09435']|Slovenská republika|2005-04-07|
643712|47421932|HSV Trade, s.r.o.||Spoločnosť s ručením obmedzeným||||11|Petrovce|Hanušovce nad Topľou|['09431']|Slovenská republika|2013-09-25|
14638624|53072171|Osobnyudaj.sk - DPO, s.r.o.||Spoločnosť s ručením obmedzeným||||3/A|Námestie osloboditeľov|Košice - mestská časť Staré Mesto|['04001']|Slovenská republika|2020-06-04|
6229870|50105060|Adventuredsports s.r.o.||Spoločnosť s ručením obmedzeným||||461|Hlavná|Vechec|['09412']|Slovenská republika|2015-12-31|
2697940|41390202|Miroslav Dzurik||Podnikateľ-fyzická osoba-nezapísaný v obchodnom registri||||26C|Lúčna|Vranov nad Topľou|['09301']|Slovenská republika|2004-12-02|
1011495|31322051|Union poisťovňa, a. s.||Akciová spoločnosť||||10|Karadžičova|Bratislava|['81360']|Slovenská republika|1992-05-01|
14781712|53255879|VR Security, s. r. o.||Spoločnosť s ručením obmedzeným||||189/68|Mlynská|Spišský Štiavnik|['05914']|Slovenská republika|2020-09-01|
3221127|40639606|Slavko Jurko - JS Agrotechnika||Podnikateľ-fyzická osoba-nezapísaný v obchodnom registri||||||Medzany|['08221']|Slovenská republika|2003-05-12|
820009|46604049|STEBERG s.r.o.||Spoločnosť s ručením obmedzeným||||2856/61|Kolónia|Galanta|['92401']|Slovenská republika|2012-04-06|
704918|36858650|L+H KOM s.r.o.||Spoločnosť s ručením obmedzeným||||17|Vihorlatská|Prešov|['08001']|Slovenská republika|2008-06-12|
694254|47822821|B - SERVIS s.r.o.||Spoločnosť s ručením obmedzeným||||431|Hlavná|Sečovská Polianka|['09414']|Slovenská republika|2014-06-24|
2729343|33266875|Štefan Tomáš||Podnikateľ-fyzická osoba-nezapísaný v obchodnom registri||||||Zámutov|['09415']|Slovenská republika|1992-12-16|
9368715|51204452|PB bau, s.r.o.||Spoločnosť s ručením obmedzeným||||259|Gaštanová|Strážske|['07222']|Slovenská republika|2017-11-22|
760584|44103930|GASTRO-GALAXI, s.r.o.||Spoločnosť s ručením obmedzeným||||16|Slovenská|Prešov|['08001']|Slovenská republika|2008-04-25|
821611|36474711|DELTA ONLINE spol. s r.o.||Spoločnosť s ručením obmedzeným||||2|Pri salaši|Košice - mestská časť Barca|['04017']|Slovenská republika|2001-08-21|
1029229|31373861|Linde Gas s. r. o.||Spoločnosť s ručením obmedzeným||||3|Tuhovská|Bratislava - mestská časť Vajnory|['83106']|Slovenská republika|1994-06-17|
531099|43995187|T-MAPY s. r. o.||Spoločnosť s ručením obmedzeným||||49|Dvojkrížna|Bratislava - mestská časť Podunajské Biskupice|['821 06']|Slovenská republika|2008-02-28|
714744|45402582|BISMONT, s. r. o.||Spoločnosť s ručením obmedzeným||||330|Cintorínska|Vranov nad Topľou|['09303']|Slovenská republika|2010-03-18|
791565|35905883|MIRAKL PHARMA, s.r.o.||Spoločnosť s ručením obmedzeným||||8/A|Moldavská cesta|Košice|['04011']|Slovenská republika|2004-10-30|
784011|31714838|Poľnohospodárske obchodné družstvo Vechec||Družstvo||||||Vechec|['09412']|Slovenská republika|1995-10-10|
1077273|47042397|ATbuilding s.r.o.||Spoločnosť s ručením obmedzeným||||5|Varšavská|Košice-Sídlisko Ťahanovce|['04013']|Slovenská republika|2013-03-01|
14776182|42382301|POZEMKOVÉ SPOLOČENSTVO - Pasienková a urbárska spoločnosť ZLATNÍK||Pozemkové spoločenstvo||||21|Zlatník|Zlatník|['09433']|Slovenská republika|2014-06-09|
9641301|36151475|JUDr. Beáta Krausová, advokátka||Slobodné povolanie-fyzická osoba podnikajúca na základe iného ako živnostenského zákona||||137|M.R. Štefánika|Vranov nad Topľou|['09301']|Slovenská republika|1997-03-11|
3096503|||||||||||||2002-07-01|2024-06-29
4736268|42235316|PRIMA Siberian Husky klub||Združenie (zväz, spolok, spoločnosť, klub ai.)||||217|M.R.Štefánika|Vranov nad Topľou|['09301']|Slovenská republika|2012-02-28|
778504|36168335|ARPROG, akciová spoločnosť Poprad||Akciová spoločnosť||||3292/3|Hodžova|Poprad|['05801']|Slovenská republika|1997-01-01|
704876|31575951|Prima banka Slovensko, a.s.||Akciová spoločnosť||||11|Hodžova|Žilina|['01011']|Slovenská republika|1993-01-01|
9370084|00332283|Obec Cabov||Obec (obecný úrad), mesto (mestský úrad)|||Cabov, Cabov 126|126|Cabov|Cabov|['09414']|Slovenská republika|1973-07-01|
9369747|00331953|Obec Stankovce||Obec (obecný úrad), mesto (mestský úrad)|||Stankovce, Hlavná 1|1|Hlavná|Stankovce|['07661']|Slovenská republika|1973-07-01|
2899751|43387926|Mária Ovšaníková, REŠTAURÁCIA DELTA||Podnikateľ-fyzická osoba-nezapísaný v obchodnom registri||||70|SNP|Hranovnica|['05916']|Slovenská republika|1992-02-10|
572732|36640468|SCRAPMET SLOVAKIA s.r.o.||Spoločnosť s ručením obmedzeným||||10|Robotnícka|Banská Bystrica|['97401']|Slovenská republika|2005-08-18|
2020740|11906022|Marian Šupa||Podnikateľ-fyzická osoba-nezapísaný v obchodnom registri||||164|Hollého|Veľké Kostoľany|['92207']|Slovenská republika|1992-09-23|
4729865|42407001|Pomoc psíkom na východnom Slovensku||Združenie (zväz, spolok, spoločnosť, klub ai.)||||41|Jána Erdélyiho|Veľké Kapušany|['07901']|Slovenská republika|2015-02-09|
645568|43844456|ENERGOTRADING, s. r. o.||Spoločnosť s ručením obmedzeným||||831/83|Lúčna|Vranov nad Topľou|['09301']|Slovenská republika|2007-12-07|
15716012|53741439|Max Telekom s.r.o.||Spoločnosť s ručením obmedzeným||||10|Sokolovská|Košice - mestská časť Západ|['04011']|Slovenská republika|2021-05-20|
1003961|00653501|||Akciová spoločnosť|||||||||1991-01-04|2022-02-09
699382|45595151|TESAR - DACH s.r.o.||Spoločnosť s ručením obmedzeným||||2497|Jasenovská|Humenné|['06601']|Slovenská republika|2010-06-05|
938567|31681051|MEVA-SK s.r.o. Rožňava||Spoločnosť s ručením obmedzeným||||574|Krátka|Brzotín, časť Bak|['04951']|Slovenská republika|1993-11-26|
9370674|00332852|Obec Slovenská Kajňa||Obec (obecný úrad), mesto (mestský úrad)|||Slovenská Kajňa, Hlavná ulica 4/6, 09402, Slovenská republika|6|Hlavná ulica|Slovenská Kajňa|['09402']|Slovenská republika|1973-07-01|
16317134|54669464|Úrad pre územné plánovanie a výstavbu Slovenskej republiky||Rozpočtová organizácia|||Bratislava - mestská časť Nové Mesto, Tomášikova 14366/64A, 83104, Slovenská republika|64A|Tomášikova|Bratislava - mestská časť Nové Mesto|['83104']|Slovenská republika|2022-06-01|
12232647|52886191|Porubské služby, s.r.o.||Spoločnosť s ručením obmedzeným||||136/159|Hlavná|Kamenná Poruba|['01314']|Slovenská republika|2020-01-28|
9111164|50751182|POKOJ & RP||Združenie (zväz, spolok, spoločnosť, klub ai.)||||107|Mlynská|Vranov nad Topľou|['09301']|Slovenská republika|2017-02-22|
829700|31329217|Slovak Parcel Service s.r.o.||Spoločnosť s ručením obmedzeným||||1|Senecká cesta|Ivanka pri Dunaji|['90028']|Slovenská republika|1992-07-27|
17765804|56259131|SEGEDINSON s. r. o.||Spoločnosť s ručením obmedzeným||||1080/7|Azovská|Bratislava - mestská časť Ružinov|['82108']|Slovenská republika|2024-05-12|
9370145|00332577|Obec Michalok||Obec (obecný úrad), mesto (mestský úrad)|||Michalok, Michalok 62|62|Michalok|Michalok|['09423']|Slovenská republika|1973-07-01|
744748|46590641|PERUVIAN, s. r. o.||Spoločnosť s ručením obmedzeným||||910/3|Andrusovova|Bratislava|['85101']|Slovenská republika|2012-03-21|
562638|45585954|VAAT, spol. s r.o.||Spoločnosť s ručením obmedzeným||||110|Žilinská Lehota|Žilina|['01001']|Slovenská republika|2010-06-04|
966045|17639727|KONNEX s.r.o.||Spoločnosť s ručením obmedzeným||||9|Trstínska cesta|Trnava|['91701']|Slovenská republika|1991-04-11|
538085|46862439|Ultima Ratio, s.r.o.||Spoločnosť s ručením obmedzeným||||2|Belopotockého|Liptovský Mikuláš|['03101']|Slovenská republika|2012-11-22|
260965|36347779|KOLTEN, spol. s r.o.||Spoločnosť s ručením obmedzeným||||I. 2424/33|Severná ulica|Prievidza|['97101']|Slovenská republika|2005-09-28|
1012720|35979798|NATUR-PACK, a.s.||Akciová spoločnosť||||25|Bajkalská|Bratislava - mestská časť Ružinov|['821 01']|Slovenská republika|2006-02-16|
15814024|54006805|Školská jedáleň, Sídlisko II 1336, Vranov nad Topľou||Rozpočtová organizácia||||1336|Sídlisko II|Vranov nad Topľou||Slovenská republika|2021-09-01|
15563931|||||||||||||2021-03-05|2024-04-20
2760028|40054055|Martin Haľko||Podnikateľ-fyzická osoba-nezapísaný v obchodnom registri||||3|Nová|Bystré|['09434']|Slovenská republika|2002-03-11|
9745275|42234239|Gréckokatolícke formačné centrum pre Rómov v Čičave||Cirkevná organizácia|||Čičava, 74, 09301, Slovenská republika|||Čičava|['09301']|Slovenská republika|2012-01-17|
14315214|35556773|Mestský podnik služieb mesta Strážske||Príspevková organizácia|||Strážske, Námestie Alexandra Dubčeka 300/1, 07222, Slovenská republika|1|Námestie Alexandra Dubčeka|Strážske|['07222']|Slovenská republika|2004-01-01|
14315012|52913147|Real Divers||Združenie (zväz, spolok, spoločnosť, klub ai.)||||4|Gen. Svobodu|Svidník|['08901']|Slovenská republika|2019-12-13|
1186535|34875298|Alena Maslošová BP FENCE||Podnikateľ-fyzická osoba-nezapísaný v obchodnom registri||||37|Hlavná|Zemplínska Nová Ves|['07616']|Slovenská republika|1997-11-17|
9371622|00331708|Obec Malé Ozorovce||Obec (obecný úrad), mesto (mestský úrad)|||Malé Ozorovce, Hlavná ulica 108/29|29|Hlavná ulica|Malé Ozorovce|['07801']|Slovenská republika|1973-07-01|
802870|35875101|TURAY PLUS, s.r.o.||Spoločnosť s ručením obmedzeným||||531/4|Ružová|Častá|['90089']|Slovenská republika|2004-02-04|
15814026|54006937|Školská jedáleň, Lúčna 827/26, Vranov nad Topľou||Rozpočtová organizácia||||26|Lúčna|Vranov nad Topľou||Slovenská republika|2021-09-01|
824847|35846968|ESSOX FINANCE, s.r.o.||Spoločnosť s ručením obmedzeným||||16|Karadžičova|Bratislava|['82108']|Slovenská republika|2002-11-11|
9757812|52072762|Nadácia VSE||Nadácia||||31|Mlynská|Košice - mestská časť Staré Mesto|['04291']|Slovenská republika|2018-12-10|
3824152|10784926|Ing. Peter Leško PVS ONDAVA||Podnikateľ-fyzická osoba-nezapísaný v obchodnom registri||||||Nižný Mirošov|['09011']|Slovenská republika|1992-11-30|
9802221|00416282|Slovenský Červený kríž, územný spolok Vranov nad Topľou||Nezisková organizácia|||Vranov nad Topľou, Štúrova 130/10, časť obce: Vranov, 09301, Slovenská republika|10|Štúrova|Vranov nad Topľou|['09301']|Slovenská republika|1976-12-31|
14762259|53227042|Občianske združenie Vechcovčania pre rozvoj Horného Zemplína||Združenie (zväz, spolok, spoločnosť, klub ai.)||||330|Školská|Vechec|['094 12']|Slovenská republika|2020-08-17|
592227|36631124|Slovenská pošta, a.s.||Akciová spoločnosť||||9|Partizánska cesta|Banská Bystrica|['97599']|Slovenská republika|2004-10-01|
818623|30775264|SVOP, spol. s r.o.||Spoločnosť s ručením obmedzeným||||730/2|Pod rovnicami|Bratislava|['84104']|Slovenská republika|1991-12-31|
16305361|54627702|ALL agency s. r. o.||Spoločnosť s ručením obmedzeným||||524||Alekšince|['95122']|Slovenská republika|2022-05-26|
697154|44441576|Balkar, s. r. o.||Spoločnosť s ručením obmedzeným||||718/45|Budovateľská|Hanušovce nad Topľou|['09431']|Slovenská republika|2008-10-10|
696614|11943254|||Podnikateľ-fyzická osoba-zapísaný v obchodnom registri|||||||||1991-03-11|2021-10-23
3289012|||||||||||||1998-09-11|2003-09-08
9641318|50038371|JUDr. Jozef Krenický, advokát||Slobodné povolanie-fyzická osoba podnikajúca na základe iného ako živnostenského zákona||||43|Vajanského|Prešov|['08001']|Slovenská republika|2015-10-23|
933819|46657827|EASTGARDEN s.r.o.||Spoločnosť s ručením obmedzeným||||94|Čečehov|Čečehov|['07211']|Slovenská republika|2012-05-05|
377188|36328375|HANT BA, a.s.||Akciová spoločnosť||||1412/248|Hliny|Považská Bystrica|['017 07']|Slovenská republika|2003-04-22|
9405771|30794323|Pôdohospodárska platobná agentúra||Rozpočtová organizácia|||Bratislava - mestská časť Ružinov, Hraničná 4826/12, 81526, Slovenská republika|12|Hraničná|Bratislava - mestská časť Ružinov|['81526']|Slovenská republika|2003-12-01|
440049|35971967|UPC BROADBAND SLOVAKIA, s.r.o.||Spoločnosť s ručením obmedzeným||||36|Ševčenkova|Bratislava|['85101']|Slovenská republika|2005-12-30|
811437|47061341|N.S.E. s.r.o.||Spoločnosť s ručením obmedzeným||||302||Remetské Hámre|['07241']|Slovenská republika|2013-04-11|
1009309|35697270|Orange Slovensko, a.s.||Akciová spoločnosť||||8|Metodova|Bratislava|['82108']|Slovenská republika|1996-09-03|
4658150|31949622|Obecný futbalový klub Dlhé Klčovo||Združenie (zväz, spolok, spoločnosť, klub ai.)||||84|Dlhá|Dlhé Klčovo|['09413']|Slovenská republika|1990-07-24|
1070278|36038351|LESY Slovenskej republiky, štátny podnik||Štátny podnik||||8|Námestie SNP|Banská Bystrica|['97566']|Slovenská republika|1999-10-29|
3599197|47877448|Ing. Jozef Šuľak||Podnikateľ-fyzická osoba-nezapísaný v obchodnom registri||||||Jasenov|['06601']|Slovenská republika|2014-08-06|
873299|46221379|Energy green, s.r.o.||Spoločnosť s ručením obmedzeným||||710/25|Južná|Rožňava|['048 01']|Slovenská republika|2011-06-09|
585976|36041432|SOMI Systems a.s.||Akciová spoločnosť||||69|Lazovná|Banská Bystrica|['97401']|Slovenská republika|2000-05-03|
15690004|42232368|Súkromná základná umelecká škola, Jastrabie nad Topľou 112||Nezisková organizácia||||||Jastrabie nad Topľou||Slovenská republika|2011-09-01|
760927|46946039|TIMEO, s.r.o.||Spoločnosť s ručením obmedzeným||||674/15|Dubovická roveň|Lipany|['08271']|Slovenská republika|2013-01-16|
309762|47526483|ASOS, s.r.o.||Spoločnosť s ručením obmedzeným||||2355/11|M.A.Bazovského|Topoľčany|['95503']|Slovenská republika|2013-11-09|
9758654|52110478|VaK SERVIS, s.r.o.||Spoločnosť s ručením obmedzeným||||5000/1|Kuzmányho|Poprad|['05801']|Slovenská republika|2018-12-21|
9369799|42156424|Národná agentúra pre sieťové a elektronické služby||Príspevková organizácia|||Trnava, Ulica Kollárova 543/8, 91702, Slovenská republika|8|Ulica Kollárova|Trnava|['91702']|Slovenská republika|2009-01-01|
9647346|51846713|Minerva n.o.||Nezisková organizácia poskytujúca všeobecne prospešné služby||||47|Wuppertálska|Košice - mestská časť Sídlisko KVP|['04023']|Slovenská republika|2018-07-11|
16958493|42228662|Súkromná škola v prírode, Tatranská Lomnica 71, Vysoké Tatry||Nezisková organizácia||||71|Tatranská Lomnica|Vysoké Tatry||Slovenská republika|1956-07-01|
761141|44846207|STAVOTREND MI, s.r.o.||Spoločnosť s ručením obmedzeným||||60|Masarykova|Michalovce|['07101']|Slovenská republika|2009-10-29|
3637527|35459069|Ing. Dana Betáková||Podnikateľ-fyzická osoba-nezapísaný v obchodnom registri||||6|SNP|Humenné|['06601']|Slovenská republika|1998-11-02|
671076|36450332|Tatranská odpadová spoločnosť s.r.o., Žakovce||Spoločnosť s ručením obmedzeným||||189||Žakovce|['05973']|Slovenská republika|1997-10-15|
779936|36450847|BUKÓZA HOLDING, a.s.||Akciová spoločnosť||||2073|Hencovská|Hencovce|['09302']|Slovenská republika|1997-11-04|
9372648|37936859|Správa a údržba ciest Prešovského samosprávneho kraja||Rozpočtová organizácia|||Prešov, Jesenná 2689/14, časť obce: Solivar, 08005, Slovenská republika|14|Jesenná|Prešov|['08005']|Slovenská republika|2003-12-01|
850292|44020091|MB SERVIS, s.r.o.||Spoločnosť s ručením obmedzeným||||1242/19A|Kostolecká|Moravany nad Váhom|['92221']|Slovenská republika|2008-03-12|
4600438|45742952|SENIORCENTRUM SVÄTEJ ALŽBETY, nezisková organizácia||Nezisková organizácia poskytujúca všeobecne prospešné služby||||26|Slobody|Rozhanovce|['04442']|Slovenská republika|2014-05-02|
738180|47846470|SAGANSPORT s.r.o.||Spoločnosť s ručením obmedzeným||||15|Duklianska|Bardejov|['08501']|Slovenská republika|2014-07-15|
3175938|41748514|Ing. Pavel Jurko||Podnikateľ-fyzická osoba-nezapísaný v obchodnom registri||||||Kendice|['08201']|Slovenská republika|2002-05-06|
967691|47196823|DANASE s.r.o.||Spoločnosť s ručením obmedzeným||||4823/13|Prostějovská|Prešov|['08001']|Slovenská republika|2013-06-21|
15716349|53812948|UNIQA pojišťovna, a.s., pobočka poisťovne z iného členského štátu||Nešpecifikovaná právna forma||||3986/15|Krasovského|Bratislava - mestská časť Petržalka|['85101']|Slovenská republika|2021-05-21|
9370508|00324124|Obec Ďurďošík||Obec (obecný úrad), mesto (mestský úrad)|||Ďurďošík, 13|||Ďurďošík|['04445']|Slovenská republika|1973-07-01|
369869|36535605|REMEK, s.r.o.||Spoločnosť s ručením obmedzeným||||743/2|Nálepkova|Nitra|['94901']|Slovenská republika|2000-03-10|
688624|46928065|DUBOVÁ Rajec, s.r.o.||Spoločnosť s ručením obmedzeným||||26|Námestie SNP|Rajec|['01501']|Slovenská republika|2012-12-05|
16632499|55044999|Veronika Ravasová||Podnikateľ-fyzická osoba-nezapísaný v obchodnom registri||||||Soľ|['09435']|Slovenská republika|2022-11-11|
15468140|53640691|Drahoslava Dankaninová s.r.o.||Spoločnosť s ručením obmedzeným||||84|Petrovce nad Laborcom|Petrovce nad Laborcom|['07101']|Slovenská republika|2021-03-04|
9298253|51008190|DoorWin, s.r.o.||Spoločnosť s ručením obmedzeným||||1057/9|Juh|Vranov nad Topľou|['09301']|Slovenská republika|2017-08-12|
1073218|36576671|MI Top, spol. s r.o.||Spoločnosť s ručením obmedzeným||||33|Ul. Osloboditeľov|Košice-Barca|['04017']|Slovenská republika|2004-01-23|
436213|36046884|WEBY GROUP, s.r.o.||Spoločnosť s ručením obmedzeným||||2a|Nižovec|Zvolen|['96001']|Slovenská republika|2001-03-08|
781589|36195219|NOVA TRAINING, s.r.o.||Spoločnosť s ručením obmedzeným||||86|Popradská|Košice|['04011']|Slovenská republika|1999-12-14|
1746909|32693435|Ľubomír Somoš - SOMA||Podnikateľ-fyzická osoba-nezapísaný v obchodnom registri||||||Zemplínska Široká|['07213']|Slovenská republika|1994-07-18|
659482|44688997|INTERBAU s. r. o.||Spoločnosť s ručením obmedzeným||||520||Brezovica|['08274']|Slovenská republika|2009-03-24|
9690504|51937565|Best friends nursery||Združenie (zväz, spolok, spoločnosť, klub ai.)||||1|Okulka|Vranov nad Topľou|['09301']|Slovenská republika|2018-09-14|
713072|36823945|PROFIL INVEST SLOVAKIA, s.r.o.||Spoločnosť s ručením obmedzeným||||1250|Staničná|Vranov nad Topľou|['09301']|Slovenská republika|2007-08-28|
592628|36426041|PC SEMA, s.r.o.||Spoločnosť s ručením obmedzeným||||103|Bôrická cesta|Žilina|['01001']|Slovenská republika|2004-12-24|
13321792|31952640|Gréckokatolícka cirkev, farnosť Čičava||Cirkevná organizácia|||Čičava, 38, 09301, Slovenská republika|||Čičava|['09301']|Slovenská republika|1993-06-29|
744313|31719627|AGROMIX výrobno-obchodná spoločnosť, spol. s r.o.||Spoločnosť s ručením obmedzeným||||367||Sedliská|['09409']|Slovenská republika|1996-01-09|
4697607|42420032|Občianske združenie Zvedavé včielky||Združenie (zväz, spolok, spoločnosť, klub ai.)||||||Vyšný Žipov|['09433']|Slovenská republika|2015-01-30|
6984464|50172441|AIP projekt, s.r.o.||Spoločnosť s ručením obmedzeným||||10|Letná|Košice - mestská časť Staré Mesto|['04001']|Slovenská republika|2016-04-26|
9388790|00003328|Slovenská správa ciest||Rozpočtová organizácia|||Bratislava - mestská časť Karlova Ves, Dúbravská cesta 1152/3, 84104, Slovenská republika|3|Dúbravská cesta|Bratislava - mestská časť Karlova Ves|['84104']|Slovenská republika|1991-06-13|
1013686|00585441|KOOPERATIVA poisťovňa, a.s. Vienna Insurance Group||Akciová spoločnosť||||4|Štefanovičova|Bratislava|['81623']|Slovenská republika|1990-11-29|
2729195|41392931|Ing. Štefan Fenik||Podnikateľ-fyzická osoba-nezapísaný v obchodnom registri||||27|Slanská|Vranov nad Topľou|['09303']|Slovenská republika|2005-03-17|
9575406|51671905|REVIT HOUSE s. r. o.||Spoločnosť s ručením obmedzeným||||31|Hlavná|Stropkov|['091 01']|Slovenská republika|2018-04-26|
9113892|50729306|Dom seniorov Harmónia n.o.||Nezisková organizácia poskytujúca všeobecne prospešné služby||||||Rakovec nad Ondavou|['07203']|Slovenská republika|2017-02-27|
752649|47032898|ZEMOS-STAV s.r.o.||Spoločnosť s ručením obmedzeným||||178||Pavlovce|['09431']|Slovenská republika|2013-03-12|
9101713|50711946|AB & Partners, s.r.o.||Spoločnosť s ručením obmedzeným||||4|Námestie slobody|Humenné|['06601']|Slovenská republika|2017-02-15|
2727607|41985206|Mgr. Ján Fuňa||Podnikateľ-fyzická osoba-nezapísaný v obchodnom registri||||||Tovarné|['09401']|Slovenská republika|2006-03-01|
683680|45842337|Zetnet s.r.o.||Spoločnosť s ručením obmedzeným||||116||Košarovce|['09406']|Slovenská republika|2010-09-14|
6992254|50316656|Dominik Siničák - DOMINGÉZ||Podnikateľ-fyzická osoba-nezapísaný v obchodnom registri||||29|Partizánska|Snina|['06901']|Slovenská republika|2016-05-01|
2775836|||||||||||||2015-02-23|2024-01-15
17575665|56072902|Ing. Mária Kozáková - MK nechtové štúdio||Podnikateľ-fyzická osoba-nezapísaný v obchodnom registri||||16|Školská ulica|Slovenská Kajňa|['09402']|Slovenská republika|2024-02-09|
1033161|35790164|Kaufland Slovenská republika v.o.s.||Verejná obchodná spoločnosť||||41/A|Trnavská cesta|Bratislava|['83104']|Slovenská republika|2000-06-13|
9371189|17058520|Štátna ochrana prírody Slovenskej republiky||Príspevková organizácia|||Banská Bystrica, Tajovského 14440/28B, časť obce: Banská Bystrica, 97409, Slovenská republika|28B|Tajovského|Banská Bystrica|['97409']|Slovenská republika|2006-07-01|
439651|36019208|INMEDIA, spol. s r.o.||Spoločnosť s ručením obmedzeným||||11|Námestie SNP|Zvolen|['96001']|Slovenská republika|1997-03-25|
1072587|36599361|Východoslovenská distribučná, a.s.||Akciová spoločnosť||||31|Mlynská|Košice|['04291']|Slovenská republika|2005-11-04|
274192|36553859|ALEX kovový a školský nábytok s.r.o.||Spoločnosť s ručením obmedzeným||||870|Hadovská|Komárno|['94501']|Slovenská republika|2003-08-13|
10904852|52829804|MD poradenstvo s. r. o.||Spoločnosť s ručením obmedzeným||||258|Čierne nad Topľou|Čierne nad Topľou|['09434']|Slovenská republika|2019-12-19|
619802|31725210|AGRATECH s.r.o.||Spoločnosť s ručením obmedzeným||||1347|Mlynská|Vranov nad Topľou|['09301']|Slovenská republika|1996-04-04|
633124|46481192|Michal Maselko s.r.o.||Spoločnosť s ručením obmedzeným||||451/5|Slnečná|Vranov nad Topľou|['09301']|Slovenská republika|2012-01-01|
1008714|36291111|Doplnková dôchodková spoločnosť Tatra banky, a.s.||Akciová spoločnosť|||||Hodžovo námestie 3|Bratislava|['81106']|Slovenská republika|2006-04-10|
10011761|52558541|K&P Solvers s. r. o.||Spoločnosť s ručením obmedzeným||||2567/5|Laca Novomeského|Bardejov|['085 01']|Slovenská republika|2019-08-14|
1072782|31651518|EUROVIA SK, a.s.||Akciová spoločnosť||||66|Osloboditeľov|Košice|['04017']|Slovenská republika|1992-05-01|
2702798|44075162|Ing. Mikuláš Bodnár||Podnikateľ-fyzická osoba-nezapísaný v obchodnom registri||||57|Mlynská|Vranov nad Topľou|['09301']|Slovenská republika|2008-04-05|
9371564|00332488|Obec Komárany||Obec (obecný úrad), mesto (mestský úrad)|||Komárany, Komárany 136|136|Komárany|Komárany|['09301']|Slovenská republika|1973-07-01|
634572|36486485|MOUREZ s.r.o. Vranov n.T.||Spoločnosť s ručením obmedzeným||||2800/39B|B. Němcovej|Vranov nad Topľou|['09301']|Slovenská republika|2003-06-20|
6986530|50313177|Ján Hlisnikowski||Podnikateľ-fyzická osoba-nezapísaný v obchodnom registri||||38|Jána Lačeka|Spišské Bystré|['05918']|Slovenská republika|2016-05-01|
9372595|00332810|Obec Sačurov||Obec (obecný úrad), mesto (mestský úrad)|||Sačurov, Ul. osloboditeľov 385|385|Ul. osloboditeľov|Sačurov|['09413']|Slovenská republika|1973-07-01|
775841|36216402|3H MOBIL s.r.o.||Spoločnosť s ručením obmedzeným||||28/A|Moldavská cesta|Košice - mestská časť Juh|['040 01']|Slovenská republika|2002-09-20|
722186|47136201|DREVOKOM SLOVAKIA s.r.o.||Spoločnosť s ručením obmedzeným||||314||Čičava|['09301']|Slovenská republika|2013-04-24|
673547|36481891|KOVTEX, s.r.o.||Spoločnosť s ručením obmedzeným||||346/45|Slovenská|Hanušovce nad Topľou|['09431']|Slovenská republika|2002-10-01|
548791|36280712|Innovatrics, s.r.o.||Spoločnosť s ručením obmedzeným||||82|Pri vinohradoch|Bratislava|['83106']|Slovenská republika|2006-02-17|
9843518|52283208|Nadácia PSK pre podporu rodiny||Nadácia||||2|Námestie mieru|Prešov|['08001']|Slovenská republika|2019-03-14|
15639482|53687086|SAM-STAVEBNINY s. r. o.||Spoločnosť s ručením obmedzeným||||100|Hlavná|Dlhé Klčovo|['094 13']|Slovenská republika|2021-04-08|
1190572|33867551|Jozef Iľko - STAVEBNÁ FIRMA IĽKO||Podnikateľ-fyzická osoba-nezapísaný v obchodnom registri||||10B|Cukrovarská|Trebišov|['07501']|Slovenská republika|1994-11-01|
4749519|37857690|ELEKOS||Záujmové združenie právnických osôb||||44|Párovská|Nitra|['94901']|Slovenská republika|2007-08-14|
667203|36453528|SALDO-AUDIT Vranov, s.r.o.||Spoločnosť s ručením obmedzeným||||1236|Duklianských hrdinov|Vranov nad Topľou|['09301']|Slovenská republika|1998-01-26|
1005157|31402828|Schindler výťahy a eskalátory a.s.||Akciová spoločnosť||||8|Karadžičova|Bratislava|['82108']|Slovenská republika|1995-09-27|
831570|43787304|EKONAUDIT SERVICES, s.r.o.||Spoločnosť s ručením obmedzeným||||47|Nálepkova|Smižany|['05311']|Slovenská republika|2007-11-03|
505250|36415685|MERKUR SLOVAKIA, s.r.o.||Spoločnosť s ručením obmedzeným||||4554/6|Kamenné pole|Liptovský Mikuláš|['03101']|Slovenská republika|2004-01-27|
4622423|42262801|Nadácia Centra pre filantropiu||Nadácia||||5|Baštová|Bratislava - mestská časť Staré Mesto|['81103']|Slovenská republika|2012-05-25|
4698351|45745331|SPIRIT n.o.||Nezisková organizácia poskytujúca všeobecne prospešné služby||||4|Domašská|Vranov nad Topľou|['09302']|Slovenská republika|2015-01-21|
14694986|||||||||||||1993-09-29|2022-05-31
816271|46919805|TOPSET Solutions s. r. o.||Spoločnosť s ručením obmedzeným||||2366/25B|Hollého|Stupava|['90031']|Slovenská republika|2012-11-24|
4587620|00178454|Slovenský ochranný zväz autorský pre práva k hudobným dielam||Združenie (zväz, spolok, spoločnosť, klub ai.)||||3|Rastislavova|Bratislava - mestská časť Ružinov|['82108']|Slovenská republika|1992-05-21|
446496|36041688|MADE spol. s r.o.||Spoločnosť s ručením obmedzeným||||14A|Hurbanova|Banská Bystrica|['97401']|Slovenská republika|2000-05-17|
4593294|31955894|"ŠK ""THYMALLUS"" pri MO SRZ Vranov n. T."||Združenie (zväz, spolok, spoločnosť, klub ai.)||||12|Štúrova|Vranov nad Topľou|['09301']|Slovenská republika|1994-02-04|
788518|31666108|IFOsoft s.r.o.||Spoločnosť s ručením obmedzeným||||36|Sabinovská|Prešov|['08001']|Slovenská republika|1993-01-22|
4669676|36162469|Mestský športový klub Vranov nad Topľou||Združenie (zväz, spolok, spoločnosť, klub ai.)||||1|Dr. C. Daxnera|Vranov nad Topľou|['09301']|Slovenská republika|1998-05-27|
752371|45366292|INGPRO spol. s r.o.||Spoločnosť s ručením obmedzeným||||258/23|Viničná|Vranov nad Topľou|['09301']|Slovenská republika|2010-01-16|
9370374|00332291|Obec Čaklov||Obec (obecný úrad), mesto (mestský úrad)|||Čaklov, Čaklov 116|116|Čaklov|Čaklov|['09435']|Slovenská republika|1973-07-01|
9388495|00002801|Slovenská inovačná a energetická agentúra||Príspevková organizácia|||Bratislava - mestská časť Ružinov, Bajkalská 1467/27, 82799, Slovenská republika|27|Bajkalská|Bratislava - mestská časť Ružinov|['82799']|Slovenská republika|1976-01-01|
9371448|00323748|Obec Veľopolie||Obec (obecný úrad), mesto (mestský úrad)|||Veľopolie, Veľopolie 78|78|Veľopolie|Veľopolie|['06731']|Slovenská republika|1973-07-01|
17667523|56117361|Mgr. Daniela Jakubčinová||Podnikateľ-fyzická osoba-nezapísaný v obchodnom registri||||100|Slanská|Vechec|['09412']|Slovenská republika|2024-03-18|
7128169|50346831|NOBET INVEST s. r. o.||Spoločnosť s ručením obmedzeným||||292|Tehelná|Vranov nad Topľou|['09303']|Slovenská republika|2016-06-03|
9369795|00304743|Obec Gajary||Obec (obecný úrad), mesto (mestský úrad)|||Gajary, Hlavná 67/105, 90061, Slovenská republika|105|Hlavná|Gajary|['90061']|Slovenská republika|1973-07-01|
9372915|00332861|Obec Soľ||Obec (obecný úrad), mesto (mestský úrad)|||Soľ, Soľ 161, 09435, Slovenská republika|161|Soľ|Soľ|['09435']|Slovenská republika|1973-07-01|
4726603|37884867|Nadácia CHEMOSVIT||Nadácia||||101|Štúrova|Svit|['05921']|Slovenská republika|2003-08-01|
485392|36799262|K3 GROUP, s. r. o.||Spoločnosť s ručením obmedzeným||||43/334|Horná Trnovská|Žilina - Trnové|['01001']|Slovenská republika|2007-06-30|
926188|36572152|HO - ST, s.r.o.||Spoločnosť s ručením obmedzeným||||1626/13|Pri Teleku|Košice|['04018']|Slovenská republika|2003-07-23|
647185|45853240|DD - ARCH, s.r.o.||Spoločnosť s ručením obmedzeným||||1836/25|Hencovská|Hencovce|['09302']|Slovenská republika|2011-02-17|
17040149|55462456|RONY s.r.o.||Spoločnosť s ručením obmedzeným||||680/7|Buzulucká|Košice - mestská časť Dargovských hrdinov|['04022']|Slovenská republika|2023-06-06|
2759866|10805672|Ing. Anton Pavúk||Podnikateľ-fyzická osoba-nezapísaný v obchodnom registri||||||Nižný Hrabovec|['09421']|Slovenská republika|1992-06-09|
944945|47256125|EUFC SK s. r. o.||Spoločnosť s ručením obmedzeným||||2|Družstevná|Bratislava|['83104']|Slovenská republika|2014-12-09|
4669874|31818625|Nadácia SPP||Nadácia||||44/a|Mlynské nivy|Bratislava - mestská časť Ružinov|['82511']|Slovenská republika|2002-12-12|
204989|36835463|DREVEX EU, s.r.o.||Spoločnosť s ručením obmedzeným||||1870/45B|Bojnická cesta|Prievidza|['97101']|Slovenská republika|2007-09-20|
702807|46360379|RIZNER s. r. o.||Spoločnosť s ručením obmedzeným||||95||Lukavica|['08621']|Slovenská republika|2011-09-22|
10031431|52651258|doc. JUDr. Jozef Tekeli, PhD. & Associates, s. r. o.||Spoločnosť s ručením obmedzeným||||111/25|Hlavná|Košice - mestská časť Staré Mesto|['040 01']|Slovenská republika|2019-10-01|
4585732|17310598|SLOVGRAM, nezávislá spoločnosť výkonných umelcov a výrobcov zvukových a zvukovo-obrazových záznamov, Bratislava||Združenie (zväz, spolok, spoločnosť, klub ai.)||||14|Jakubovo námestie|Bratislava - mestská časť Staré Mesto|['81348']|Slovenská republika|1991-04-02|
4599692|42026652|Folklórny súbor ORGONINA z Vranova nad Topľou||Združenie (zväz, spolok, spoločnosť, klub ai.)||||87|Dr.C.Daxnera|Vranov nad Topľou|['09316']|Slovenská republika|2005-06-16|
9388627|00151742|Ministerstvo financií Slovenskej republiky||Rozpočtová organizácia|||Bratislava - mestská časť Staré Mesto, Štefanovičova 5, 81782, Slovenská republika|5|Štefanovičova|Bratislava - mestská časť Staré Mesto|['81782']|Slovenská republika|1991-10-25|
729054|36208086|OLHA TRADE, s.r.o.||Spoločnosť s ručením obmedzeným||||167||Kráľovce|['04444']|Slovenská republika|2001-07-23|
956598|31712312|Tempus - Car s.r.o.||Spoločnosť s ručením obmedzeným||||110|Rastislavova|Košice|['04001']|Slovenská republika|1995-08-15|
17526128|56054939|Elli consulting s. r. o.||Spoločnosť s ručením obmedzeným||||112||Arnutovce|['05313']|Slovenská republika|2024-02-02|
13697107|37801279|Katolícka univerzita v Ružomberku||Verejnoprávna inštitúcia||||1A|Hrabovská cesta|Ružomberok|['03401']|Slovenská republika|2000-07-01|
4582842|42247641|BEZPEČNE DO ŽIVOTA||Združenie (zväz, spolok, spoločnosť, klub ai.)||||||Zemplínska Široká|['07213']|Slovenská republika|2012-02-10|
16124777|54396913|ANMIPROJEKTY, s. r. o.||Spoločnosť s ručením obmedzeným||||811/13|Lúčna|Mokrance|['045 01']|Slovenská republika|2022-02-11|
17001438|55450776|Alphabet service s. r. o.||Spoločnosť s ručením obmedzeným||||3426/11C|Strojárenská|Košice - mestská časť Staré Mesto|['040 01']|Slovenská republika|2023-05-16|
15693880|||||||||||||2021-05-10|2024-03-02
9372960|00332763|Obec Rudlov||Obec (obecný úrad), mesto (mestský úrad)|||Rudlov, Rudlov 37|37|Rudlov|Rudlov|['09435']|Slovenská republika|1973-07-01|
10011580|52545075|LIPROX s. r. o.||Spoločnosť s ručením obmedzeným||||45A|Jenisejská|Košice - mestská časť Nad jazerom|['040 12']|Slovenská republika|2019-08-14|
796628|36583227|Art - Term s.r.o.||Spoločnosť s ručením obmedzeným||||1372/30|Cottbuská|Košice|['04011']|Slovenská republika|2004-08-18|
859384|36728489|SPEEDCOM s.r.o.||Spoločnosť s ručením obmedzeným||||23/4|Kláštorná|Brehov|['076 05']|Slovenská republika|2007-01-23|
15136885|37873385|Základná škola, Lúčna 827/26, Vranov nad Topľou||Rozpočtová organizácia||||26|Lúčna|Vranov nad Topľou||Slovenská republika|1998-02-01|
15787486|53695984|TENISOVÝ KLUB VRANOV||Združenie (zväz, spolok, spoločnosť, klub ai.)|||||Čemernianska|Vranov nad Topľou|['09303']|Slovenská republika|2021-06-21|
718542|44739753|JEDÁLEŇ - M.O., s.r.o.||Spoločnosť s ručením obmedzeným||||530|Hornádska|Spišské Bystré|['05918']|Slovenská republika|2009-04-17|
13543879|52969941|Spoločne za krajšiu Lomnicu||Združenie (zväz, spolok, spoločnosť, klub ai.)||||31|Porubská|Vranov nad Topľou|['09303']|Slovenská republika|2020-02-11|
810713|36179868|WINKLER, s.r.o.||Spoločnosť s ručením obmedzeným||||161|Lastomírska|Michalovce|['07101']|Slovenská republika|1997-12-15|
3436277|10737821|Ing.arch. Peter Doričko - PROINVEST||Podnikateľ-fyzická osoba-nezapísaný v obchodnom registri||||16|Botanická|Prešov|['08001']|Slovenská republika|1992-09-30|
690403|36467677|Banik a syn s.r.o.||Spoločnosť s ručením obmedzeným||||1106|Herlianska|Vranov nad Topľou|['09303']|Slovenská republika|2000-07-27|
739030|35783052|GastroRex, s.r.o.||Spoločnosť s ručením obmedzeným||||80|Mlynské Luhy|Bratislava II|['82105']|Slovenská republika|2000-03-06|
520241|36597007|||Spoločnosť s ručením obmedzeným|||||||||2005-09-01|2023-10-14
15972544|54228573|Generali Poisťovňa, pobočka poisťovne z iného členského štátu||Nešpecifikovaná právna forma||||3/A|Lamačská cesta|Bratislava - mestská časť Karlova Ves|['84104']|Slovenská republika|2021-11-11|
777858|36457728|ZEOCEM s.r.o.||Spoločnosť s ručením obmedzeným||||282/1|Prešovská|Bystré|['09434']|Slovenská republika|1998-10-12|
1683228|40068617|Zdeno Mišutka||Podnikateľ-fyzická osoba-nezapísaný v obchodnom registri||||||Hvozdnica|['01356']|Slovenská republika|2003-06-01|
9370406|00332267|Obec Benkovce||Obec (obecný úrad), mesto (mestský úrad)|||Benkovce, Hlavná 22/50, 09402, Slovenská republika|50|Hlavná|Benkovce|['09402']|Slovenská republika|1973-07-01|
613173|36463116|ALDA Vranov n.T., s.r.o.||Spoločnosť s ručením obmedzeným||||67||Hudcovce|['06745']|Slovenská republika|1999-09-29|
9663766|51865467|Stredoslovenská energetika, a. s.||Akciová spoločnosť||||8591/4B|Pri Rajčianke|Žilina|['010 47']|Slovenská republika|2018-08-03|
9372026|00325490|Mesto Michalovce||Obec (obecný úrad), mesto (mestský úrad)|||Michalovce, Nám. osloboditeľov 1015/30, časť obce: Michalovce, 07101, Slovenská republika|30|Nám. osloboditeľov|Michalovce|['07101']|Slovenská republika|1973-07-01|
9188746|50916173|Mgr. Tomáš Balogh||Podnikateľ-fyzická osoba-nezapísaný v obchodnom registri||||29|Vyšné Hágy|Vysoké Tatry|['05984']|Slovenská republika|2017-05-22|
9613441|00179221|Ústredný zväz židovských náboženských obcí v Slovenskej republike||Cirkevná organizácia|||Bratislava - mestská časť Staré Mesto, Panenská 653/4, 81103, Slovenská republika|4|Panenská|Bratislava - mestská časť Staré Mesto|['81103']|Slovenská republika|1976-12-31|
913874|31373461|Universal Music, s.r.o.||Spoločnosť s ručením obmedzeným||||10|Twin City Tower, Mlynské nivy|Bratislava - mestská časť Ružinov|['821 09']|Slovenská republika|1994-06-13|
4775613|48309893|PROFIL INVEST TWO s.r.o.||Spoločnosť s ručením obmedzeným||||1250|Staničná|Vranov nad Topľou|['09301']|Slovenská republika|2015-10-24|
624213|36839051|Inžinierska agentúra, s. r. o.||Spoločnosť s ručením obmedzeným||||1210|Duklianskych hrdinov|Vranov nad Topľou|['09301']|Slovenská republika|2007-09-27|
4658896|35519428|TJ Turbína Hlinné||Združenie (zväz, spolok, spoločnosť, klub ai.)||||||Hlinné|['09435']|Slovenská republika|1990-07-24|
14772939|53248376|Eurofins Environment Testing Slovakia s.r.o.||Spoločnosť s ručením obmedzeným||||820/36|Robotnícka|Turčianske Teplice|['039 01']|Slovenská republika|2020-08-25|
752605|31686974|GRUND VRANOV N.T., s.r.o.||Spoločnosť s ručením obmedzeným||||934/16|Makovická|Vranov nad Topľou|['09301']|Slovenská republika|1994-03-15|
17206682|55643353|AKP ateliér s.r.o.||Spoločnosť s ručením obmedzeným||||6737/21|Rudohorská|Banská Bystrica|['974 11']|Slovenská republika|2023-08-02|
778462|36460141|O.S.V.O. comp, a.s.||Akciová spoločnosť||||18|Strojnícka|Prešov|['08001']|Slovenská republika|1999-03-31|
687526|36457817|RASLEN, spol. s r.o.||Spoločnosť s ručením obmedzeným||||48||Soľ|['09435']|Slovenská republika|1998-10-16|
910556|36590134|JANEKO s.r.o.||Spoločnosť s ručením obmedzeným||||188/15|Hurbanova|Trebišov|['07501']|Slovenská republika|2005-02-23|
12557165|52952134|Mgr. Michal Švábik - EUROFONDY||Podnikateľ-fyzická osoba-nezapísaný v obchodnom registri||||||Nižný Hrušov|['09422']|Slovenská republika|2020-02-11|
1022198|31364501|Železnice Slovenskej republiky||Nešpecifikovaná právna forma||||8|Klemensova|Bratislava|['81361']|Slovenská republika|1993-12-31|
9642750|||||||||||||2011-01-01|2023-01-31
544820|36622524|MB TECH BB s.r.o.||Spoločnosť s ručením obmedzeným||||15449/2|Priemyselná ulica|Banská Bystrica|['97401']|Slovenská republika|2003-12-30|
613317|44886021|DAG SLOVAKIA, a. s.||Akciová spoločnosť||||9|Volgogradská|Prešov|['08001']|Slovenská republika|2009-07-24|
9370592|00332313|Obec Čierne nad Topľou||Obec (obecný úrad), mesto (mestský úrad)|||Čierne nad Topľou, Čierne nad Topľou 232|232|Čierne nad Topľou|Čierne nad Topľou|['09434']|Slovenská republika|1973-07-01|
8888737|50530950|JRK Slovensko s.r.o.||Spoločnosť s ručením obmedzeným||||3|Staromestská|Bratislava - mestská časť Staré Mesto|['811 03']|Slovenská republika|2016-10-25|
850918|31362044|LMM, spol. s r.o.||Spoločnosť s ručením obmedzeným||||73/A|Mlynské Nivy|Bratislava - mestská časť Ružinov|['82105']|Slovenská republika|1993-11-02|
661680|46754768|ESPIK Group s.r.o.||Spoločnosť s ručením obmedzeným||||133||Orlov|['06543']|Slovenská republika|2012-07-21|
4676699|00584614|Združenie miest a obcí Slovenska||Záujmové združenie právnických osôb||||9|Bezručova|Bratislava - mestská časť Staré Mesto|['81109']|Slovenská republika|1994-07-20|
352311|36746045|3W Slovakia, s.r.o.||Spoločnosť s ručením obmedzeným||||589|Melčice|Melčice-Lieskové|['91305']|Slovenská republika|2007-03-01|
9646796|00179094|Košická arcidiecéza||Cirkevná organizácia|||Košice - mestská časť Staré Mesto, Hlavná 17/28, 04001, Slovenská republika|28|Hlavná|Košice - mestská časť Staré Mesto|['04001']|Slovenská republika|1976-12-31|
4727675|37941470|FORTIS PROJECT||Združenie (zväz, spolok, spoločnosť, klub ai.)|||||P. Z. Vrbického|Štrba|['05938']|Slovenská republika|2004-05-28|
239970|44915853|ABEEX s.r.o.||Spoločnosť s ručením obmedzeným||||468/467|Majerská|Veľké Ripňany|['95607']|Slovenská republika|2009-08-26|
927601|48303836|G.L.S. Building service s.r.o.||Spoločnosť s ručením obmedzeným||||140|Petrovce nad Laborcom|Petrovce nad Laborcom|['07101']|Slovenská republika|2015-09-15|
4641343|17076161|Vranovský stolnotenisový klub Vranov nad Topľou||Združenie (zväz, spolok, spoločnosť, klub ai.)||||1B|B. Němcovej|Vranov nad Topľou|['09301']|Slovenská republika|1991-03-13|
704748|44617666|FREEBEX s.r.o.||Spoločnosť s ručením obmedzeným||||1019|Herlianska|Vranov nad Topľou|['09303']|Slovenská republika|2009-02-04|
444604|31643949|UNIAGRO, s.r.o.||Spoločnosť s ručením obmedzeným||||126|SNP|Zvolenská Slatina|['96201']|Slovenská republika|1996-01-30|
16154713|54383391|EZ Control s. r. o.||Spoločnosť s ručením obmedzeným||||817/16|M. R. Štefánika|Nové Mesto nad Váhom|['91501']|Slovenská republika|2022-03-03|
729376|45482349|RYTMUS – Computer & music world s.r.o.||Spoločnosť s ručením obmedzeným||||904/11|8. mája|Ľubica|['05971']|Slovenská republika|2010-04-10|
653240|36455385|Š - AUTOSERVIS Vranov, s.r.o.||Spoločnosť s ručením obmedzeným||||5|Požiarnická|Stropkov|['09101']|Slovenská republika|1998-05-19|
6083758|50068849|MP Profit PB, s.r.o.||Spoločnosť s ručením obmedzeným||||712/25|Hliníky|Považská Bystrica|['01701']|Slovenská republika|2015-12-09|
645877|46461825|SIMEL-VT s.r.o.||Spoločnosť s ručením obmedzeným||||97/85|Hlavná|Vechec|['09412']|Slovenská republika|2011-12-10|
710632|31714030|EKOSERVIS SLOVENSKO s.r.o.||Spoločnosť s ručením obmedzeným||||126|Stredná|Veľký Slavkov|['05991']|Slovenská republika|1995-09-26|
3210010|34906231|Magdaléna Kokoruďová - REPROS||Podnikateľ-fyzická osoba-nezapísaný v obchodnom registri||||107B|Fintická|Prešov|['08006']|Slovenská republika|1997-06-01|
9369888|00328758|Mesto Rožňava||Obec (obecný úrad), mesto (mestský úrad)|||Rožňava, Šafárikova 499/29, 04801, Slovenská republika|29|Šafárikova|Rožňava|['04801']|Slovenská republika|1973-07-01|
2692730|33271887|Ing. Michal Dvorjak||Podnikateľ-fyzická osoba-nezapísaný v obchodnom registri||||||Čierne nad Topľou|['09434']|Slovenská republika|1994-03-03|
13635767|53044703|Zariadenie pre seniorov Minor, n.o.||Nezisková organizácia poskytujúca všeobecne prospešné služby||||25|Nám. Čsl. Arm.|Zborov|['08633']|Slovenská republika|2020-04-06|
570956|36057487|MMJ Trade s.r.o.||Spoločnosť s ručením obmedzeným||||143/16|Dukelských hrdinov|Zvolen|['96001']|Slovenská republika|2002-12-05|
666707|36454842|JL international s. r. o.||Spoločnosť s ručením obmedzeným||||1937|Sládkovičova|Hencovce|['09302']|Slovenská republika|1998-04-07|
9388953|30798841|Centrum právnej pomoci||Rozpočtová organizácia|||Bratislava - mestská časť Staré Mesto, Námestie slobody 2906/12, 81005, Slovenská republika|12|Námestie slobody|Bratislava - mestská časť Staré Mesto|['81005']|Slovenská republika|1997-01-01|
8761401|50471490|KCI TECH, s.r.o.||Spoločnosť s ručením obmedzeným||||3418/3|Hutnícka|Spišská Nová Ves|['052 01']|Slovenská republika|2016-08-31|
8788079|50485121|RM - DEVELOPER s.r.o.||Spoločnosť s ručením obmedzeným||||272|Veľké Zalužice|Zalužice|['072 34']|Slovenská republika|2016-09-13|
691082|47691859|EM - SA s.r.o.||Spoločnosť s ručením obmedzeným||||52|Na hrunku|Vranov nad Topľou|['09301']|Slovenská republika|2014-02-21|
9306102|51075709|M&D STAV, s.r.o.||Spoločnosť s ručením obmedzeným||||2|K Surdoku|Prešov|['08001']|Slovenská republika|2017-08-26|
9971534|52436411|Alphabet partner s.r.o.||Spoločnosť s ručením obmedzeným||||3426/11C|Strojárenská|Košice - mestská časť Staré Mesto|['04001']|Slovenská republika|2019-06-27|
9838231|52312771|HONESTUM, n.o.||Nezisková organizácia poskytujúca všeobecne prospešné služby||||4|Domašská|Vranov nad Topľou|['09301']|Slovenská republika|2019-03-20|
9063387|50636561|OZ Mažoretky VARANOVIA||Združenie (zväz, spolok, spoločnosť, klub ai.)||||1336|Základná škola, Sídlisko II|Vranov nad Topľou|['09301']|Slovenská republika|2016-12-23|
9388792|35541016|Košický samosprávny kraj||Samosprávny kraj (úrad samosprávneho kraja)|||Košice - mestská časť Staré Mesto, Nám. Maratónu Mieru 68/1|1|Nám. Maratónu Mieru|Košice - mestská časť Staré Mesto|['04001']|Slovenská republika|2002-01-01|
4691188|30789214|Nadácia COOP Jednota||Nadácia||||25|Bajkalská|Bratislava - mestská časť Ružinov|['82718']|Slovenská republika|2001-10-10|
654400|45680540|MRAMED s.r.o.||Spoločnosť s ručením obmedzeným||||1213/30|Sídlisko II.|Vranov nad Topľou|['09301']|Slovenská republika|2015-06-11|
9111753|50747282|Slovak assistance s.r.o.||Spoločnosť s ručením obmedzeným||||15|Mlynárska|Košice - mestská časť Juh|['04001']|Slovenská republika|2017-03-01|
9388674|00156621|Ministerstvo pôdohospodárstva a rozvoja vidieka Slovenskej republiky||Rozpočtová organizácia|||Bratislava - mestská časť Staré Mesto, Dobrovičova 12, 81266, Slovenská republika|12|Dobrovičova|Bratislava - mestská časť Staré Mesto|['81266']|Slovenská republika|1972-01-01|
16111363|54385067|Matejovský Zámoček s. r. o.||Spoločnosť s ručením obmedzeným||||1492/2|Staničná|Poprad|['05951']|Slovenská republika|2022-02-01|
338626|36763977|||Spoločnosť s ručením obmedzeným|||||||||2007-04-12|2021-12-07
616967|31684343|BETPRES, s.r.o.||Spoločnosť s ručením obmedzeným||||1698|Boženy Němcovej|Vranov nad Topľou|['09301']|Slovenská republika|1994-01-27|
4689934|31948138|TJ Družstevník Tovarné||Združenie (zväz, spolok, spoločnosť, klub ai.)||||||Tovarné|['09401']|Slovenská republika|1990-07-24|
9625298|50349287|Ministerstvo investícií, regionálneho rozvoja a informatizácie Slovenskej republiky||Rozpočtová organizácia|||Bratislava - mestská časť Staré Mesto, Pribinova 4195/25, 81109, Slovenská republika|25|Pribinova|Bratislava - mestská časť Staré Mesto|['81109']|Slovenská republika|2016-06-01|
2762052|43559735|Ľuboš Pauko||Podnikateľ-fyzická osoba-nezapísaný v obchodnom registri||||99|Mlynská|Vranov nad Topľou|['09301']|Slovenská republika|2007-05-01|
6492420|50139088|eSYST s.r.o.||Spoločnosť s ručením obmedzeným||||289/2|Fraňa Mráza|Žilina|['01001']|Slovenská republika|2016-01-27|
666311|36487104|Next Team, s.r.o.||Spoločnosť s ručením obmedzeným||||48|Budovateľská|Prešov|['08001']|Slovenská republika|2003-07-29|
15998490|54224799|Osobnyudaj.sk - KB III, s.r.o.||Spoločnosť s ručením obmedzeným||||3/A|Námestie osloboditeľov|Košice - mestská časť Staré Mesto|['040 01']|Slovenská republika|2021-11-25|
650605|46075844|ASFALTER, s.r.o.||Spoločnosť s ručením obmedzeným||||6173/144|Levočská|Prešov|['08001']|Slovenská republika|2011-03-12|
1449095|17241979|Ing. arch. Dušan Hudec - Projektová kancelária URBAN TRADE||Podnikateľ-fyzická osoba-nezapísaný v obchodnom registri||||45|Letná|Košice - mestská časť Sever|['04001']|Slovenská republika|1992-09-20|
759817|31660215|LINE, s.r.o.||Spoločnosť s ručením obmedzeným||||19|Pod Kalváriou|Prešov|['08001']|Slovenská republika|1992-10-20|
4338077|47363959|Ing. Igor Kmeť - ekomap||Podnikateľ-fyzická osoba-nezapísaný v obchodnom registri||||||Pavlova Ves|['03221']|Slovenská republika|2013-08-01|
647323|44104944|EL PRO KAN, s. r. o.||Spoločnosť s ručením obmedzeným||||212/181|M. R. Štefánika|Vranov nad Topľou|['09301']|Slovenská republika|2008-04-10|
193867|31388841|Viessmann, s.r.o.||Spoločnosť s ručením obmedzeným||||30/A|Ivanská cesta|Bratislava - mestská časť Ružinov|['821 04']|Slovenská republika|1995-02-08|
4691323|42344344|Miestna akčná skupina Slanské vrchy - Topľa||Združenie (zväz, spolok, spoločnosť, klub ai.)||||3|Mierová|Hanušovce nad Topľou|['09431']|Slovenská republika|2013-11-28|
9587195|51728842|OROS & Partners s.r.o.||Spoločnosť s ručením obmedzeným||||7|Hviezdoslavova|Košice - mestská časť Staré Mesto|['04001']|Slovenská republika|2018-05-12|
777878|31662919|SCORP, spol. s r.o.||Spoločnosť s ručením obmedzeným||||7|Jaroslawska|Michalovce|['07101']|Slovenská republika|1992-12-04|
8502916|50409743|FUN & PLAY s. r. o.||Spoločnosť s ručením obmedzeným||||403/5|Kvetná|Stropkov|['091 01']|Slovenská republika|2016-07-12|
4741845|42421021|Boxerský klub SM||Združenie (zväz, spolok, spoločnosť, klub ai.)||||62|Sadová|Vranov nad Topľou|['09303']|Slovenská republika|2015-05-15|
9371609|00332429|Obec Holčíkovce||Obec (obecný úrad), mesto (mestský úrad)|||Holčíkovce, Holčíkovce 40|40|Holčíkovce|Holčíkovce|['09405']|Slovenská republika|1973-07-01|
9372811|00332411|Obec Hlinné||Obec (obecný úrad), mesto (mestský úrad)|||Hlinné, Hlinné 74|74|Hlinné|Hlinné|['09435']|Slovenská republika|1973-07-01|
2742989|34897909|Ladislav Feník||Podnikateľ-fyzická osoba-nezapísaný v obchodnom registri||||13|Okulka|Vranov nad Topľou|['09301']|Slovenská republika|1995-10-01|
9694976|35514027|Arcidiecézna charita Košice||Cirkevná organizácia|||Košice - mestská časť Staré Mesto, Bočná 417/2, 04001, Slovenská republika|2|Bočná|Košice - mestská časť Staré Mesto|['04001']|Slovenská republika|1996-01-01|
300427|46167145|Veríme v Zábavu, s.r.o.||Spoločnosť s ručením obmedzeným||||3745/86|Pod Brezinou|Trenčín|['91101']|Slovenská republika|2011-05-04|
967048|31725147|RD-SYSTÉM, s.r.o.||Spoločnosť s ručením obmedzeným||||7||Rakovec nad Ondavou|['07203']|Slovenská republika|1996-04-01|
2746747|46668560|Marek Podolinský||Podnikateľ-fyzická osoba-nezapísaný v obchodnom registri||||45|Dlhá|Sačurov|['09413']|Slovenská republika|2012-05-04|
651948|43894810|VÁHOPROJEKT, s. r. o.||Spoločnosť s ručením obmedzeným||||13|Exnárova|Prešov|['08001']|Slovenská republika|2008-01-26|
651168|44729308|Urban Planning s.r.o.||Spoločnosť s ručením obmedzeným||||11909/8|Na vyhliadke|Prešov - Solivar|['08005']|Slovenská republika|2009-04-07|
9388671|00802751|Vojenský historický ústav||Rozpočtová organizácia|||Bratislava - mestská časť Ružinov, Krajná 1462/27, 82104, Slovenská republika|27|Krajná|Bratislava - mestská časť Ružinov|['82104']|Slovenská republika|1994-05-01|
730617|36489760|ASCARI s.r.o.||Spoločnosť s ručením obmedzeným||||1661/95|Na hrunku|Vranov nad Topľou|['09301']|Slovenská republika|2003-12-19|
9806871|52212220|KHM s. r. o.||Spoločnosť s ručením obmedzeným||||2031/61|Bardejovská|Ľubotice - Šarišské Lúky|['08006']|Slovenská republika|2019-02-14|
691098|46846824|NARNIAN s.r.o.||Spoločnosť s ručením obmedzeným||||2730|Duklianskych hrdinov|Vranov nad Topľou|['09301']|Slovenská republika|2012-09-25|
233810|31432981|A S C spol. s r.o.||Spoločnosť s ručením obmedzeným||||17|Čerešňová|Banská Bystrica|['97405']|Slovenská republika|1993-04-16|
1196814|47851651|Ing. Matúš Rusnák - Záhradná architektúra||Podnikateľ-fyzická osoba-nezapísaný v obchodnom registri||||||Klokočov|['07231']|Slovenská republika|2014-07-09|
9371822|00332631|Obec Ondavské Matiašovce||Obec (obecný úrad), mesto (mestský úrad)|||Ondavské Matiašovce, Ondavské Matiašovce 201, 09401, Slovenská republika|201|Ondavské Matiašovce|Ondavské Matiašovce|['09401']|Slovenská republika|1973-07-01|
1010297|35914921|Železničná spoločnosť Cargo Slovakia, a.s.||Akciová spoločnosť||||28B|Tomášikova|Bratislava - mestská časť Ružinov|['821 01']|Slovenská republika|2005-01-01|
712343|36442151|Stredoslovenská distribučná, a.s.||Akciová spoločnosť||||2927/8|Pri Rajčianke|Žilina|['01047']|Slovenská republika|2006-04-08|
9840535|52295478|Hrabovčan s. r. o., r.s.p.||Spoločnosť s ručením obmedzeným||||153||Nižný Hrabovec|['094 21']|Slovenská republika|2019-03-23|
621173|45483078|MEDIINVEST Consulting, s.r.o.||Spoločnosť s ručením obmedzeným||||15|Lipová|Veľký Šariš|['08221']|Slovenská republika|2010-04-14|
701982|Neuvedené|||Národný výbor|||||||||1983-10-24|2017-06-23
1719028|43154816|Martin Zeleňák - STRECHSTAV||Podnikateľ-fyzická osoba-nezapísaný v obchodnom registri||||303|Pri parku|Strážske|['07222']|Slovenská republika|1999-06-01|
286982|44291809|||Spoločnosť s ručením obmedzeným|||||||||2008-07-18|2022-07-01
2663886|47871440|Ing. Peter Olách||Podnikateľ-fyzická osoba-nezapísaný v obchodnom registri||||||Sedliská|['09409']|Slovenská republika|2014-08-01|
753844|44727194|P.S. ARCH s. r. o.||Spoločnosť s ručením obmedzeným||||614/58/A|SNP|Rozhanovce|['04442']|Slovenská republika|2009-04-16|
16082355|54314399|Nadácia TIPSPORT||Nadácia||||14|Jána Kalinčiaka|Žilina|['010 01']|Slovenská republika|2021-12-31|
1459653|40791785|Ing. Ján Kuko - REVILO||Podnikateľ-fyzická osoba-nezapísaný v obchodnom registri||||43|Žižkova|Košice - mestská časť Juh|['04001']|Slovenská republika|2003-07-25|
1028029|30814677|XEROX LIMITED, organizačná zložka podniku zahraničnej osoby||Nešpecifikovaná právna forma||||7/A|Plynárenská|Bratislava - mestská časť Ružinov|['821 09']|Slovenská republika|1993-12-28|
960111|45994285|PRO - CONSULT s.r.o.||Spoločnosť s ručením obmedzeným||||471|Lekárovce|Lekárovce|['07254']|Slovenská republika|2011-03-25|
1705499|11959321|Ing. Anton Béreš Stavrekon||Podnikateľ-fyzická osoba-nezapísaný v obchodnom registri||||||Pavlovce nad Uhom|['07214']|Slovenská republika|1992-09-15|
9362318|51197219|STK REALITY s.r.o.||Spoločnosť s ručením obmedzeným||||4114|Strojárska|Snina|['06901']|Slovenská republika|2017-11-10|
453320|36526606|PARAPETROL a.s.||Akciová spoločnosť||||15|Štefánikova|Nitra|['94901']|Slovenská republika|1998-02-17|
7184205|50394550|Seniorklub, n.o.||Nezisková organizácia poskytujúca všeobecne prospešné služby||||89|Komárany|Komárany|['09301']|Slovenská republika|2016-06-16|
8542346|50444026|ENAU s. r. o.||Spoločnosť s ručením obmedzeným||||59||Komárany|['09301']|Slovenská republika|2016-07-30|
1008746|45860637|MET Slovakia, a. s.||Akciová spoločnosť||||7|Rajská|Bratislava|['81108']|Slovenská republika|2010-10-05|
13435091|00164984|Divadlo Alexandra Duchnoviča||Príspevková organizácia|||Prešov, Jarková 77, 08001, Slovenská republika|77|Jarková|Prešov|['08001']|Slovenská republika|1972-01-01|
14878534|53310799|HOMIS s.r.o.||Spoločnosť s ručením obmedzeným||||1|Seberíniho|Bratislava - mestská časť Ružinov|['821 03']|Slovenská republika|2020-09-23|
217467|46759786|IT Academy s. r. o.||Spoločnosť s ručením obmedzeným||||12570/50A|Tomášikova|Bratislava - mestská časť Nové Mesto|['83104']|Slovenská republika|2012-07-20|
685344|45329478|ŠTÝL EU s. r. o.||Spoločnosť s ručením obmedzeným||||23||Vyšný Kazimír|['09409']|Slovenská republika|2010-05-28|
16958759|37873431|Centrum voľného času, M. R. Štefánika 870, Vranov nad Topľou||Rozpočtová organizácia||||870|M. R. Štefánika|Vranov nad Topľou||Slovenská republika|1953-09-01|
9667406|30845572|Ministerstvo obrany Slovenskej republiky||Rozpočtová organizácia|||Bratislava - mestská časť Nové Mesto, Námestie generála Viesta 11694/2, 83247, Slovenská republika|2|Námestie generála Viesta|Bratislava - mestská časť Nové Mesto|['83247']|Slovenská republika|1993-01-01|
970284|36216224|HOOK, s.r.o.||Spoločnosť s ručením obmedzeným||||6|Toryská|Košice|['04011']|Slovenská republika|2002-09-11|
327909|48136999|Packeta Slovakia s. r. o.||Spoločnosť s ručením obmedzeným||||1E|Sliačska|Bratislava - mestská časť Nové Mesto|['83102']|Slovenská republika|2015-07-10|
612601|44514557|CITY LIGHT SLOVAKIA s.r.o.||Spoločnosť s ručením obmedzeným||||18|Suchý Jarok|Humenné|['06601']|Slovenská republika|2009-01-01|
6102600|50078275|HC Bulls Vranov||Združenie (zväz, spolok, spoločnosť, klub ai.)||||106|Mlynská|Vranov nad Topľou|['09301']|Slovenská republika|2015-12-03|
280934|47129671|ETIKO s. r. o.||Spoločnosť s ručením obmedzeným||||10|Gemerská|Nitra|['949 01']|Slovenská republika|2013-04-20|
3493176|41083814|Ladislav Džatko JUNIOR||Podnikateľ-fyzická osoba-nezapísaný v obchodnom registri||||||Lieskovec|['06745']|Slovenská republika|2004-03-01|
684578|36492604|APL plus, s.r.o.||Spoločnosť s ručením obmedzeným||||10|Strojnícka|Prešov|['08001']|Slovenská republika|2004-04-03|
3557332|37369806|Ing. Katarína Ježová||Podnikateľ-fyzická osoba-nezapísaný v obchodnom registri||||61|Námestie slobody|Humenné|['06601']|Slovenská republika|2000-09-25|
649451|36770396|FEDAN s.r.o.||Spoločnosť s ručením obmedzeným||||2|Weberova|Prešov|['08001']|Slovenská republika|2007-04-27|
707146|36672297|Severoslovenské vodárne a kanalizácie, a. s.||Akciová spoločnosť||||1960|Bôrická cesta|Žilina|['01057']|Slovenská republika|2006-09-07|
483374|36040461|Team TENEX s.r.o.||Spoločnosť s ručením obmedzeným||||1078/16|Lieskovská cesta|Zvolen|['960 01']|Slovenská republika|2000-03-13|
696688|46571019|Tribiano s. r. o.||Spoločnosť s ručením obmedzeným||||6754/6|Urxova|Prešov|['08001']|Slovenská republika|2012-03-07|
688486|36471950|EKO-FBB s.r.o.||Spoločnosť s ručením obmedzeným||||1055|Lúčna|Vranov nad Topľou|['09301']|Slovenská republika|2001-03-19|
504922|31641440|KOBIT - SK, s.r.o.||Spoločnosť s ručením obmedzeným||||2970/48|M.R.Štefánika|Dolný Kubín|['02601']|Slovenská republika|1995-12-18|
779774|36477508|SAD Humenné, a.s.||Akciová spoločnosť||||1|Fidlikova|Humenné|['06643']|Slovenská republika|2002-01-01|
987273|47400781|Spoločnosť pre skladovanie, a.s.||Akciová spoločnosť||||461||Trakovice|['91933']|Slovenská republika|2013-09-04|
670110|36712736|KRAJSPOL SK, s.r.o.||Spoločnosť s ručením obmedzeným||||14|Závodská cesta|Žilina|['01001']|Slovenská republika|2006-12-15|
9731724|31979122|Rímskokatolícka farnosť sv. Anny, Turany nad Ondavou||Cirkevná organizácia|||Turany nad Ondavou, 26, 09033, Slovenská republika|||Turany nad Ondavou|['09033']|Slovenská republika|1990-01-01|
2871724|41879171|Ing. arch. Martin Baloga||Podnikateľ-fyzická osoba-nezapísaný v obchodnom registri||||23|Námestie svätého Egídia|Poprad|['05801']|Slovenská republika|2005-07-01|
370237|36537551|TM Consulting, s.r.o.||Spoločnosť s ručením obmedzeným||||26|Dolnohorská|Nitra|['94901']|Slovenská republika|2000-08-18|
774012|31608426|EURO MEDIA Košice, s.r.o.||Spoločnosť s ručením obmedzeným||||104|Rastislavova|Košice|['04001']|Slovenská republika|1994-06-07|
643112|31722709|7P s.r.o.||Spoločnosť s ručením obmedzeným||||1077|Herlianska|Vranov nad Topľou|['09303']|Slovenská republika|1996-02-15|
3269927|10739548|Ing. Michal Gajdoš - GM-PROJEKTOVÁ KANCELÁRIA||Podnikateľ-fyzická osoba-nezapísaný v obchodnom registri||||15|Poľná|Prešov|['08006']|Slovenská republika|1992-06-11|
9372059|42355613|Štátny veterinárny a potravinový ústav||Príspevková organizácia|||Dolný Kubín, Jánoškova 1611/58, časť obce: Dolný Kubín, 02601, Slovenská republika|58|Jánoškova|Dolný Kubín|['02601']|Slovenská republika|2014-01-01|
15119521|00893331|Stredná odborná škola informačných technológii, Ostrovského 1, Košice||Príspevková organizácia||||1|Ostrovského|Košice - mestská časť Juh||Slovenská republika|1991-01-04|
9975422|52461785|Mgr. Ivana Loziňaková||Podnikateľ-fyzická osoba-nezapísaný v obchodnom registri||||||Kružlov|['08604']|Slovenská republika|2019-07-01|
971630|36170291|ZORA - MIMEX servis, s.r.o.||Spoločnosť s ručením obmedzeným||||č. 376||Brzotín|['04951']|Slovenská republika|1997-02-11|
405307|46578528|Technichlad, s.r.o.||Spoločnosť s ručením obmedzeným||||40|Nákovná|Bratislava - mestská časť Podunajské Biskupice|['821 06']|Slovenská republika|2012-03-10|
331644|47241888|OLI ihriská s. r. o.||Spoločnosť s ručením obmedzeným||||230||Jasová|['94134']|Slovenská republika|2012-09-26|
3555483|14317141|Ing. arch. Michal Legdan - PROJEX||Podnikateľ-fyzická osoba-nezapísaný v obchodnom registri||||16|Masarykova|Prešov|['08001']|Slovenská republika|1992-05-18|
9388477|30416094|Ministerstvo dopravy Slovenskej republiky||Rozpočtová organizácia|||Bratislava - mestská časť Staré Mesto, Námestie slobody 2902/6, 81005, Slovenská republika|6|Námestie slobody|Bratislava - mestská časť Staré Mesto|['81005']|Slovenská republika|1996-07-01|
919372|36289906|MIVASOFT, spol. s r.o.||Spoločnosť s ručením obmedzeným||||67/14|M.R. Štefánika|Šaľa|['92701']|Slovenská republika|2006-04-01|
13293100|37781391|Vihorlatské múzeum v Humennom||Príspevková organizácia|||Humenné, Námestie slobody 1/1, 06618, Slovenská republika|1|Námestie slobody|Humenné|['06618']|Slovenská republika|1999-04-01|
649987|46617523|ERNEO s.r.o.||Spoločnosť s ručením obmedzeným||||7||Rakovec nad Ondavou|['072 03']|Slovenská republika|2012-04-05|
856249|31685226|REKOM - Košice s.r.o.||Spoločnosť s ručením obmedzeným||||9|Tranovského|Košice|['04001']|Slovenská republika|1994-02-16|
1023786|30792444|BAUER SPEZIALTIEFBAU Gesellschaft m.b.H. - organizačná zložka||Nešpecifikovaná právna forma||||135|Vajnorská|Bratislava - mestská časť Nové Mesto|['83104']|Slovenská republika|2003-02-05|
690465|31671209|Ateliér Urbeko, s.r.o.||Spoločnosť s ručením obmedzeným||||3|Konštantínova|Prešov|['08001']|Slovenská republika|1993-04-29|
1027687|17335345|Slovenský pozemkový fond||Nešpecifikovaná právna forma||||36|Búdková|Bratislava|['81715']|Slovenská republika|1991-08-19|
14551164|35519088|Mestský dom kultúry, príspevková organizácia||Príspevková organizácia|||Vranov nad Topľou, M. R. Štefánika 875/200, časť obce: Vranov, 09301, Slovenská republika|200|M. R. Štefánika|Vranov nad Topľou|['09301']|Slovenská republika|1996-03-01|
9369900|00332950|Obec Vyšný Žipov||Obec (obecný úrad), mesto (mestský úrad)|||Vyšný Žipov, 83|||Vyšný Žipov|['09433']|Slovenská republika|1973-07-01|
9983150|42219281|Rajecká dolina||Nezisková organizácia|||Rajecké Teplice, Nám. SNP 1, Slovenská republika||Nám. SNP|Rajecké Teplice||Slovenská republika|2011-12-28|
9372532|00332364|Obec Ďurďoš||Obec (obecný úrad), mesto (mestský úrad)|||Ďurďoš, 36, 09431, Slovenská republika|||Ďurďoš|['09431']|Slovenská republika|1973-07-01|
9172717|50886771|AQUA PRO EUROPE, a.s.||Akciová spoločnosť||||7|Pod Furčou|Košice - mestská časť Dargovských hrdinov|['04001']|Slovenská republika|2017-05-13|
692670|36498548|ŠTÝL - IVANOV s.r.o.||Spoločnosť s ručením obmedzeným||||23||Vyšný Kazimír|['09409']|Slovenská republika|2004-10-21|
9295798|51050919|Stebel Tek s.r.o.||Spoločnosť s ručením obmedzeným||||4B|Južná trieda|Košice - mestská časť Juh|['040 01']|Slovenská republika|2017-08-09|
907956|36191400|ANTIK Telecom s.r.o.||Spoločnosť s ručením obmedzeným||||10|Čárskeho|Košice|['04001']|Slovenská republika|1999-06-01|
9625308|51779421|TOLEM s.r.o.||Spoločnosť s ručením obmedzeným||||1225/7|Ulica 1. mája|Vranov nad Topľou|['093 01']|Slovenská republika|2018-06-22|
4748467|31945589|Košické folklórne štúdio||Združenie (zväz, spolok, spoločnosť, klub ai.)||||10|Starozagorská|Košice - mestská časť Sídlisko KVP|['04023']|Slovenská republika|1992-12-14|
210594|31396674|Up Slovensko, s. r. o.||Spoločnosť s ručením obmedzeným||||64A|Tomášikova|Bratislava - mestská časť Nové Mesto|['83104']|Slovenská republika|1995-06-14|
403871|46082182|PAPERA s.r.o.||Spoločnosť s ručením obmedzeným||||17|Čerešňová|Banská Bystrica|['97405']|Slovenská republika|2011-03-15|
898398|36705268|GeCom, s.r.o.||Spoločnosť s ručením obmedzeným||||6082/1A|Hviezdoslavova|Michalovce|['07101']|Slovenská republika|2006-12-01|
245334|35843063|ELECTRIK, s.r.o. v konkurze||Spoločnosť s ručením obmedzeným||||54|Mlynské nivy|Bratislava|['82109']|Slovenská republika|2002-09-10|
655730|44449763|KEZ, s.r.o.||Spoločnosť s ručením obmedzeným||||332||Jasenov|['06601']|Slovenská republika|2008-10-17|
1021201|45890935|LAMA energy a. s. - organizačná zložka||Nešpecifikovaná právna forma||||2|Šulekova|Bratislava|['81106']|Slovenská republika|2010-11-09|
363755|47197331|E-VO, s. r. o.||Spoločnosť s ručením obmedzeným||||22|Lovinského|Bratislava - mestská časť Staré Mesto|['81104']|Slovenská republika|2013-06-13|
546995|46186123|Intersystem EU s.r.o.||Spoločnosť s ručením obmedzeným||||295/34|Dukelská|Bytča|['01401']|Slovenská republika|2011-05-20|
1080231|47843438|Mette s. r. o.||Spoločnosť s ručením obmedzeným||||1150/9|Zimná|Košice - mestská časť Staré Mesto|['04001']|Slovenská republika|2014-07-17|
9508608|51475685|mmm architects s.r.o.||Spoločnosť s ručením obmedzeným||||78|Lekárovce|Lekárovce|['072 54']|Slovenská republika|2018-03-13|
627937|36514748|RAMEKO, s.r.o.||Spoločnosť s ručením obmedzeným||||6||Čaklov|['09435']|Slovenská republika|2006-03-27|
642666|36488712|ČECH, s.r.o.||Spoločnosť s ručením obmedzeným||||9|K Surdoku|Prešov|['08001']|Slovenská republika|2003-10-31|
9720250|52006140|LIVING PRO, s. r. o.||Spoločnosť s ručením obmedzeným||||2956/3|Dolné Rudiny, Budova RONDEL OFFICES|Žilina|['01001']|Slovenská republika|2018-10-26|
9371112|00321842|Mesto Bardejov||Obec (obecný úrad), mesto (mestský úrad)|||Bardejov, Radničné námestie 16/16|16|Radničné námestie|Bardejov|['08501']|Slovenská republika|1973-07-01|
9141658|50793632|AGENTURA KRISTINA MUSIC s.r.o.||Spoločnosť s ručením obmedzeným||||149|Vajkovce|Vajkovce|['04443']|Slovenská republika|2017-04-05|
729140|45304726|MMVH s.r.o.||Spoločnosť s ručením obmedzeným||||34/1112|Komenského|Košice|['04001']|Slovenská republika|2010-01-05|
748663|36475891|IKAS, s.r.o.||Spoločnosť s ručením obmedzeným||||48|Námestie Slobody|Humenné|['06601']|Slovenská republika|2001-10-22|
221341|46851658|CYEB s.r.o.||Spoločnosť s ručením obmedzeným||||1415/6|Gusevova|Bratislava - mestská časť Ružinov|['82109']|Slovenská republika|2012-09-26|
9198390|50892851|Morales s.r.o.||Spoločnosť s ručením obmedzeným||||1091||Soľ|['09435']|Slovenská republika|2017-06-02|
596122|36391000|DOXX - Stravné lístky, spol. s r.o.||Spoločnosť s ručením obmedzeným||||356|Kálov|Žilina|['01001']|Slovenská republika|2000-03-22|
4598784|42419123|Centrum futbalových talentov Academy Slovakia||Združenie (zväz, spolok, spoločnosť, klub ai.)||||2|Hríbová|Veľký Šariš|['08221']|Slovenská republika|2015-01-20|
3001234|45676178|Martin Majerčák||Podnikateľ-fyzická osoba-nezapísaný v obchodnom registri||||56|Štúrova|Batizovce|['05935']|Slovenská republika|2010-07-19|
13516119|52953874|ZED - stav, s. r. o.||Spoločnosť s ručením obmedzeným||||52/A|Košická|Bratislava - mestská časť Ružinov|['821 08']|Slovenská republika|2020-03-10|
748891|43850065|RIKOSTAV CONTAINER, s. r. o.||Spoločnosť s ručením obmedzeným||||6||Kobylnice|['08701']|Slovenská republika|2007-12-11|
1074414|45344710|ECOHolding s.r.o.||Spoločnosť s ručením obmedzeným||||2|Tolstého|Košice - mestská časť Sever|['040 01']|Slovenská republika|2010-01-09|
9121682|50778200|TANOT s.r.o.||Spoločnosť s ručením obmedzeným||||48/44|Komenského|Hanušovce nad Topľou|['09431']|Slovenská republika|2017-03-11|
9371160|00332968|Obec Zámutov||Obec (obecný úrad), mesto (mestský úrad)|||Zámutov, 434, 09415, Slovenská republika|||Zámutov|['09415']|Slovenská republika|1973-07-01|
9370366|00325708|Obec Rakovec nad Ondavou||Obec (obecný úrad), mesto (mestský úrad)|||Rakovec nad Ondavou, Rakovec nad Ondavou 209|209|Rakovec nad Ondavou|Rakovec nad Ondavou|['07203']|Slovenská republika|1973-07-01|
2776034|34977139|Ing. Peter Bodor||Podnikateľ-fyzická osoba-nezapísaný v obchodnom registri||||||Juskova Voľa|['09412']|Slovenská republika|1997-11-25|
761267|46017232|C-H Projekt s.r.o.||Spoločnosť s ručením obmedzeným||||7|Ružová|Michalovce|['07101']|Slovenská republika|2011-01-25|
747867|36456471|AUDIT Consult CD, s.r.o.||Spoločnosť s ručením obmedzeným||||2473|Duklianskych hrdinov|Vranov nad Topľou|['09301']|Slovenská republika|1998-07-16|
15826251|00162957|IVES, organizácia pre informatiku verejnej správy||Príspevková organizácia|||Košice - mestská časť Staré Mesto, Československej armády 1174/20, 04001, Slovenská republika|20|Československej armády|Košice - mestská časť Staré Mesto|['04001']|Slovenská republika|1976-01-01|
9730111|31979416|Rímskokatolícka farnosť Obetovania Pána, Skrabské||Cirkevná organizácia|||Skrabské, 6, 09433, Slovenská republika|||Skrabské|['09433']|Slovenská republika|1990-01-01|
9271015|50954059|GAMATRONIK s.r.o.||Spoločnosť s ručením obmedzeným||||957/19|Janka Kráľa|Vranov nad Topľou|['09301']|Slovenská republika|2017-07-05|
704864|31723764|PROFIMONT s.r.o.||Spoločnosť s ručením obmedzeným||||106||Nová Kelča|['09404']|Slovenská republika|1996-03-05|
9371725|00325503|Obec Moravany||Obec (obecný úrad), mesto (mestský úrad)|||Moravany, Moravany 98|98|Moravany|Moravany|['07203']|Slovenská republika|1973-07-01|
1326222|32529597|Štefan Nagy - FAN-AUTO||Podnikateľ-fyzická osoba-nezapísaný v obchodnom registri||||66|Južná trieda|Košice - mestská časť Juh|['04001']|Slovenská republika|1996-01-12|
946235|31699090|Auto Gábriel, s.r.o. Košice||Spoločnosť s ručením obmedzeným||||č. 70|Osloboditeľov|Košice|['04017']|Slovenská republika|1994-11-07|
652266|36857165|JABLOTRON SECURITY Slovakia s.r.o.||Spoločnosť s ručením obmedzeným||||14|Sasinkova|Žilina|['010 01']|Slovenská republika|2008-03-12|
666561|47424532|Klima - Therm Prešov, s.r.o.||Spoločnosť s ručením obmedzeným||||49||Buclovany|['08643']|Slovenská republika|2013-09-28|
16092120|54356075|Tirpak s.r.o.||Spoločnosť s ručením obmedzeným||||330/56|Severná|Pavlovce nad Uhom|['07214']|Slovenská republika|2022-01-19|
9140349|50825488|Ing. Matúš Karas||Podnikateľ-fyzická osoba-nezapísaný v obchodnom registri||||||Košarovce|['09406']|Slovenská republika|2017-04-01|
671453|36483711|EKOARCH, spol. s r.o.||Spoločnosť s ručením obmedzeným||||71|Solivarská|Prešov|['08001']|Slovenská republika|2003-02-10|
9625173|51787440|FAJNO s.r.o.||Spoločnosť s ručením obmedzeným||||7|Svätoplukova|Košice - mestská časť Staré Mesto|['04001']|Slovenská republika|2018-06-22|
1045976|35900008|HYCA s.r.o.||Spoločnosť s ručením obmedzeným||||9|Viničnianska cesta|Pezinok|['90201']|Slovenská republika|2004-09-11|
10895729|52828123|Národná koalícia pre digitálne zručnosti a povolania Slovenskej republiky||Záujmové združenie právnických osôb||||2A|Bottova|Bratislava - mestská časť Staré Mesto|['81109']|Slovenská republika|2019-12-09|
587532|35701722|DIGI SLOVAKIA, s.r.o.||Spoločnosť s ručením obmedzeným||||26|Röntgenova|Bratislava|['85101']|Slovenská republika|1996-10-30|
2712325|35345926|Helena Demčáková||Podnikateľ-fyzická osoba-nezapísaný v obchodnom registri||||13|Vajanského|Vranov nad Topľou|['09303']|Slovenská republika|2000-04-19|
9731308|00587150|Congregatio Jesu, Slovenská provincia||Cirkevná organizácia|||Bratislava - mestská časť Ružinov, Liptovská 1244/35|35|Liptovská|Bratislava - mestská časť Ružinov||Slovenská republika|1941-04-16|
485168|44467141|KFP, s. r. o.||Spoločnosť s ručením obmedzeným||||1566|Štefana Moyzesa|Ružomberok|['03401']|Slovenská republika|2008-10-29|
10907746|35514221|Spišská katolícka charita||Cirkevná organizácia|||Spišská Nová Ves, Slovenská 1765/30, časť obce: Spišská Nová Ves, 05201, Slovenská republika|30|Slovenská|Spišská Nová Ves|['05201']|Slovenská republika|1996-01-01|
1006833|35815256|Slovenský plynárenský priemysel, a.s.||Akciová spoločnosť||||44/a|Mlynské nivy|Bratislava|['82511']|Slovenská republika|2001-07-01|
4599768|31784828|Nadácia Pontis||Nadácia||||2|Zelinárska|Bratislava - mestská časť Ružinov|['82108']|Slovenská republika|1997-10-27|
3836409|40805441|Cyril Vadoc BONITTA||Podnikateľ-fyzická osoba-nezapísaný v obchodnom registri||||43|Kpt. Nálepku|Giraltovce|['08701']|Slovenská republika|2004-03-01|
246700|31326528|GEMMA a.s.||Akciová spoločnosť||||50|Odborárska|Bratislava - mestská časť Nové Mesto|['83102']|Slovenská republika|1992-06-25|
9642704|37943324|JUDr. Ing. Michal Plenta, advokát||Slobodné povolanie-fyzická osoba podnikajúca na základe iného ako živnostenského zákona||||42|Sídlisko Okulka|Vranov nad Topľou|['09301']|Slovenská republika|2004-10-16|
749309|45465606|KOVONET Slovakia s. r. o.||Spoločnosť s ručením obmedzeným||||1126/15|Toplianska|Vranov nad Topľou|['09301']|Slovenská republika|2010-03-17|
15693783|53706331|Lioni SR a ČR, D 122||Združenie (zväz, spolok, spoločnosť, klub ai.)||||47|Panská dolina|Nitra|['94901']|Slovenská republika|2021-05-11|
9134536|50803522|TAMALEX s.r.o.||Spoločnosť s ručením obmedzeným||||66|Kúpeľská|Sobrance|['07301']|Slovenská republika|2017-03-28|
426096|44195591|Z + M servis a. s.||Akciová spoločnosť||||17|Martinčekova|Bratislava - mestská časť Ružinov|['82101']|Slovenská republika|2008-05-29|
740753|36213543|FONTÁNA BALKAN spol. s r.o.||Spoločnosť s ručením obmedzeným||||139|M.R.Štefánika|Vranov nad Topľou|['09301']|Slovenská republika|2002-04-11|
9203440|50953541|Marianna Dvorjaková||Podnikateľ-fyzická osoba-nezapísaný v obchodnom registri||||||Čierne nad Topľou|['09434']|Slovenská republika|2017-06-07|
9749755|52116166|Ekofond SPP, n.o.||Nezisková organizácia poskytujúca všeobecne prospešné služby||||44A|Mlynské nivy|Bratislava - mestská časť Ružinov|['821 09']|Slovenská republika|2018-12-10|
4630762|42233763|Vranovčania pre šport a kultúru||Združenie (zväz, spolok, spoločnosť, klub ai.)||||17|Okulka|Vranov nad Topľou|['09301']|Slovenská republika|2011-11-30|
16275899|47259116|O2 Slovakia, s.r.o.||Spoločnosť s ručením obmedzeným||||40|Pribinova|Bratislava - mestská časť Staré Mesto|['811 09']|Slovenská republika|2022-06-01|
2737954|34327312|Ing. Milan Uhorščák||Podnikateľ-fyzická osoba-nezapísaný v obchodnom registri||||||Kladzany|['09421']|Slovenská republika|1995-11-28|
16125809|54435293|Správa Tatranského národného parku so sídlom v Tatranskej Lomnici||Príspevková organizácia|||Vysoké Tatry, 14066, časť obce: Tatranská Lomnica, 05960, Slovenská republika|||Vysoké Tatry|['05960']|Slovenská republika|2022-03-31|
744694|46005218|Reinter s.r.o.||Spoločnosť s ručením obmedzeným||||5577/5|Fidlíkova|Humenné|['06601']|Slovenská republika|2011-02-01|
1081061|48208761|OON Design s.r.o.||Spoločnosť s ručením obmedzeným||||1699/48|Slovenskej jednoty|Košice - mestská časť Staré Mesto|['040 01']|Slovenská republika|2015-07-10|
632053|44137761|EUROGASTROP, s. r. o.||Spoločnosť s ručením obmedzeným||||7002/10|Čergovská|Prešov|['08001']|Slovenská republika|2008-04-29|
2683172|||||||||||||2003-03-01|2021-08-31
870661|31708951|AQUING spol. s r.o.||Spoločnosť s ručením obmedzeným||||51|Herlianska|Košice|['04014']|Slovenská republika|1995-05-31|
944315|31657095|MONTRÚR s. r. o. Košice||Spoločnosť s ručením obmedzeným||||21|Medená|Košice|['04017']|Slovenská republika|1992-08-19|
6854656|50219111|ECOSTONE s.r.o.||Spoločnosť s ručením obmedzeným||||1797|Toplianska|Vranov nad Topľou|['09301']|Slovenská republika|2016-03-10|
9048034|50621629|Orchester Vychodňarov||Združenie (zväz, spolok, spoločnosť, klub ai.)||||||Nižný Hrabovec|['09421']|Slovenská republika|2016-12-02|
688834|47022329|TORNADONET SK s.r.o.||Spoločnosť s ručením obmedzeným||||217/23|Dujavská|Raslavice|['08641']|Slovenská republika|2013-03-28|
1059609|47372141|CMT Group s. r. o.||Spoločnosť s ručením obmedzeným||||13|Panenská|Bratislava-Staré Mesto|['81103']|Slovenská republika|2013-08-28|
728970|36444618|Brantner Poprad, s.r.o.||Spoločnosť s ručením obmedzeným||||76|Nová|Poprad|['05801']|Slovenská republika|1997-03-10|
3219724|36902225|Ing. Martin Ratkoš - PRO line||Podnikateľ-fyzická osoba-nezapísaný v obchodnom registri||||||Malý Šariš|['08001']|Slovenská republika|1999-01-11|
729406|44675054|SARA-R Slovakia, s.r.o.||Spoločnosť s ručením obmedzeným||||52/25|Hasičská|Lučivná|['059 31']|Slovenská republika|2009-03-07|
622277|44899831|ELINSS, s. r. o.||Spoločnosť s ručením obmedzeným||||78A/507|Žilinská cesta|Lietavská Lúčka|['01311']|Slovenská republika|2009-08-11|
778452|46758054|Prešovské zdravotníctvo, a.s.||Akciová spoločnosť||||7|Nemocničná|Humenné|['06601']|Slovenská republika|2012-08-28|
9388532|00681156|Ministerstvo práce, sociálnych vecí a rodiny Slovenskej republiky||Rozpočtová organizácia|||Bratislava - mestská časť Staré Mesto, Špitálska 4-6, 81643, Slovenská republika|4-6|Špitálska|Bratislava - mestská časť Staré Mesto|['81643']|Slovenská republika|2005-01-01|
3793186|43094368|Peter Ličko||Podnikateľ-fyzická osoba-nezapísaný v obchodnom registri||||36|Matice slovenskej|Stropkov|['09101']|Slovenská republika|2006-04-03|
622159|47142677|LDB s.r.o.||Spoločnosť s ručením obmedzeným||||118||Remeniny|['09431']|Slovenská republika|2013-05-07|
611861|45943958|CEPRAS s.r.o.||Spoločnosť s ručením obmedzeným||||20|Priemyselná štvrť|Sabinov|['08301']|Slovenská republika|2010-12-03|
3796585|32036078|Martin Mikula - MARKO||Podnikateľ-fyzická osoba-nezapísaný v obchodnom registri||||6|Tehelná|Giraltovce|['08701']|Slovenská republika|1992-05-22|
4654634|42384800|Pro futuro hradu Čičva||Združenie (zväz, spolok, spoločnosť, klub ai.)||||||Sedliská|['09409']|Slovenská republika|2014-10-02|
2736829|41961188|Mgr. Gabriela Macková - ALCHEMILLA||Podnikateľ-fyzická osoba-nezapísaný v obchodnom registri||||20|Komenského|Vranov nad Topľou|['09302']|Slovenská republika|2006-02-07|
1817732|42104629|Ing. Slávka Molčanyiová, PhD.||Podnikateľ-fyzická osoba-nezapísaný v obchodnom registri||||||Klokočov|['07236']|Slovenská republika|2009-10-28|
748345|43769292|Suntel Slovakia s.r.o.||Spoločnosť s ručením obmedzeným||||8|Mojmírova|Košice|['04001']|Slovenská republika|2007-10-19|
2718186|34897003|Ján Kažik - PNEUSERVIS||Podnikateľ-fyzická osoba-nezapísaný v obchodnom registri||||76|Dlhá|Vranov nad Topľou|['09301']|Slovenská republika|1997-04-16|
1070720|36022047|SLOVENSKÝ VODOHOSPODÁRSKY PODNIK, štátny podnik||Štátny podnik||||2|Karloveská|Bratislava - mestská časť Karlova Ves|['84104']|Slovenská republika|1997-07-01|
9371444|00332712|Obec Prosačov||Obec (obecný úrad), mesto (mestský úrad)|||Prosačov, 16, 09431, Slovenská republika|||Prosačov|['09431']|Slovenská republika|1973-07-01|
745248|36836907|CONSTRUCTOR - EU s.r.o.||Spoločnosť s ručením obmedzeným||||14|Šoltésovej|Bratislava - mestská časť Staré Mesto|['811 08']|Slovenská republika|2007-09-22|
995069|35919001|Národná diaľničná spoločnosť, a.s.||Akciová spoločnosť||||14|Dúbravská cesta|Bratislava|['84104']|Slovenská republika|2005-02-01|
9370363|00332305|Obec Čičava||Obec (obecný úrad), mesto (mestský úrad)|||Čičava, 41, 09301, Slovenská republika|||Čičava|['09301']|Slovenská republika|1973-07-01|
9832067|00188778|Centrum pre deti a rodiny Vranov nad Topľou||Rozpočtová organizácia|||Vranov nad Topľou, Dr. C. Daxnera 90/7|7|Dr. C. Daxnera|Vranov nad Topľou|['09301']|Slovenská republika|1986-01-01|
00000001|17316219|Geodetický a kartografický ústav Bratislava, Chlumeckého 4, 827 45 Bratislava|||Ústav||||4|Chlumeckého|Bratislava|['827 45']|Slovenská republika|
00000002|37870173|Správa katastra Prešov||Rozpočtová organizácia|||Konštantínova 6, 080 01 Prešov, Slovenská republika|||Prešov|['080 01']|Slovenská republika|2002-01-01|17765805| |Chybny zaznam||||||||||Slovenská republika||
17765806|20210587|Chybny zaznam||||||||||Slovenská republika||
17765807|30854687|Chybny zaznam||||||||||Slovenská republika||
17765808|57711923|Chybny zaznam||||||||||Slovenská republika||
17765809|31047344|Chybny zaznam||||||||||Slovenská republika||
17765810|00000000|Chybny zaznam||||||||||Slovenská republika||
17765811|50 349 2|Chybny zaznam||||||||||Slovenská republika||
17765812|14357798|Chybny zaznam||||||||||Slovenská republika||
17765813|30854678|Chybny zaznam||||||||||Slovenská republika||
17765814|50622499|Chybny zaznam||||||||||Slovenská republika||
17765815|3648250|Chybny zaznam||||||||||Slovenská republika||
17765816|0000001|Chybny zaznam||||||||||Slovenská republika||
17765817|37827731|Chybny zaznam||||||||||Slovenská republika||
17765818|37872061|Chybny zaznam||||||||||Slovenská republika||
17765819|3602247|Chybny zaznam||||||||||Slovenská republika||
17765820|32035078|Chybny zaznam||||||||||Slovenská republika||
17765821|332933|Chybny zaznam||||||||||Slovenská republika||
17765822|53857441|Chybny zaznam||||||||||Slovenská republika||
17765823|26500213|Chybny zaznam||||||||||Slovenská republika||
17765824|039691|Chybny zaznam||||||||||Slovenská republika||
17765825|NS/1-900|Chybny zaznam||||||||||Slovenská republika||
17765826|40552543|Chybny zaznam||||||||||Slovenská republika||
17765827|10.04.19|Chybny zaznam||||||||||Slovenská republika||
17765828|59916173|Chybny zaznam||||||||||Slovenská republika||
17765829|65560562|Chybny zaznam||||||||||Slovenská republika||
17765830|46476648|Chybny zaznam||||||||||Slovenská republika||
17765831|53648218|Chybny zaznam||||||||||Slovenská republika||
17765832|48072354|Chybny zaznam||||||||||Slovenská republika||
17765833| 0015165|Chybny zaznam||||||||||Slovenská republika||
17765834|53788826|Chybny zaznam||||||||||Slovenská republika||
17765835|IČO: 444|Chybny zaznam||||||||||Slovenská republika||
17765836| 31 595 |Chybny zaznam||||||||||Slovenská republika||
17765837|45736369|Chybny zaznam||||||||||Slovenská republika||
17765838|00321168|Chybny zaznam||||||||||Slovenská republika||
17765839|0015186|Chybny zaznam||||||||||Slovenská republika||
17765840|151653|Chybny zaznam||||||||||Slovenská republika||
17765841|50342987|Chybny zaznam||||||||||Slovenská republika||
17765842|12096019|Chybny zaznam||||||||||Slovenská republika||
17765843|40294773|Chybny zaznam||||||||||Slovenská republika||
17765844|36979798|Chybny zaznam||||||||||Slovenská republika||
17765845|14007407|Chybny zaznam||||||||||Slovenská republika||
17765846|00000|Chybny zaznam||||||||||Slovenská republika||
17765847|33269009|Chybny zaznam||||||||||Slovenská republika||
17765848|31 651 5|Chybny zaznam||||||||||Slovenská republika||
17765849|35279621|Chybny zaznam||||||||||Slovenská republika||
17765850|3647508|Chybny zaznam||||||||||Slovenská republika||
17765851|DEUS|Chybny zaznam||||||||||Slovenská republika||
17765852|45 736 3|Chybny zaznam||||||||||Slovenská republika||
17765853|36 450 8|Chybny zaznam||||||||||Slovenská republika||
17765854|48909513|Chybny zaznam||||||||||Slovenská republika||
17765855|44 873 9|Chybny zaznam||||||||||Slovenská republika||
17765856|42 181 8|Chybny zaznam||||||||||Slovenská republika||
17765857|42086540|Chybny zaznam||||||||||Slovenská republika||
17765858|10312965|Chybny zaznam||||||||||Slovenská republika||
17765859|850 05 |Chybny zaznam||||||||||Slovenská republika||
17765860|41947164|Chybny zaznam||||||||||Slovenská republika||
17765861|43237654|Chybny zaznam||||||||||Slovenská republika||
17765862|35556706|Chybny zaznam||||||||||Slovenská republika||
17765863|00735833|Chybny zaznam||||||||||Slovenská republika||
17765864|42077508|Chybny zaznam||||||||||Slovenská republika||
17765865|31 575 9|Chybny zaznam||||||||||Slovenská republika||
17765866|17 335 3|Chybny zaznam||||||||||Slovenská republika||
17765867|50341420|Chybny zaznam||||||||||Slovenská republika||
17765868|35540249|Chybny zaznam||||||||||Slovenská republika||
17765869|52209645|Chybny zaznam||||||||||Slovenská republika||
17765870|30622123|Chybny zaznam||||||||||Slovenská republika||
17765871|0016197|Chybny zaznam||||||||||Slovenská republika||
17765872|42156422|Chybny zaznam||||||||||Slovenská republika||
17765873|17335344|Chybny zaznam||||||||||Slovenská republika||
17765874|36 514 7|Chybny zaznam||||||||||Slovenská republika||
17765875|364 864 |Chybny zaznam||||||||||Slovenská republika||
17765876|35520361|Chybny zaznam||||||||||Slovenská republika||
17765877|317 848 |Chybny zaznam||||||||||Slovenská republika||
17765878|44 228 8|Chybny zaznam||||||||||Slovenská republika||
17765879|36 467 9|Chybny zaznam||||||||||Slovenská republika||
17765880|36 205 2|Chybny zaznam||||||||||Slovenská republika||
17765881|55 108 7|Chybny zaznam||||||||||Slovenská republika||
17765882|36 569 3|Chybny zaznam||||||||||Slovenská republika||
17765883|47 84 34|Chybny zaznam||||||||||Slovenská republika||
17765884|47 136 2|Chybny zaznam||||||||||Slovenská republika||
17765885|52 233 2|Chybny zaznam||||||||||Slovenská republika||
17765886|3621145|Chybny zaznam||||||||||Slovenská republika||
17765887|36235846|Chybny zaznam||||||||||Slovenská republika||
17765888|50 711 9|Chybny zaznam||||||||||Slovenská republika||
17765889|360 378 |Chybny zaznam||||||||||Slovenská republika||
17765890|31 713 6|Chybny zaznam||||||||||Slovenská republika||
17765891|36 839 0|Chybny zaznam||||||||||Slovenská republika||
17765892|34 570 9|Chybny zaznam||||||||||Slovenská republika||
17765893|3079436|Chybny zaznam||||||||||Slovenská republika||
17765894|37873324|Chybny zaznam||||||||||Slovenská republika||
17765895|42 137 5|Chybny zaznam||||||||||Slovenská republika||
17765896|3315741|Chybny zaznam||||||||||Slovenská republika||
17765897|37 870 4|Chybny zaznam||||||||||Slovenská republika||
17765898|00 332 9|Chybny zaznam||||||||||Slovenská republika||
17765899|51776990|Chybny zaznam||||||||||Slovenská republika||
17765900|00735710|Chybny zaznam||||||||||Slovenská republika||
17765901| 3670526|Chybny zaznam||||||||||Slovenská republika||
17765902|IČO36599|Chybny zaznam||||||||||Slovenská republika||
17765903|332 933|Chybny zaznam||||||||||Slovenská republika||
17765904|Ševčenko|Chybny zaznam||||||||||Slovenská republika||
17765905|3157595|Chybny zaznam||||||||||Slovenská republika||
17765906|42239711|Chybny zaznam||||||||||Slovenská republika||
17765907|5328089|Chybny zaznam||||||||||Slovenská republika||
17765908|00332441|Chybny zaznam||||||||||Slovenská republika||
17765909|00332303|Chybny zaznam||||||||||Slovenská republika||
17765910|48508046|Chybny zaznam||||||||||Slovenská republika||
17765911|35196023|Chybny zaznam||||||||||Slovenská republika||
17765912|51484048|Chybny zaznam||||||||||Slovenská republika||
17765913|43010466|Chybny zaznam||||||||||Slovenská republika||
17765914|37944315|Chybny zaznam||||||||||Slovenská republika||
17765915|34410821|Chybny zaznam||||||||||Slovenská republika||
17765916|319592|Chybny zaznam||||||||||Slovenská republika||
17765917|18040391|Chybny zaznam||||||||||Slovenská republika||
17765918|00002895|Chybny zaznam||||||||||Slovenská republika||
17765919|151866|Chybny zaznam||||||||||Slovenská republika||
17765920|164348|Chybny zaznam||||||||||Slovenská republika||
17765921|00544426|Chybny zaznam||||||||||Slovenská republika||
